{
"type": "FeatureCollection",
"name": "kantor_kec",
"crs": { "type": "name", "properties": { "name": "urn:ogc:def:crs:OGC:1.3:CRS84" } },
"features": [
{ "type": "Feature", "properties": { "KODEWIL": "33.74.01", "NAMOBJ": "Semarang Tengah", "Alamat": "Jalan Taman Seteran Barat Nomor 1 RT 6 RW 5 Kelurahan Miroto", "Link_Website": "https://kecsmgtengah.semarangkota.go.id/", "KOORDX": 110.42, "KOORDY": -6.984, "File_img": "kecamatan_stengah.jpeg" }, "geometry": { "type": "Point", "coordinates": [ 110.4197, -6.983667 ] } },
{ "type": "Feature", "properties": { "KODEWIL": "33.74.02", "NAMOBJ": "Semarang Utara", "Alamat": "Jalan Taman Brotojoyo Nomor 2 RT 005 RW 002, Kelurahan Panggung Kidul", "Link_Website": "https://kecsmgutara.semarangkota.go.id/", "KOORDX": 110.407, "KOORDY": -6.965, "File_img": "kecamatan_semut.jpg" }, "geometry": { "type": "Point", "coordinates": [ 110.407, -6.965436 ] } },
{ "type": "Feature", "properties": { "KODEWIL": "33.74.03", "NAMOBJ": "Semarang Timur", "Alamat": "Jalan Barito Nomor 5 RT 8 RW 1 Kelurahan Karangtempel", "Link_Website": "https://kecsmgtimur.semarangkota.go.id/", "KOORDX": 110.44, "KOORDY": -6.987, "File_img": "kecamatan_stimur.jpeg" }, "geometry": { "type": "Point", "coordinates": [ 110.439621432004287, -6.986892330552553 ] } },
{ "type": "Feature", "properties": { "KODEWIL": "33.74.04", "NAMOBJ": "Gayamsari", "Alamat": "Jalan Slamet Riyadi Nomor 8 RT 4 RW 4 Kelurahan Gayamsari", "Link_Website": "https://kecgayamsari.semarangkota.go.id/en", "KOORDX": 110.449, "KOORDY": -6.999, "File_img": "kecamatan_gayamsari.jpeg" }, "geometry": { "type": "Point", "coordinates": [ 110.449342622055028, -6.999245719755507 ] } },
{ "type": "Feature", "properties": { "KODEWIL": "33.74.05", "NAMOBJ": "Genuk", "Alamat": "Jalan Dongbiru Nomor 12 RT 03 RW 03 Kelurahan Genuksari", "Link_Website": "kecgenuk.semarangkota.go.id/en", "KOORDX": 110.477, "KOORDY": -6.965, "File_img": "kecamatan_genuk.jpeg" }, "geometry": { "type": "Point", "coordinates": [ 110.4772, -6.965175 ] } },
{ "type": "Feature", "properties": { "KODEWIL": "33.74.06", "NAMOBJ": "Pedurungan", "Alamat": "Jalan Brigjen Sudiarto Nomor 367 RT 5 RW V Kelurahan Gemah", "Link_Website": "https://kecpedurungan.semarangkota.go.id/", "KOORDX": 110.466, "KOORDY": -7.01, "File_img": "kecamatan_pedurungan.jpg" }, "geometry": { "type": "Point", "coordinates": [ 110.4658, -7.009556 ] } },
{ "type": "Feature", "properties": { "KODEWIL": "33.74.07", "NAMOBJ": "Semarang Selatan", "Alamat": "Jalan Taman Sompok RT 8 RW 3 Kelurahan Lamper Lor", "Link_Website": "https://kecsmgselatan.semarangkota.go.id/", "KOORDX": 110.437, "KOORDY": -7.002, "File_img": "kecamatan_sselatan.jfif" }, "geometry": { "type": "Point", "coordinates": [ 110.4373, -7.001797 ] } },
{ "type": "Feature", "properties": { "KODEWIL": "33.74.08", "NAMOBJ": "Candisari", "Alamat": "Jalan Kesatrian Nomor 18 RT 01 RW 02 Kelurahan Jatingaleh", "Link_Website": "https://keccandisari.semarangkota.go.id/", "KOORDX": 110.428, "KOORDY": -7.027, "File_img": "kecamatan_candisari.jpeg" }, "geometry": { "type": "Point", "coordinates": [ 110.4279, -7.026636 ] } },
{ "type": "Feature", "properties": { "KODEWIL": "33.74.09", "NAMOBJ": "Gajahmungkur", "Alamat": "Jalan S. Parman Nomor 38 A, RT 003/RW 004 Kelurahan Bendungan", "Link_Website": "https://kecgajahmungkur.semarangkota.go.id", "KOORDX": 110.409, "KOORDY": -7.004, "File_img": "kecamatan_gajahmungkur.jpg" }, "geometry": { "type": "Point", "coordinates": [ 110.4089, -7.004136 ] } },
{ "type": "Feature", "properties": { "KODEWIL": "33.74.10", "NAMOBJ": "Tembalang", "Alamat": "Jalan Kol. H. Iman Soeparto Tjakrajoedha, SH Nomor 1 RT 6 RW 3 Kelurahan Bulusan", "Link_Website": "https://kectembalang.semarangkota.go.id/", "KOORDX": 110.448, "KOORDY": -7.06, "File_img": "kecamatan_tembalang.jpg" }, "geometry": { "type": "Point", "coordinates": [ 110.4475, -7.059758 ] } },
{ "type": "Feature", "properties": { "KODEWIL": "33.74.11", "NAMOBJ": "Banyumanik", "Alamat": "Jalan Profesor Soedarto, SH Nomor 116 RT 4 RW 3 Kelurahan Sumurboto", "Link_Website": "https://kecbanyumanik.semarangkota.go.id/", "KOORDX": 110.428, "KOORDY": -7.053, "File_img": "kecamatan_banyumanik.png" }, "geometry": { "type": "Point", "coordinates": [ 110.428403099971547, -7.053256179392944 ] } },
{ "type": "Feature", "properties": { "KODEWIL": "33.74.12", "NAMOBJ": "Gunungpati", "Alamat": "Jalan Mr. Wuryanto KM 5 RT 01 RW 05 Kelurahan Sumurrejo", "Link_Website": "https://kecgunungpati.semarangkota.go.id/", "KOORDX": 110.387, "KOORDY": -7.103, "File_img": "kecamatan_gunungpati.jpg" }, "geometry": { "type": "Point", "coordinates": [ 110.3865, -7.103472 ] } },
{ "type": "Feature", "properties": { "KODEWIL": "33.74.13", "NAMOBJ": "Semarang Barat", "Alamat": "Jalan Ronggolawe No 2 RT 1 RW 8 Kelurahan Gisikdrono", "Link_Website": "https://kecsmgbarat.semarangkota.go.id/", "KOORDX": 110.389, "KOORDY": -6.982, "File_img": "kecamatan_sembar.jpg" }, "geometry": { "type": "Point", "coordinates": [ 110.389091709403644, -6.982257644963988 ] } },
{ "type": "Feature", "properties": { "KODEWIL": "33.74.14", "NAMOBJ": "Mijen", "Alamat": "Jalan RM. Hadisoebeno Sosro Wardoyo Nomor 122 RT 4 RW 1 Kelurahan Jatisari", "Link_Website": "https://kecmijen.semarangkota.go.id", "KOORDX": 110.309, "KOORDY": -7.076, "File_img": "kecamatan_mijen.jpg" }, "geometry": { "type": "Point", "coordinates": [ 110.3091, -7.076389 ] } },
{ "type": "Feature", "properties": { "KODEWIL": "33.74.15", "NAMOBJ": "Ngaliyan", "Alamat": "Jalan Prof. DR. Hamka RT 02 RW 01 Kelurahan Ngaliyan", "Link_Website": "https://kecngaliyan.semarangkota.go.id/", "KOORDX": 110.347, "KOORDY": -6.997, "File_img": "kecamatan_ngaliyan.jfif" }, "geometry": { "type": "Point", "coordinates": [ 110.347448807505273, -6.997137756439243 ] } },
{ "type": "Feature", "properties": { "KODEWIL": "33.74.16", "NAMOBJ": "Tugu", "Alamat": "Jalan Walisongo KM. 10 RT 08 RW 03 Kelurahan Tugurejo", "Link_Website": "https://kectugu.semarangkota.go.id/", "KOORDX": 110.345, "KOORDY": -6.985, "File_img": "kecamatan_tugu,jpg" }, "geometry": { "type": "Point", "coordinates": [ 110.345247961563445, -6.98524563180064 ] } }
]
}
