{
"type": "FeatureCollection",
"name": "TPS_Semarang",
"crs": { "type": "name", "properties": { "name": "urn:ogc:def:crs:OGC:1.3:CRS84" } },
"features": [
{ "type": "Feature", "properties": { "Kecamatan": "Banyumanik", "Kelurahan": "Banyumanik", "NAMEOBJ": "TPS BANGUN HARJO RW V", "Alamat": "Jl. Ondo Rante", "Latitude": -7.079715496, "Longitude": 110.4093114, "Kontainer": 2, "Foto": "https://drive.google.com/file/d/14NfeLwJj2y6U53KgIk_PsqOsd2-41Hnl/view?usp=drive_link" }, "geometry": { "type": "Point", "coordinates": [ 110.4093114, -7.079715496 ] } },
{ "type": "Feature", "properties": { "Kecamatan": "Banyumanik", "Kelurahan": "Banyumanik", "NAMEOBJ": "TPS PERWIRA RW VI", "Alamat": "Jl. Diponegoro", "Latitude": -7.074144405, "Longitude": 110.409965, "Kontainer": 2, "Foto": "https://drive.google.com/file/d/1k9yMFaxFoXYok8ta4rJ_johJ7mKD0RhX/view?usp=drive_link" }, "geometry": { "type": "Point", "coordinates": [ 110.409965, -7.074144405 ] } },
{ "type": "Feature", "properties": { "Kecamatan": "Banyumanik", "Kelurahan": "Banyumanik", "NAMEOBJ": "TPS RW 1 MPU SENDOK", "Alamat": "Jl. Mpu Sendok", "Latitude": -7.08351487, "Longitude": 110.4136556, "Kontainer": 1, "Foto": "https://drive.google.com/file/d/10PkqLrDJhibXQOZO9LnW6EGAwDOc_XL2/view?usp=sharing" }, "geometry": { "type": "Point", "coordinates": [ 110.4136556, -7.08351487 ] } },
{ "type": "Feature", "properties": { "Kecamatan": "Banyumanik", "Kelurahan": "Banyumanik", "NAMEOBJ": "TPS RW V MANDIRI", "Alamat": "Jl. Parikesit", "Latitude": -7.0792766, "Longitude": 110.4154436, "Kontainer": 2, "Foto": "https://drive.google.com/file/d/1_Qu7_7K10eUiw6db7fWLbU3MxprBdNgR/view?usp=drive_link" }, "geometry": { "type": "Point", "coordinates": [ 110.4154436, -7.0792766 ] } },
{ "type": "Feature", "properties": { "Kecamatan": "Banyumanik", "Kelurahan": "Gedawang", "NAMEOBJ": "TPS BERSAMA (GED & PUPAY)", "Alamat": "Jl. Gedawang Kav. Permai (pasar gedawang)", "Latitude": -7.091689079, "Longitude": 110.4205735, "Kontainer": 2, "Foto": "https://drive.google.com/file/d/1iMJ0v3dqA0ZCXLiTa8BXYcQG9cJ-zO7i/view?usp=drive_link" }, "geometry": { "type": "Point", "coordinates": [ 110.4205735, -7.091689079 ] } },
{ "type": "Feature", "properties": { "Kecamatan": "Banyumanik", "Kelurahan": "Gedawang", "NAMEOBJ": "TPS GEDAWANG", "Alamat": "Jl. H Suradi", "Latitude": -7.086152314, "Longitude": 110.423003, "Kontainer": 1, "Foto": "https://drive.google.com/file/d/1kGDcnqm8oUDICS9s99DhBm03gDD7hD1F/view?usp=drive_link" }, "geometry": { "type": "Point", "coordinates": [ 110.423003, -7.086152314 ] } },
{ "type": "Feature", "properties": { "Kecamatan": "Banyumanik", "Kelurahan": "Jabungan", "NAMEOBJ": "TPS3R JABUNGAN", "Alamat": "Jl. Jabungan", "Latitude": -7.084949327, "Longitude": 110.44989, "Kontainer": 2, "Foto": "https://drive.google.com/file/d/1tY_TUA9KZrevstr1mH4HipijsamUiW7d/view?usp=drive_link" }, "geometry": { "type": "Point", "coordinates": [ 110.44989, -7.084949327 ] } },
{ "type": "Feature", "properties": { "Kecamatan": "Banyumanik", "Kelurahan": "Ngesrep", "NAMEOBJ": "TPS NGESREP", "Alamat": "Jalan Trangkil", "Latitude": -7.034448418, "Longitude": 110.4181842, "Kontainer": 2, "Foto": "https://drive.google.com/file/d/1ERGlz8BNyGDM2kpX1-CqeHfpSviHSz6C/view?usp=drive_link" }, "geometry": { "type": "Point", "coordinates": [ 110.4181842, -7.034448418 ] } },
{ "type": "Feature", "properties": { "Kecamatan": "Banyumanik", "Kelurahan": "Padangsari", "NAMEOBJ": "TPS PASAR DAMAR", "Alamat": "Jl. Kanfer Raya", "Latitude": -7.071890426, "Longitude": 110.429562, "Kontainer": 1, "Foto": "https://drive.google.com/file/d/13w2gPDDbwhe8uyGczcDmh9afP3cYqusY/view?usp=drive_link" }, "geometry": { "type": "Point", "coordinates": [ 110.429562, -7.071890426 ] } },
{ "type": "Feature", "properties": { "Kecamatan": "Banyumanik", "Kelurahan": "Padangsari", "NAMEOBJ": "TPS ULIN", "Alamat": "Jl. Damar Terusan", "Latitude": -7.073186, "Longitude": 110.430905, "Kontainer": 1, "Foto": "https://drive.google.com/file/d/10yXjOjBgJ0MziXiIIgzu6-yotOH5Yh61/view?usp=drive_link" }, "geometry": { "type": "Point", "coordinates": [ 110.430905, -7.073186 ] } },
{ "type": "Feature", "properties": { "Kecamatan": "Banyumanik", "Kelurahan": "Pendalangan", "NAMEOBJ": "TPS 3R PEDALANGAN BERSINAR", "Alamat": "Jl. Tirto Agung Raya", "Latitude": -7.063328542, "Longitude": 110.4273533, "Kontainer": 2, "Foto": "https://drive.google.com/file/d/1jQS_WlnsWY6hqucL7A-wIL-bANCSplgp/view?usp=drive_link" }, "geometry": { "type": "Point", "coordinates": [ 110.4273533, -7.063328542 ] } },
{ "type": "Feature", "properties": { "Kecamatan": "Banyumanik", "Kelurahan": "Srondol Kulon", "NAMEOBJ": "TPS BUKIT REGENCY", "Alamat": "Jalan Ngesrep Barat III", "Latitude": -7.044556008, "Longitude": 110.4159261, "Kontainer": 1, "Foto": "https://drive.google.com/file/d/1uD8auldSAw5xmoj5OPXepo-AZy2Bcb49/view?usp=sharing" }, "geometry": { "type": "Point", "coordinates": [ 110.4159261, -7.044556008 ] } },
{ "type": "Feature", "properties": { "Kecamatan": "Banyumanik", "Kelurahan": "Srondol Kulon", "NAMEOBJ": "TPS PASAR SRONDOL", "Alamat": "Jalan Potrosari II", "Latitude": -7.058029143, "Longitude": 110.4133239, "Kontainer": 1, "Foto": "https://drive.google.com/file/d/1WzFYoCVgkuOyjTGJNE1Roea4NPqMCIoQ/view?usp=drive_link" }, "geometry": { "type": "Point", "coordinates": [ 110.4133239, -7.058029143 ] } },
{ "type": "Feature", "properties": { "Kecamatan": "Banyumanik", "Kelurahan": "Srondol Wetan", "NAMEOBJ": "TPS MERANTI", "Alamat": "Jl. Gaharu raya", "Latitude": -7.071839, "Longitude": 110.420444, "Kontainer": 2, "Foto": "https://drive.google.com/file/d/1Wh82bJWVLUli93cZRN54hHh-yaha8PXO/view?usp=drive_link" }, "geometry": { "type": "Point", "coordinates": [ 110.420444, -7.071839 ] } },
{ "type": "Feature", "properties": { "Kecamatan": "Banyumanik", "Kelurahan": "Srondol Wetan", "NAMEOBJ": "TPS RASAMALA", "Alamat": "Jl. Rasamala Raya", "Latitude": -7.070196443, "Longitude": 110.4168362, "Kontainer": 2, "Foto": "https://drive.google.com/file/d/1ZCIrpiIgTUSEmx6TQW9OL0hiAdNE-lIy/view?usp=drive_link" }, "geometry": { "type": "Point", "coordinates": [ 110.4168362, -7.070196443 ] } },
{ "type": "Feature", "properties": { "Kecamatan": "Banyumanik", "Kelurahan": "Sumurboto", "NAMEOBJ": "TPS ERELA", "Alamat": "Jalan Srondol Asri II", "Latitude": -7.057919155, "Longitude": 110.4160971, "Kontainer": 1, "Foto": "https://drive.google.com/file/d/1j3DU-mB2p23Z8rY9NWgY1a5ysIWV0pV7/view?usp=drive_link" }, "geometry": { "type": "Point", "coordinates": [ 110.4160971, -7.057919155 ] } },
{ "type": "Feature", "properties": { "Kecamatan": "Banyumanik", "Kelurahan": "Tinjomoyo", "NAMEOBJ": "TPS PASAR JATINGALEH", "Alamat": "Jl. Karangrejo Selatan", "Latitude": -7.032314992, "Longitude": 110.416278, "Kontainer": 3, "Foto": "https://drive.google.com/file/d/1e3HMOO0hmXA6WcMCCy2YNTHPC0vyh_Cm/view?usp=drive_link" }, "geometry": { "type": "Point", "coordinates": [ 110.416278, -7.032314992 ] } },
{ "type": "Feature", "properties": { "Kecamatan": "Candisari", "Kelurahan": "Candi", "NAMEOBJ": "TPS PASAR CANDI", "Alamat": "Jl. Candi Lama RT 1 RW 10", "Latitude": -7.015688, "Longitude": 110.427312, "Kontainer": 1, "Foto": "https://drive.google.com/file/d/1RX7dumty2ZSdDXGdBGB6NVy1S8vT2LLQ/view?usp=sharing" }, "geometry": { "type": "Point", "coordinates": [ 110.427312, -7.015688 ] } },
{ "type": "Feature", "properties": { "Kecamatan": "Candisari", "Kelurahan": "Jatingaleh", "NAMEOBJ": "TPS KASIPAH", "Alamat": "Jl. Kasipah (Dekat SMK Muhammadiyah)", "Latitude": -7.020403, "Longitude": 110.426032, "Kontainer": 1, "Foto": "https://drive.google.com/file/d/1scwY9b-EViUqrB9zDtzlJGXKTrRFN9QU/view?usp=sharing" }, "geometry": { "type": "Point", "coordinates": [ 110.426032, -7.020403 ] } },
{ "type": "Feature", "properties": { "Kecamatan": "Candisari", "Kelurahan": "Jatingaleh", "NAMEOBJ": "TPS YON ARHANUD", "Alamat": "Komplek Yon Arhanud 15", "Latitude": -7.030306, "Longitude": 110.421944, "Kontainer": 1, "Foto": "https://drive.google.com/file/d/1kF_3g8QDifpjNB-teTOLH278oJLl-cFe/view?usp=drive_link" }, "geometry": { "type": "Point", "coordinates": [ 110.421944, -7.030306 ] } },
{ "type": "Feature", "properties": { "Kecamatan": "Candisari", "Kelurahan": "Jomblang", "NAMEOBJ": "TPS KAMPUNG BARU MRICAN", "Alamat": "Kampung Baru Mrican RW 15", "Latitude": -7.011001, "Longitude": 110.441524, "Kontainer": 1, "Foto": "https://drive.google.com/file/d/1QLeHFOkhb5bIYBFvB0hRuGoia3jVd2rD/view?usp=drive_link" }, "geometry": { "type": "Point", "coordinates": [ 110.441524, -7.011001 ] } },
{ "type": "Feature", "properties": { "Kecamatan": "Candisari", "Kelurahan": "Kaliwiru", "NAMEOBJ": "TPS LOMPOBATANG BARAT", "Alamat": "Jl. Lompobatang (Barat) / Jl. Sultan Agung", "Latitude": -7.019596, "Longitude": 110.419399, "Kontainer": 1, "Foto": "https://drive.google.com/file/d/1fkyeY-BWU47804vJ602ya5zFykwlK3ka/view?usp=drive_link" }, "geometry": { "type": "Point", "coordinates": [ 110.419399, -7.019596 ] } },
{ "type": "Feature", "properties": { "Kecamatan": "Candisari", "Kelurahan": "Kaliwiru", "NAMEOBJ": "TPS LOMPOBATANG TIMUR", "Alamat": "Jl. Lompobatang (Timur)", "Latitude": -7.01773, "Longitude": 110.425674, "Kontainer": 1, "Foto": "https://drive.google.com/file/d/1OkCPRnowqSSbxvHDFJryQLKcpDal6VZJ/view?usp=sharing" }, "geometry": { "type": "Point", "coordinates": [ 110.425674, -7.01773 ] } },
{ "type": "Feature", "properties": { "Kecamatan": "Candisari", "Kelurahan": "Karanganyar Gunung", "NAMEOBJ": "TPS JANGLI TLAWAH", "Alamat": "Jl. Jangli Tlawah", "Latitude": -7.024595, "Longitude": 110.432169, "Kontainer": 1, "Foto": "https://drive.google.com/file/d/1gw-bjaFxsqvnXouVVBzfWVa01_qmlBjs/view?usp=sharing" }, "geometry": { "type": "Point", "coordinates": [ 110.432169, -7.024595 ] } },
{ "type": "Feature", "properties": { "Kecamatan": "Candisari", "Kelurahan": "Karanganyar Gunung", "NAMEOBJ": "TPS KARANGANYAR GUNUNG", "Alamat": "Karanganyar Gunung RT 5 RW 3", "Latitude": -7.016011, "Longitude": 110.432018, "Kontainer": 1, "Foto": "https://drive.google.com/file/d/1nd42Wkx7hAcmuGUBHrttNOscjusOkxZq/view?usp=sharing" }, "geometry": { "type": "Point", "coordinates": [ 110.432018, -7.016011 ] } },
{ "type": "Feature", "properties": { "Kecamatan": "Candisari", "Kelurahan": "Karanganyar Gunung", "NAMEOBJ": "TPS PASAR JANGLI", "Alamat": "Jl. Jangli II (Depan Pasar Jangli)", "Latitude": -7.028084, "Longitude": 110.428435, "Kontainer": 2, "Foto": "https://drive.google.com/file/d/1_jp4DocaauftVLhB2HbYOrx0aFRwBxbY/view?usp=sharing" }, "geometry": { "type": "Point", "coordinates": [ 110.428435, -7.028084 ] } },
{ "type": "Feature", "properties": { "Kecamatan": "Candisari", "Kelurahan": "Tegalsari", "NAMEOBJ": "TPS GENUK KRAJAN", "Alamat": "Jl. Genuksari No.1 C", "Latitude": -7.003028, "Longitude": 110.422972, "Kontainer": 1, "Foto": "https://drive.google.com/file/d/1lC0AsaOJjVtG6DPADOYmp1jlNMV5Y7mo/view?usp=sharing" }, "geometry": { "type": "Point", "coordinates": [ 110.422972, -7.003028 ] } },
{ "type": "Feature", "properties": { "Kecamatan": "Candisari", "Kelurahan": "Tegalsari", "NAMEOBJ": "TPS WILIS", "Alamat": "Jl. Genuk Krajan (Wilis)", "Latitude": -7.003903, "Longitude": 110.421003, "Kontainer": 2, "Foto": "https://drive.google.com/file/d/1iCQ3k0PTkhfsDujnoGv4GeRC-2gdQQLh/view?usp=sharing" }, "geometry": { "type": "Point", "coordinates": [ 110.421003, -7.003903 ] } },
{ "type": "Feature", "properties": { "Kecamatan": "Candisari", "Kelurahan": "Wonotingal", "NAMEOBJ": "TPS PASAR KAGOK", "Alamat": "Jl. Kagok", "Latitude": -7.010861, "Longitude": 110.416057, "Kontainer": 2, "Foto": "https://drive.google.com/file/d/1L5BA-hOoUKLSB0P5WSGzFNy4oCEVCK7_/view?usp=sharing" }, "geometry": { "type": "Point", "coordinates": [ 110.416057, -7.010861 ] } },
{ "type": "Feature", "properties": { "Kecamatan": "Candisari", "Kelurahan": "Wonotingal", "NAMEOBJ": "TPS WONOTINGAL", "Alamat": "Jl. Sinabung Raya", "Latitude": -7.01419, "Longitude": 110.421941, "Kontainer": 1, "Foto": "https://drive.google.com/file/d/1VU2lgmCpSsYu9HoQfSsKbsbDrI_xPGEu/view?usp=drive_link" }, "geometry": { "type": "Point", "coordinates": [ 110.421941, -7.01419 ] } },
{ "type": "Feature", "properties": { "Kecamatan": "Gajahmungkur", "Kelurahan": "Bendan Dhuwur", "NAMEOBJ": "TPS PAWIYATAN LUHUR", "Alamat": "Jl Pawiyatan Luhur RT 3 RW 1", "Latitude": -7.021389579, "Longitude": 110.3981822, "Kontainer": 1, "Foto": "https://drive.google.com/file/d/15cQ5VgF9J6GgTMt411Rv8KXsXyYz0r9i/view?usp=sharing" }, "geometry": { "type": "Point", "coordinates": [ 110.3981822, -7.021389579 ] } },
{ "type": "Feature", "properties": { "Kecamatan": "Gajahmungkur", "Kelurahan": "Bendan Ngisor", "NAMEOBJ": "TPS KENDENG III", "Alamat": "Jl Kendeng RT 2 RW 3", "Latitude": -7.01645757, "Longitude": 110.3938807, "Kontainer": 2, "Foto": "https://drive.google.com/file/d/1yNBnzJi_Dl5UY0rMrAENCYkCN6mkBxux/view?usp=drive_link" }, "geometry": { "type": "Point", "coordinates": [ 110.3938807, -7.01645757 ] } },
{ "type": "Feature", "properties": { "Kecamatan": "Gajahmungkur", "Kelurahan": "Bendan Ngisor", "NAMEOBJ": "TPS WATULAWANG", "Alamat": "Jl Papandayan (Watuwalang) RT 6 RW 2", "Latitude": -7.011069415, "Longitude": 110.402277, "Kontainer": 1, "Foto": "https://drive.google.com/file/d/1YX52c3J0VczIHqva6QPkJGltfxlpYrXo/view?usp=sharing" }, "geometry": { "type": "Point", "coordinates": [ 110.402277, -7.011069415 ] } },
{ "type": "Feature", "properties": { "Kecamatan": "Gajahmungkur", "Kelurahan": "Bendungan", "NAMEOBJ": "TPS GN GEBYOK", "Alamat": "Jl. Gunung Gebyok RT 3 RW 5", "Latitude": -6.996621838, "Longitude": 110.4083123, "Kontainer": 1, "Foto": "https://drive.google.com/file/d/1knfIbwKVjpc8ZZK5hrcPAfwQ_a7UEZcm/view?usp=drive_link" }, "geometry": { "type": "Point", "coordinates": [ 110.4083123, -6.996621838 ] } },
{ "type": "Feature", "properties": { "Kecamatan": "Gajahmungkur", "Kelurahan": "Bendungan", "NAMEOBJ": "TPS RINJANI ATAS", "Alamat": "Jl Rinjani Atas RT 3 RW 4", "Latitude": -7.00352844, "Longitude": 110.4087668, "Kontainer": 1, "Foto": "https://drive.google.com/file/d/1Khn2b_b4Pp2SWMSVhPOM9xuBLP_4IC_N/view?usp=drive_link" }, "geometry": { "type": "Point", "coordinates": [ 110.4087668, -7.00352844 ] } },
{ "type": "Feature", "properties": { "Kecamatan": "Gajahmungkur", "Kelurahan": "Bendungan", "NAMEOBJ": "TPS RINJANI BAWAH", "Alamat": "Jl Rinjani Bawah RT 3 RW 1", "Latitude": -7.000101795, "Longitude": 110.4070078, "Kontainer": 1, "Foto": "https://drive.google.com/file/d/16gNbAuLLMSS_WuCC2x6kBSGG535rM_pv/view?usp=drive_link" }, "geometry": { "type": "Point", "coordinates": [ 110.4070078, -7.000101795 ] } },
{ "type": "Feature", "properties": { "Kecamatan": "Gajahmungkur", "Kelurahan": "Gajahmungkur", "NAMEOBJ": "TPS PAPANDAYAN", "Alamat": "Jl. Papandayan RT 8 RW 4", "Latitude": -7.013859155, "Longitude": 110.4110601, "Kontainer": 1, "Foto": "https://drive.google.com/file/d/1Z2WXb9guZJute6a66gTmTZmmcEnLhoZM/view?usp=drive_link" }, "geometry": { "type": "Point", "coordinates": [ 110.4110601, -7.013859155 ] } },
{ "type": "Feature", "properties": { "Kecamatan": "Gajahmungkur", "Kelurahan": "Gajahmungkur", "NAMEOBJ": "TPS SEMERU RAYA", "Alamat": "Jl. Semeru RT 1 RW 7", "Latitude": -7.02009382, "Longitude": 110.414042, "Kontainer": 1, "Foto": "https://drive.google.com/file/d/1VRDqyjzm1GSSCVPkiny5wPGTzJHQ24da/view?usp=drive_link" }, "geometry": { "type": "Point", "coordinates": [ 110.414042, -7.02009382 ] } },
{ "type": "Feature", "properties": { "Kecamatan": "Gajahmungkur", "Kelurahan": "Gajahmungkur", "NAMEOBJ": "TPS SLAMET", "Alamat": "Jl. Slamet RT 5 RW 1", "Latitude": -7.008923881, "Longitude": 110.4120008, "Kontainer": 1, "Foto": "https://drive.google.com/file/d/1HwLPvFncNkxSBlwAZzVfwfyXwmG4y9eA/view?usp=sharing" }, "geometry": { "type": "Point", "coordinates": [ 110.4120008, -7.008923881 ] } },
{ "type": "Feature", "properties": { "Kecamatan": "Gajahmungkur", "Kelurahan": "Karangrejo", "NAMEOBJ": "TPS KARANGREJO TENGAH", "Alamat": "Jl Karangrejo Tengah RT 1 RW 2", "Latitude": -7.026686676, "Longitude": 110.4107238, "Kontainer": 2, "Foto": "https://drive.google.com/file/d/1VaGnLSz7uRlJcY5TM9pkAJV1hPy_kyuM/view?usp=drive_link" }, "geometry": { "type": "Point", "coordinates": [ 110.4107238, -7.026686676 ] } },
{ "type": "Feature", "properties": { "Kecamatan": "Gajahmungkur", "Kelurahan": "Lempongsari", "NAMEOBJ": "TPS SEMBOJA", "Alamat": "Jl. Semboja RT 3 RW 8", "Latitude": -7.004256733, "Longitude": 110.4138451, "Kontainer": 2, "Foto": "https://drive.google.com/file/d/1Rn0icqf41gR_R_2wDOVjDGluKAccqPN9/view?usp=drive_link" }, "geometry": { "type": "Point", "coordinates": [ 110.4138451, -7.004256733 ] } },
{ "type": "Feature", "properties": { "Kecamatan": "Gajahmungkur", "Kelurahan": "Lempongsari", "NAMEOBJ": "TPS VETERAN NO 15", "Alamat": "Jl. Veteran 15 RT 2 RW 4", "Latitude": -6.995936838, "Longitude": 110.414325, "Kontainer": 1, "Foto": "https://drive.google.com/file/d/182vZbwgc0Dd4G5vt_NSTZX7-j-ad6VJ9/view?usp=drive_link" }, "geometry": { "type": "Point", "coordinates": [ 110.414325, -6.995936838 ] } },
{ "type": "Feature", "properties": { "Kecamatan": "Gajahmungkur", "Kelurahan": "Petompon", "NAMEOBJ": "TPS TUMPANG RAYA", "Alamat": "Jl Tumpang Raya RT 1 RW 5", "Latitude": -7.00515979, "Longitude": 110.3971227, "Kontainer": 1, "Foto": "https://drive.google.com/file/d/1rnOtIq_drD3rY-UD72qxygCzS8dsdrBh/view?usp=drive_link" }, "geometry": { "type": "Point", "coordinates": [ 110.3971227, -7.00515979 ] } },
{ "type": "Feature", "properties": { "Kecamatan": "Gayamsari", "Kelurahan": "Pandean Lamper", "NAMEOBJ": "TPS KIMAR", "Alamat": "jl gempolsari III", "Latitude": -6.997648333, "Longitude": 110.4390417, "Kontainer": 1, "Foto": "https://drive.google.com/file/d/197mxeWUR0gLnfHDHoFHT-9Gd-afJ26EL/view?usp=drive_link" }, "geometry": { "type": "Point", "coordinates": [ 110.4390417, -6.997648333 ] } },
{ "type": "Feature", "properties": { "Kecamatan": "Gayamsari", "Kelurahan": "Sambirejo", "NAMEOBJ": "TPS SAMBIREJO", "Alamat": "jl sambirejo", "Latitude": -6.983703333, "Longitude": 110.4417433, "Kontainer": 3, "Foto": "https://drive.google.com/file/d/1vViq28-cSciSC6_X0oU5XS0fjCALqYhP/view?usp=drive_link" }, "geometry": { "type": "Point", "coordinates": [ 110.4417433, -6.983703333 ] } },
{ "type": "Feature", "properties": { "Kecamatan": "Gayamsari", "Kelurahan": "Kaligawe", "NAMEOBJ": "TPS SAWAH BESAR 1", "Alamat": "jl sawah besar xv", "Latitude": -6.96401, "Longitude": 110.4498733, "Kontainer": 2, "Foto": "https://drive.google.com/file/d/194_1R0HViY6St92MoEvH_FbrvGIJU23W/view?usp=drive_link" }, "geometry": { "type": "Point", "coordinates": [ 110.4498733, -6.96401 ] } },
{ "type": "Feature", "properties": { "Kecamatan": "Gayamsari", "Kelurahan": "Sawah Besar", "NAMEOBJ": "TPS SAWAH BESAR 2", "Alamat": "jl pandansari", "Latitude": -6.973333333, "Longitude": 110.4434, "Kontainer": 1, "Foto": "https://drive.google.com/file/d/1hd4d1Q2WLO7HNi3HlQp4M0pQIqGdMdDk/view?usp=drive_link" }, "geometry": { "type": "Point", "coordinates": [ 110.4434, -6.973333333 ] } },
{ "type": "Feature", "properties": { "Kecamatan": "Pedurungan", "Kelurahan": "Muktiharjo Kidul", "NAMEOBJ": "TPS KARANGINGAS (PUPR)", "Alamat": "jl dempel lor", "Latitude": -6.974493333, "Longitude": 110.4514783, "Kontainer": 1, "Foto": "https://drive.google.com/file/d/1pHm89X3PuA32YJ_ykmQffJDu_5p02rh0/view?usp=drive_link" }, "geometry": { "type": "Point", "coordinates": [ 110.4514783, -6.974493333 ] } },
{ "type": "Feature", "properties": { "Kecamatan": "Gayamsari", "Kelurahan": "Siwalan", "NAMEOBJ": "TPS SIWALAN RW 4", "Alamat": "jl Karangingas", "Latitude": -6.973997263, "Longitude": 110.4498215, "Kontainer": 1, "Foto": "https://drive.google.com/file/d/1UfMTaz_f8IrQxkVaU1LSQZWRsm1dnUM4/view?usp=drive_link" }, "geometry": { "type": "Point", "coordinates": [ 110.4498215, -6.973997263 ] } },
{ "type": "Feature", "properties": { "Kecamatan": "Genuk", "Kelurahan": "Bangetayu Kulon", "NAMEOBJ": "TPS BANGET PRASATYA 04", "Alamat": "jl bangetayu prasatya", "Latitude": -6.980628333, "Longitude": 110.477365, "Kontainer": 1, "Foto": "https://drive.google.com/file/d/1zD3weXqyC4zbaj6ZG6XFCSdsYrCmQOYj/view?usp=drive_link" }, "geometry": { "type": "Point", "coordinates": [ 110.477365, -6.980628333 ] } },
{ "type": "Feature", "properties": { "Kecamatan": "Genuk", "Kelurahan": "Bangetayu Kulon", "NAMEOBJ": "TPS PASAR BANGETAYU", "Alamat": "jl bangetayu prasatya VII", "Latitude": -6.981341667, "Longitude": 110.4763867, "Kontainer": 2, "Foto": "https://drive.google.com/file/d/1ePJMA89XHLqEOBhL8tflPuHx-1j2_x7m/view?usp=drive_link" }, "geometry": { "type": "Point", "coordinates": [ 110.4763867, -6.981341667 ] } },
{ "type": "Feature", "properties": { "Kecamatan": "Genuk", "Kelurahan": "Genuk Sari", "NAMEOBJ": "TPS GENUKSARI", "Alamat": "jl dong biru II", "Latitude": -6.966533333, "Longitude": 110.47767, "Kontainer": 2, "Foto": "https://drive.google.com/file/d/1dTaM_GIOnM1zMGL3IFAwyCCEpDfNOMBW/view?usp=drive_link" }, "geometry": { "type": "Point", "coordinates": [ 110.47767, -6.966533333 ] } },
{ "type": "Feature", "properties": { "Kecamatan": "Genuk", "Kelurahan": "Genuksari", "NAMEOBJ": "TPS PASAR GENUK", "Alamat": "jl pantura", "Latitude": -6.952206667, "Longitude": 110.479295, "Kontainer": 2, "Foto": "https://drive.google.com/file/d/1PJlSZypnw9TdaUxG3XaOk5JGbc0cS5ky/view?usp=drive_link" }, "geometry": { "type": "Point", "coordinates": [ 110.479295, -6.952206667 ] } },
{ "type": "Feature", "properties": { "Kecamatan": "Genuk", "Kelurahan": "Karangroto", "NAMEOBJ": "TPS RUSUNAWA LAMA KARANGROTO", "Alamat": "jl jatimas", "Latitude": -6.971985, "Longitude": 110.4966067, "Kontainer": 1, "Foto": "https://drive.google.com/file/d/16lY2KtC4H8hhCI_dZvudATCp6WhV0Acn/view?usp=drive_link" }, "geometry": { "type": "Point", "coordinates": [ 110.4966067, -6.971985 ] } },
{ "type": "Feature", "properties": { "Kecamatan": "Genuk", "Kelurahan": "Kudu", "NAMEOBJ": "TPS RUSUNAWA RW 8", "Alamat": "jl kidalem raya", "Latitude": -6.956208333, "Longitude": 110.5024867, "Kontainer": 1, "Foto": "https://drive.google.com/file/d/19AZM2WkH67BlQSgX7n5WRr4EIUVUCr9O/view?usp=drive_link" }, "geometry": { "type": "Point", "coordinates": [ 110.5024867, -6.956208333 ] } },
{ "type": "Feature", "properties": { "Kecamatan": "Genuk", "Kelurahan": "Muktiharjo Lor", "NAMEOBJ": "TPS MUKTIHARJO LOR", "Alamat": "jl muktiharjo lor", "Latitude": -6.967093333, "Longitude": 110.4570467, "Kontainer": 1, "Foto": "https://drive.google.com/file/d/18Nl3KrAHvX8q2eVhccJNzfTffM5po_hB/view?usp=drive_link" }, "geometry": { "type": "Point", "coordinates": [ 110.4570467, -6.967093333 ] } },
{ "type": "Feature", "properties": { "Kecamatan": "Genuk", "Kelurahan": "Terboyo Kulon", "NAMEOBJ": "TPS PASAR KUBRO", "Alamat": "jl alteri utara", "Latitude": -6.951955, "Longitude": 110.4509017, "Kontainer": 1, "Foto": "https://drive.google.com/file/d/1ITsvuYo786TgPnOGy9zjf0MvILa0oLKq/view?usp=drive_link" }, "geometry": { "type": "Point", "coordinates": [ 110.4509017, -6.951955 ] } },
{ "type": "Feature", "properties": { "Kecamatan": "Genuk", "Kelurahan": "Terboyo Wetan", "NAMEOBJ": "TPS TERBOYO WETAN", "Alamat": "jl kawasasan industri terboyo", "Latitude": -6.945986667, "Longitude": 110.4648283, "Kontainer": 1, "Foto": "https://drive.google.com/file/d/1CvpyTc0lA9Gx2deXZp6yuhWsADNVdJfd/view?usp=sharing" }, "geometry": { "type": "Point", "coordinates": [ 110.4648283, -6.945986667 ] } },
{ "type": "Feature", "properties": { "Kecamatan": "Gunungpati", "Kelurahan": "Gunungpati", "NAMEOBJ": "TPS MAGERSARI RW 2", "Alamat": "Magersari RW 02", "Latitude": -7.085163, "Longitude": 110.360098, "Kontainer": 2, "Foto": "https://drive.google.com/file/d/1yB7qwDCQ5O1_V-ALe6J3P6djVxUhrPi0/view?usp=drive_link" }, "geometry": { "type": "Point", "coordinates": [ 110.360098, -7.085163 ] } },
{ "type": "Feature", "properties": { "Kecamatan": "Gunungpati", "Kelurahan": "Sadeng", "NAMEOBJ": "TPS JOGOPRONO", "Alamat": "Jalan Rejosari 7", "Latitude": -7.02575865, "Longitude": 110.3703883, "Kontainer": 1, "Foto": "https://drive.google.com/file/d/17zhuPrp25uOue6qggXXVd6fokPJFOrMm/view?usp=drive_link" }, "geometry": { "type": "Point", "coordinates": [ 110.3703883, -7.02575865 ] } },
{ "type": "Feature", "properties": { "Kecamatan": "Gunungpati", "Kelurahan": "Sadeng", "NAMEOBJ": "TPS NGELOSARI", "Alamat": "Ngelosari RW 9", "Latitude": -7.029688, "Longitude": 110.374458, "Kontainer": 1, "Foto": "https://drive.google.com/file/d/15TwXDLvBseOIfHvdO8FNqNLM6b1uImU7/view?usp=drive_link" }, "geometry": { "type": "Point", "coordinates": [ 110.374458, -7.029688 ] } },
{ "type": "Feature", "properties": { "Kecamatan": "Gunungpati", "Kelurahan": "Sadeng", "NAMEOBJ": "TPS SADENG", "Alamat": "Sadeng RT 05 RW 2", "Latitude": -7.040358575, "Longitude": 110.367099, "Kontainer": 1, "Foto": "https://drive.google.com/file/d/1_wCou4b-fu-aJJA8dq7_wRBOdSwLqrIN/view?usp=drive_link" }, "geometry": { "type": "Point", "coordinates": [ 110.367099, -7.040358575 ] } },
{ "type": "Feature", "properties": { "Kecamatan": "Gunungpati", "Kelurahan": "Sukorejo", "NAMEOBJ": "TPS TINJOMOYO", "Alamat": "Tinjomoyo RW 8", "Latitude": -7.028512405, "Longitude": 110.4017091, "Kontainer": 1, "Foto": "https://drive.google.com/file/d/1heNNtPDomuXBeyee255nXWkfQGNpp6nk/view?usp=drive_link" }, "geometry": { "type": "Point", "coordinates": [ 110.4017091, -7.028512405 ] } },
{ "type": "Feature", "properties": { "Kecamatan": "Mijen", "Kelurahan": "Jatisari", "NAMEOBJ": "TPS 3R JATISARI", "Alamat": "RW 8", "Latitude": -7.066641608, "Longitude": 110.30599, "Kontainer": 1, "Foto": "https://drive.google.com/file/d/1pPW1JsEQisxFT7N6zF94EbhxAZQnv3qI/view?usp=drive_link" }, "geometry": { "type": "Point", "coordinates": [ 110.30599, -7.066641608 ] } },
{ "type": "Feature", "properties": { "Kecamatan": "Mijen", "Kelurahan": "Mijen", "NAMEOBJ": "TPS GANG RAMBUTAN", "Alamat": "Jl. Rambutan Raya RT 2 RW 6", "Latitude": -7.063170675, "Longitude": 110.3130549, "Kontainer": 1, "Foto": "https://drive.google.com/file/d/1IbpmN9LghPFbgBqmh_219RGhRXvFDFKB/view?usp=drive_link" }, "geometry": { "type": "Point", "coordinates": [ 110.3130549, -7.063170675 ] } },
{ "type": "Feature", "properties": { "Kecamatan": "Mijen", "Kelurahan": "Mijen", "NAMEOBJ": "TPS PASAR MIJEN", "Alamat": "Jl. Mijen Raya", "Latitude": -7.051744, "Longitude": 110.316626, "Kontainer": 1, "Foto": "https://drive.google.com/file/d/1vSS0XxZhyWBnTGAYSqYSZXSVWVqutxzd/view?usp=drive_link" }, "geometry": { "type": "Point", "coordinates": [ 110.316626, -7.051744 ] } },
{ "type": "Feature", "properties": { "Kecamatan": "Mijen", "Kelurahan": "Polaman", "NAMEOBJ": "TPS 3R SASTROMIHARJO", "Alamat": "Jl. Sastromiharjo RT 2 RW 2", "Latitude": -7.091350919, "Longitude": 110.3370135, "Kontainer": 1, "Foto": "https://drive.google.com/file/d/181b9HHWIMWICcEXDOtj0drQlMLHaMj1v/view?usp=drive_link" }, "geometry": { "type": "Point", "coordinates": [ 110.3370135, -7.091350919 ] } },
{ "type": "Feature", "properties": { "Kecamatan": "Mijen", "Kelurahan": "Purwosari", "NAMEOBJ": "TPS KEDUNGJANGAN", "Alamat": "Kedungjangan RT 7 RW 2", "Latitude": -7.073242454, "Longitude": 110.3332621, "Kontainer": 1, "Foto": "https://drive.google.com/file/d/1hi5XdvmpJKmwBz8nU_gZmJUoGcnl2OQg/view?usp=drive_link" }, "geometry": { "type": "Point", "coordinates": [ 110.3332621, -7.073242454 ] } },
{ "type": "Feature", "properties": { "Kecamatan": "Mijen", "Kelurahan": "Purwosari", "NAMEOBJ": "TPST PURWOSARI", "Alamat": "Sodong RT 1 RW 2", "Latitude": -7.078191727, "Longitude": 110.3285792, "Kontainer": 1, "Foto": "https://drive.google.com/file/d/1-xZXQOqOw6Ni5J0REkeoztkbzePXIZVH/view?usp=drive_link" }, "geometry": { "type": "Point", "coordinates": [ 110.3285792, -7.078191727 ] } },
{ "type": "Feature", "properties": { "Kecamatan": "Ngaliyan", "Kelurahan": "Bringin", "NAMEOBJ": "TPS BRINGIN INDAH", "Alamat": "Jl. Asem Kranji perum bringin indah RT 5 RW 1", "Latitude": -6.99936, "Longitude": 110.335607, "Kontainer": 1, "Foto": "https://drive.google.com/file/d/1FFROcprlAbaZ9EiOKLkXewORBfHu2vF9/view?usp=sharing" }, "geometry": { "type": "Point", "coordinates": [ 110.335607, -6.99936 ] } },
{ "type": "Feature", "properties": { "Kecamatan": "Ngaliyan", "Kelurahan": "Ngaliyan", "NAMEOBJ": "TPS 3R NGALIYAN", "Alamat": "Belakang KUA Ngaliyan RT 2 RW 1", "Latitude": -6.997486, "Longitude": 110.347084, "Kontainer": 2, "Foto": "https://drive.google.com/file/d/1UoOYOAsOggjhUB2lNnY9IwLPESab6ElH/view?usp=drive_link" }, "geometry": { "type": "Point", "coordinates": [ 110.347084, -6.997486 ] } },
{ "type": "Feature", "properties": { "Kecamatan": "Ngaliyan", "Kelurahan": "Ngaliyan", "NAMEOBJ": "TPS PASAR NGALIYAN", "Alamat": "Pasar Ngaliyan RW 3", "Latitude": -6.997857788, "Longitude": 110.3464462, "Kontainer": 1, "Foto": "https://drive.google.com/file/d/1177hlxTM6DrZUTFHO81Sn3eJEp606krn/view?usp=drive_link" }, "geometry": { "type": "Point", "coordinates": [ 110.3464462, -6.997857788 ] } },
{ "type": "Feature", "properties": { "Kecamatan": "Ngaliyan", "Kelurahan": "Purwoyoso", "NAMEOBJ": "TPS PASAR JERAKAH", "Alamat": "Jl Siliwangi RT 1 RW 9", "Latitude": -6.987007, "Longitude": 110.360879, "Kontainer": 1, "Foto": "https://drive.google.com/file/d/1wO44ZlDToThQgZXr98-ksKIt7n70gEY-/view?usp=drive_link" }, "geometry": { "type": "Point", "coordinates": [ 110.360879, -6.987007 ] } },
{ "type": "Feature", "properties": { "Kecamatan": "Ngaliyan", "Kelurahan": "Purwoyoso", "NAMEOBJ": "TPS PURWOYOSO", "Alamat": "Jl Gatot Subroto RT 1 RW 4", "Latitude": -6.998034567, "Longitude": 110.3661894, "Kontainer": 2, "Foto": "https://drive.google.com/file/d/1IsrLrHHiCUez5HZY3nnLF4hOdblqDNKG/view?usp=drive_link" }, "geometry": { "type": "Point", "coordinates": [ 110.3661894, -6.998034567 ] } },
{ "type": "Feature", "properties": { "Kecamatan": "Ngaliyan", "Kelurahan": "Wonosari", "NAMEOBJ": "TPS GUNUNGJATI", "Alamat": "Jl.Gunungjati RT 6 RW 2", "Latitude": -6.976826758, "Longitude": 110.2945251, "Kontainer": 1, "Foto": "https://drive.google.com/file/d/1oaqj_mLBpmo0WM99dD7ei0Fl2XGcHLO3/view?usp=drive_link" }, "geometry": { "type": "Point", "coordinates": [ 110.2945251, -6.976826758 ] } },
{ "type": "Feature", "properties": { "Kecamatan": "Ngaliyan", "Kelurahan": "Wonosari", "NAMEOBJ": "TPS KOPTU SUYONO", "Alamat": "Jl Koptu Suyono RT 5 RW 5", "Latitude": -6.973762552, "Longitude": 110.3031302, "Kontainer": 1, "Foto": "https://drive.google.com/file/d/1mvjN-cUG1-_fL0XzXauy9JXKlcau7vEL/view?usp=drive_link" }, "geometry": { "type": "Point", "coordinates": [ 110.3031302, -6.973762552 ] } },
{ "type": "Feature", "properties": { "Kecamatan": "Ngaliyan", "Kelurahan": "Wonosari", "NAMEOBJ": "TPS PLUMBON III", "Alamat": "Jl Plumbon III RT 7 RW 3", "Latitude": -6.976844526, "Longitude": 110.2971526, "Kontainer": 1, "Foto": "https://drive.google.com/file/d/1iQqJLzkaY_9q0FyCpfJJlfvrpxen2l0Q/view?usp=drive_link" }, "geometry": { "type": "Point", "coordinates": [ 110.2971526, -6.976844526 ] } },
{ "type": "Feature", "properties": { "Kecamatan": "Ngaliyan", "Kelurahan": "Wonosari", "NAMEOBJ": "TPS ROWOSARI RW 1", "Alamat": "Jl Rowosari RT 6 RW 1", "Latitude": -6.971368481, "Longitude": 110.290049, "Kontainer": 1, "Foto": "https://drive.google.com/file/d/1pv_9nbr5_T976aX-0zxoQgFSTIvj7isx/view?usp=drive_link" }, "geometry": { "type": "Point", "coordinates": [ 110.290049, -6.971368481 ] } },
{ "type": "Feature", "properties": { "Kecamatan": "Pedurungan", "Kelurahan": "Gemah", "NAMEOBJ": "TPST GEMAH", "Alamat": "Jl. Gemah Barat", "Latitude": -7.009202139, "Longitude": 110.4644841, "Kontainer": 2, "Foto": "https://drive.google.com/file/d/1knnHxMXuZq1BuDtKndd9qlyygNq8Aee5/view?usp=drive_link" }, "geometry": { "type": "Point", "coordinates": [ 110.4644841, -7.009202139 ] } },
{ "type": "Feature", "properties": { "Kecamatan": "Pedurungan", "Kelurahan": "Muktiharjo Kidul", "NAMEOBJ": "TPS MUKTIHARJO", "Alamat": "Jl. Muktiharjo Dalam", "Latitude": -6.972201322, "Longitude": 110.461538, "Kontainer": 2, "Foto": "https://drive.google.com/file/d/1BrCHMz9YmfiVuBgShRbaXRa6QP6gc0Fb/view?usp=drive_link" }, "geometry": { "type": "Point", "coordinates": [ 110.461538, -6.972201322 ] } },
{ "type": "Feature", "properties": { "Kecamatan": "Pedurungan", "Kelurahan": "Pedurungan Kidul", "NAMEOBJ": "TPS TANGGULSARI", "Alamat": "Jl. Plamongan Larasati RT 4 RW 11", "Latitude": -7.022485, "Longitude": 110.4779483, "Kontainer": 3, "Foto": "https://drive.google.com/file/d/1yGDY9pDSJj6F9f6f5hetM8XNv7PhOKP7/view?usp=sharing" }, "geometry": { "type": "Point", "coordinates": [ 110.4779483, -7.022485 ] } },
{ "type": "Feature", "properties": { "Kecamatan": "Pedurungan", "Kelurahan": "Pedurungan Lor", "NAMEOBJ": "TPS 3R DADI RESIK", "Alamat": "Jl. Pedurungan Lor RT 5 RW 5", "Latitude": -7.01435453, "Longitude": 110.4846121, "Kontainer": null, "Foto": "https://drive.google.com/file/d/1H3KhJ-FHmkvcNDZkBB68t1udVgOK3Rgp/view?usp=drive_link" }, "geometry": { "type": "Point", "coordinates": [ 110.4846121, -7.01435453 ] } },
{ "type": "Feature", "properties": { "Kecamatan": "Pedurungan", "Kelurahan": "Pedurungan Tengah", "NAMEOBJ": "TPS TAMAN TLOGOMULYO", "Alamat": "Jl. Taman Tlogomulyo Raya", "Latitude": -7.001067673, "Longitude": 110.4787908, "Kontainer": 1, "Foto": "https://drive.google.com/file/d/1II9WRXWegvUb1PG2OD7QNCprzlDx5Z_R/view?usp=drive_link" }, "geometry": { "type": "Point", "coordinates": [ 110.4787908, -7.001067673 ] } },
{ "type": "Feature", "properties": { "Kecamatan": "Pedurungan", "Kelurahan": "Penggaron Kidul", "NAMEOBJ": "TPS TERMINAL PENGGARON", "Alamat": "Terminal Penggaron Kidul", "Latitude": -7.016885, "Longitude": 110.49635, "Kontainer": 3, "Foto": "https://drive.google.com/file/d/1oUHNYyESGbdSE-WKSylZT1NfuDS9NdR0/view?usp=drive_link" }, "geometry": { "type": "Point", "coordinates": [ 110.49635, -7.016885 ] } },
{ "type": "Feature", "properties": { "Kecamatan": "Pedurungan", "Kelurahan": "Plamongansari", "NAMEOBJ": "TPS RUSUN BANDUNG BONDOWOSO", "Alamat": "Rusun Bandung Bondowoso RW 15", "Latitude": -7.02495944, "Longitude": 110.4882181, "Kontainer": 2, "Foto": "https://drive.google.com/file/d/1Q0zd_6f0JS_0VSaMkoB4j6549ZODGEt3/view?usp=drive_link" }, "geometry": { "type": "Point", "coordinates": [ 110.4882181, -7.02495944 ] } },
{ "type": "Feature", "properties": { "Kecamatan": "Pedurungan", "Kelurahan": "Tlogomulyo", "NAMEOBJ": "TPS TAMAN TLOGOMULYO CLUSTER 2", "Alamat": "Jl. Taman Tlogomulyo", "Latitude": -6.999093947, "Longitude": 110.4796261, "Kontainer": 2, "Foto": "https://drive.google.com/file/d/19x9mhhI_ZYmPO_rxNSuGjQh035Zlka3Y/view?usp=drive_link" }, "geometry": { "type": "Point", "coordinates": [ 110.4796261, -6.999093947 ] } },
{ "type": "Feature", "properties": { "Kecamatan": "Pedurungan", "Kelurahan": "Tlogosari Wetan", "NAMEOBJ": "TPS TLOGOSARI WETAN", "Alamat": "Jl. Dolog Lor RT 10 RW 1", "Latitude": -6.992475859, "Longitude": 110.4671602, "Kontainer": 1, "Foto": "https://drive.google.com/file/d/1EEq1uQ6G9aYOm8ST7WZBNtnQhglqbGeJ/view?usp=drive_link" }, "geometry": { "type": "Point", "coordinates": [ 110.4671602, -6.992475859 ] } },
{ "type": "Feature", "properties": { "Kecamatan": "Semarang Barat", "Kelurahan": "Bojongsalaman", "NAMEOBJ": "TPS BOJONGSALAMAN", "Alamat": "Jl. Puspanjolo Barat RT 5 RW 4", "Latitude": -6.987437917, "Longitude": 110.3964023, "Kontainer": 2, "Foto": "https://drive.google.com/file/d/1OFqBX8T8kCH-4kJCWMK0hN1lBXCW74dy/view?usp=drive_link" }, "geometry": { "type": "Point", "coordinates": [ 110.3964023, -6.987437917 ] } },
{ "type": "Feature", "properties": { "Kecamatan": "Semarang Barat", "Kelurahan": "Bongsari", "NAMEOBJ": "TPS BONGSARI", "Alamat": "Jl. Condrokusumo Raya RT 8 RW 3", "Latitude": -6.996798333, "Longitude": 110.396875, "Kontainer": 2, "Foto": "https://drive.google.com/file/d/1TLwNzZ8xWNXwW601u6CxL2vkoiHnLS3N/view?usp=drive_link" }, "geometry": { "type": "Point", "coordinates": [ 110.396875, -6.996798333 ] } },
{ "type": "Feature", "properties": { "Kecamatan": "Semarang Barat", "Kelurahan": "Gisikdrono", "NAMEOBJ": "TPS GISIKDRONO", "Alamat": "Jl. Kumudasmoro Selatan RT 5", "Latitude": -6.991337473, "Longitude": 110.3886622, "Kontainer": 2, "Foto": "https://drive.google.com/file/d/1mhkOScEBJ_f5Z8O1pp1jIqMsTvf3oCh0/view?usp=drive_link" }, "geometry": { "type": "Point", "coordinates": [ 110.3886622, -6.991337473 ] } },
{ "type": "Feature", "properties": { "Kecamatan": "Semarang Barat", "Kelurahan": "Kalibanteng Kidul", "NAMEOBJ": "TPS SURATMO", "Alamat": "Jl. Sri Rejeki Dalam Raya", "Latitude": -6.997043746, "Longitude": 110.3832019, "Kontainer": 2, "Foto": "https://drive.google.com/file/d/1ysUivbU1oe1DyH-fKHt5f_ByTLDoSNmw/view?usp=drive_link" }, "geometry": { "type": "Point", "coordinates": [ 110.3832019, -6.997043746 ] } },
{ "type": "Feature", "properties": { "Kecamatan": "Semarang Barat", "Kelurahan": "Karangayu", "NAMEOBJ": "TPS KELURAHAN KARANGAYU", "Alamat": "Jl. Ronggolawe Timur", "Latitude": -6.978978403, "Longitude": 110.3890248, "Kontainer": 2, "Foto": "https://drive.google.com/file/d/14Pb2l9iFBK7xKPInOV-2zhr77gK1veNO/view?usp=drive_link" }, "geometry": { "type": "Point", "coordinates": [ 110.3890248, -6.978978403 ] } },
{ "type": "Feature", "properties": { "Kecamatan": "Semarang Barat", "Kelurahan": "Kembangarum", "NAMEOBJ": "TPS TAMAN BOROBUDUR UTARA", "Alamat": "Jl. Taman Borobudur Utara XI (Swalayan Ramai)", "Latitude": -6.999363022, "Longitude": 110.3777657, "Kontainer": 2, "Foto": "https://drive.google.com/file/d/1UPL35XXmnM8cCIsEbqIRq_vAoD3wcnAK/view?usp=drive_link" }, "geometry": { "type": "Point", "coordinates": [ 110.3777657, -6.999363022 ] } },
{ "type": "Feature", "properties": { "Kecamatan": "Semarang Barat", "Kelurahan": "Kembangarum", "NAMEOBJ": "TPS WOLOGITO BARAT", "Alamat": "Jl. Wologito Barat (Dekat SMK Nusa Bakti)", "Latitude": -6.992167911, "Longitude": 110.3720992, "Kontainer": 2, "Foto": "https://drive.google.com/file/d/1g-UHonxcPBr2Z1xrujYp_RPePeSTcCc5/view?usp=drive_link" }, "geometry": { "type": "Point", "coordinates": [ 110.3720992, -6.992167911 ] } },
{ "type": "Feature", "properties": { "Kecamatan": "Semarang Barat", "Kelurahan": "Krapyak", "NAMEOBJ": "TPS HANOMAN", "Alamat": "Jl. Hanoman Raya", "Latitude": -6.984276371, "Longitude": 110.3704734, "Kontainer": 2, "Foto": "https://drive.google.com/file/d/1pQul9vNTosEEQUaTLZV34PuF6nfqiOte/view?usp=drive_link" }, "geometry": { "type": "Point", "coordinates": [ 110.3704734, -6.984276371 ] } },
{ "type": "Feature", "properties": { "Kecamatan": "Semarang Barat", "Kelurahan": "Krobokan", "NAMEOBJ": "TPS SAWOJAJAR", "Alamat": "Jl. Sawojajar I No.2 RT 8 RW 1", "Latitude": -6.977714196, "Longitude": 110.4005996, "Kontainer": 2, "Foto": "https://drive.google.com/file/d/1K9o2OjZh53qs-LJFVxhIRyQoH_fC0xAZ/view?usp=drive_link" }, "geometry": { "type": "Point", "coordinates": [ 110.4005996, -6.977714196 ] } },
{ "type": "Feature", "properties": { "Kecamatan": "Semarang Barat", "Kelurahan": "Manyaran", "NAMEOBJ": "TPS INSPEKSI MANYARAN", "Alamat": "Jl. Inspeksi Pinggir Sungai Manyaran", "Latitude": -7.014066143, "Longitude": 110.3870368, "Kontainer": 1, "Foto": "https://drive.google.com/file/d/1vE_kC061Dr7M-kIcfRaz1MyWW7L3WhMI/view?usp=drive_link" }, "geometry": { "type": "Point", "coordinates": [ 110.3870368, -7.014066143 ] } },
{ "type": "Feature", "properties": { "Kecamatan": "Semarang Barat", "Kelurahan": "Manyaran", "NAMEOBJ": "TPS MANYARAN", "Alamat": "Jl. Borobudur Selatan", "Latitude": -7.00112082, "Longitude": 110.3843532, "Kontainer": 1, "Foto": "https://drive.google.com/file/d/1_YdOcPoN-kAiGfhbXDRt1pLKm3WKUZ3_/view?usp=drive_link" }, "geometry": { "type": "Point", "coordinates": [ 110.3843532, -7.00112082 ] } },
{ "type": "Feature", "properties": { "Kecamatan": "Semarang Barat", "Kelurahan": "Ngemplak Simongan", "NAMEOBJ": "TPS NGEMPLAK SIMONGAN", "Alamat": "Jl. Gedung Batu Timur Raya (Inspeksi Kaligarang)", "Latitude": -7.001204306, "Longitude": 110.3987435, "Kontainer": 2, "Foto": "https://drive.google.com/file/d/1MKRFaM0gdqgYbwKHNmbvdAaTlyab2az0/view?usp=drive_link" }, "geometry": { "type": "Point", "coordinates": [ 110.3987435, -7.001204306 ] } },
{ "type": "Feature", "properties": { "Kecamatan": "Semarang Barat", "Kelurahan": "Ngemplak Simongan", "NAMEOBJ": "TPS PASAR BK (SIMONGAN)", "Alamat": "Jl. WR Supratman (Pasar Simongan)", "Latitude": -7.00249, "Longitude": 110.392135, "Kontainer": 2, "Foto": "https://drive.google.com/file/d/1WUJD5lD4pWYffgphxA8RrItAjrjvqPtb/view?usp=drive_link" }, "geometry": { "type": "Point", "coordinates": [ 110.392135, -7.00249 ] } },
{ "type": "Feature", "properties": { "Kecamatan": "Semarang Barat", "Kelurahan": "Salamanmloyo", "NAMEOBJ": "TPS SALAMANMLOYO", "Alamat": "Jl. Puspowarno Tengah Raya RT 4 RW 1", "Latitude": -6.986342698, "Longitude": 110.3930728, "Kontainer": 2, "Foto": "https://drive.google.com/file/d/15qONVAXwfyVECnx3lDMxt5deAyvwIWL3/view?usp=drive_link" }, "geometry": { "type": "Point", "coordinates": [ 110.3930728, -6.986342698 ] } },
{ "type": "Feature", "properties": { "Kecamatan": "Semarang Barat", "Kelurahan": "Tambakharjo", "NAMEOBJ": "TPS TAMBAKHARJO", "Alamat": "Jl. Tambakharjo RT 1 RW 1", "Latitude": -6.980332293, "Longitude": 110.3643957, "Kontainer": 1, "Foto": "https://drive.google.com/file/d/1ww4c_c0VJ-eQqAdkJdcEPxc6GFVRAHsn/view?usp=drive_link" }, "geometry": { "type": "Point", "coordinates": [ 110.3643957, -6.980332293 ] } },
{ "type": "Feature", "properties": { "Kecamatan": "Semarang Barat", "Kelurahan": "Tawangmas", "NAMEOBJ": "TPS TAWANGMAS (SI BLOK C)", "Alamat": "Jl. Yos Sudarso Semarang Indah Blok C", "Latitude": -6.96816727, "Longitude": 110.3933942, "Kontainer": 2, "Foto": "https://drive.google.com/file/d/1HEXqPNBeZciIGKXRFruwpcRQBlxXiuQg/view?usp=drive_link" }, "geometry": { "type": "Point", "coordinates": [ 110.3933942, -6.96816727 ] } },
{ "type": "Feature", "properties": { "Kecamatan": "Semarang Barat", "Kelurahan": "Tawangsari", "NAMEOBJ": "TPS PURI ASRI TAWANGSARI", "Alamat": "Jl. Yos Sudarso Puri Anjasmoro Blok B", "Latitude": -6.973732226, "Longitude": 110.3880389, "Kontainer": 3, "Foto": "https://drive.google.com/file/d/1CDUHoYypBwqRcL_rfc_aD21x8n8Qi3o5/view?usp=drive_link" }, "geometry": { "type": "Point", "coordinates": [ 110.3880389, -6.973732226 ] } },
{ "type": "Feature", "properties": { "Kecamatan": "Semarang Selatan", "Kelurahan": "Barusari", "NAMEOBJ": "TPS ASRAMA POLISI KALISARI", "Alamat": "Asrama Polisi RT 8 RW 7", "Latitude": -6.993715, "Longitude": 110.40422, "Kontainer": 1, "Foto": "https://drive.google.com/file/d/1_Oihvejsjiy5EQrH6UkwgHCTdZAx6zyh/view?usp=drive_link" }, "geometry": { "type": "Point", "coordinates": [ 110.40422, -6.993715 ] } },
{ "type": "Feature", "properties": { "Kecamatan": "Semarang Selatan", "Kelurahan": "Barusari", "NAMEOBJ": "TPS LEMAH GEMPAL VII A", "Alamat": "Jl. Lemah Gempal VII A", "Latitude": -6.990644991, "Longitude": 110.405297, "Kontainer": 3, "Foto": "https://drive.google.com/file/d/1NGe9EqW_DpXU498KPtk6lO-SN2Ldjgra/view?usp=drive_link" }, "geometry": { "type": "Point", "coordinates": [ 110.405297, -6.990644991 ] } },
{ "type": "Feature", "properties": { "Kecamatan": "Semarang Selatan", "Kelurahan": "Barusari", "NAMEOBJ": "TPS PASAR BULU (JAYENGAN)", "Alamat": "Jl. Jayengan", "Latitude": -6.984639138, "Longitude": 110.4081161, "Kontainer": 1, "Foto": "https://drive.google.com/file/d/1mMVdNpzXy9MPDN3bw4G3-qC0rz2kJn8Q/view?usp=drive_link" }, "geometry": { "type": "Point", "coordinates": [ 110.4081161, -6.984639138 ] } },
{ "type": "Feature", "properties": { "Kecamatan": "Semarang Selatan", "Kelurahan": "Lamper Kidul", "NAMEOBJ": "TPS TAMAN GAROT (DURIAN I)", "Alamat": "Jl. Durian RW I", "Latitude": -7.00713117, "Longitude": 110.4393904, "Kontainer": 2, "Foto": "https://drive.google.com/file/d/1F5xHcmhKoys5jGjAOeivQ4w0utlmC4yu/view?usp=drive_link" }, "geometry": { "type": "Point", "coordinates": [ 110.4393904, -7.00713117 ] } },
{ "type": "Feature", "properties": { "Kecamatan": "Semarang Selatan", "Kelurahan": "Lamper Lor", "NAMEOBJ": "TPS CEMPEDAK", "Alamat": "Jl Cempedak ", "Latitude": -6.998877834, "Longitude": 110.4384586, "Kontainer": 2, "Foto": "https://drive.google.com/file/d/1s5WDheXVgUnpScMc6HDFYpF2ofcVuDF2/view?usp=drive_link" }, "geometry": { "type": "Point", "coordinates": [ 110.4384586, -6.998877834 ] } },
{ "type": "Feature", "properties": { "Kecamatan": "Semarang Selatan", "Kelurahan": "Lamper Tengah", "NAMEOBJ": "TPS LAMPER TENGAH", "Alamat": "Jl. Lamper Tengah Raya", "Latitude": -7.009896926, "Longitude": 110.4419773, "Kontainer": 2, "Foto": "https://drive.google.com/file/d/1SnkAz3PvSWughKmQw8vD1m7frYbW_hNc/view?usp=sharing" }, "geometry": { "type": "Point", "coordinates": [ 110.4419773, -7.009896926 ] } },
{ "type": "Feature", "properties": { "Kecamatan": "Semarang Selatan", "Kelurahan": "Mugassari", "NAMEOBJ": "TPS GERGAJI BALEKAMBANG", "Alamat": "Jl. Gergaji Balekambang", "Latitude": -6.995720318, "Longitude": 110.4146923, "Kontainer": 1, "Foto": "https://drive.google.com/file/d/1bJagPNuzSA8n0atvqOVh_AjswNPgSI8F/view?usp=drive_link" }, "geometry": { "type": "Point", "coordinates": [ 110.4146923, -6.995720318 ] } },
{ "type": "Feature", "properties": { "Kecamatan": "Semarang Selatan", "Kelurahan": "Mugassari", "NAMEOBJ": "TPS KYAI SALEH", "Alamat": "Jl. Kyai Saleh (Bergota)", "Latitude": -6.98838934, "Longitude": 110.414094, "Kontainer": 1, "Foto": "https://drive.google.com/file/d/1V9DUyrfGhH0jE6pP8oY9SXIn-Ty-ziMn/view?usp=drive_link" }, "geometry": { "type": "Point", "coordinates": [ 110.414094, -6.98838934 ] } },
{ "type": "Feature", "properties": { "Kecamatan": "Semarang Selatan", "Kelurahan": "Mugassari", "NAMEOBJ": "TPS TAMAN MUGAS", "Alamat": "Jl. Taman Mugas", "Latitude": -6.992896383, "Longitude": 110.416977, "Kontainer": 2, "Foto": "https://drive.google.com/file/d/1rci2oWGt0OmNJXFHQPa-tRr4HisKj6zl/view?usp=drive_link" }, "geometry": { "type": "Point", "coordinates": [ 110.416977, -6.992896383 ] } },
{ "type": "Feature", "properties": { "Kecamatan": "Semarang Selatan", "Kelurahan": "Peterongan", "NAMEOBJ": "TPS TANGGUL ", "Alamat": "Jl. Kanal", "Latitude": -6.997422989, "Longitude": 110.4383675, "Kontainer": 3, "Foto": "https://drive.google.com/file/d/1KfwSdCMUOTi3Pnr89oZkwv1lXWJKKz0T/view?usp=drive_link" }, "geometry": { "type": "Point", "coordinates": [ 110.4383675, -6.997422989 ] } },
{ "type": "Feature", "properties": { "Kecamatan": "Semarang Selatan", "Kelurahan": "Pleburan", "NAMEOBJ": "TPS ERLANGGA", "Alamat": "Jl. Erlangga Barat", "Latitude": -6.993944634, "Longitude": 110.42485, "Kontainer": 2, "Foto": "https://drive.google.com/file/d/1-8ybA0C-CBoA0mA4DJ7KWorKurDISMCK/view?usp=drive_link" }, "geometry": { "type": "Point", "coordinates": [ 110.42485, -6.993944634 ] } },
{ "type": "Feature", "properties": { "Kecamatan": "Semarang Selatan", "Kelurahan": "Wonodri", "NAMEOBJ": "TPS SINGOSARI TIMUR", "Alamat": "Jl. Singosari Timur (Belakang PIP)", "Latitude": -6.996169985, "Longitude": 110.429136, "Kontainer": 3, "Foto": "https://drive.google.com/file/d/1PJdoLGYjXz82kwFsORmF59Y7utB38z9p/view?usp=drive_link" }, "geometry": { "type": "Point", "coordinates": [ 110.429136, -6.996169985 ] } },
{ "type": "Feature", "properties": { "Kecamatan": "Semarang Selatan", "Kelurahan": "Wonodri", "NAMEOBJ": "TPS WONODRI", "Alamat": "Jl. Wonodri Baru Raya", "Latitude": -7.00223, "Longitude": 110.4313583, "Kontainer": 2, "Foto": "https://drive.google.com/file/d/1gnvd39UktneDkSA28V_COcpir_7kHdgJ/view?usp=drive_link" }, "geometry": { "type": "Point", "coordinates": [ 110.4313583, -7.00223 ] } },
{ "type": "Feature", "properties": { "Kecamatan": "Semarang Tengah", "Kelurahan": "Karangkidul", "NAMEOBJ": "TPS MATAHARI", "Alamat": "Jl. Seroja Selatan", "Latitude": -6.990165, "Longitude": 110.4251283, "Kontainer": 2, "Foto": "https://drive.google.com/file/d/1_5XYu3FMsul_SRqRjI8Wo1_cx6yvgsuC/view?usp=drive_link" }, "geometry": { "type": "Point", "coordinates": [ 110.4251283, -6.990165 ] } },
{ "type": "Feature", "properties": { "Kecamatan": "Semarang Tengah", "Kelurahan": "Karangkidul", "NAMEOBJ": "TPS STADION DIPONEGORO", "Alamat": "Jl. Stadion Selatan No. 11", "Latitude": -6.990780052, "Longitude": 110.4309225, "Kontainer": 2, "Foto": "https://drive.google.com/file/d/1-qv3y-32SIkYyI-M8d-CjBuXwPoICq83/view?usp=drive_link" }, "geometry": { "type": "Point", "coordinates": [ 110.4309225, -6.990780052 ] } },
{ "type": "Feature", "properties": { "Kecamatan": "Semarang Tengah", "Kelurahan": "Kauman", "NAMEOBJ": "TPS GANG LOMBOK", "Alamat": "Jl. Gang Lombok-Inspeksi Kyai Damar", "Latitude": -6.973881667, "Longitude": 110.4269432, "Kontainer": 1, "Foto": "https://drive.google.com/file/d/1dlcYpOFuWoPIkHWuig-evZ6sCbGWsw80/view?usp=drive_link" }, "geometry": { "type": "Point", "coordinates": [ 110.4269432, -6.973881667 ] } },
{ "type": "Feature", "properties": { "Kecamatan": "Semarang Tengah", "Kelurahan": "Kauman", "NAMEOBJ": "TPS MATAHARI JOHAR", "Alamat": "Jl. KH Agus Salim", "Latitude": -6.970388333, "Longitude": 110.4254033, "Kontainer": 1, "Foto": "https://drive.google.com/file/d/1krNMyqDDGLnIMeUnshCk_yKWqtVOx2oC/view?usp=drive_link" }, "geometry": { "type": "Point", "coordinates": [ 110.4254033, -6.970388333 ] } },
{ "type": "Feature", "properties": { "Kecamatan": "Semarang Tengah", "Kelurahan": "Kembangsari", "NAMEOBJ": "TPS KEMBANGSARI (SMG TGH 05)", "Alamat": "Jl. Inspeksi", "Latitude": -6.981561667, "Longitude": 110.4190217, "Kontainer": 2, "Foto": "https://drive.google.com/file/d/1VkHqXSanZDmNoccP2BCelar6Ws3l2Tx9/view?usp=sharing" }, "geometry": { "type": "Point", "coordinates": [ 110.4190217, -6.981561667 ] } },
{ "type": "Feature", "properties": { "Kecamatan": "Semarang Tengah", "Kelurahan": "Miroto", "NAMEOBJ": "TPS THAMRIN (SMG TGH 2)", "Alamat": "Jl. Inspeksi (Batan Miroto 1)", "Latitude": -6.982173333, "Longitude": 110.4172933, "Kontainer": 2, "Foto": "https://drive.google.com/file/d/1eo1W5ErWSahteoW9vVjBHz2SyznOe2gz/view?usp=drive_link" }, "geometry": { "type": "Point", "coordinates": [ 110.4172933, -6.982173333 ] } },
{ "type": "Feature", "properties": { "Kecamatan": "Semarang Tengah", "Kelurahan": "Pekunden", "NAMEOBJ": "TPS BELAKANG LAWANG SEWU", "Alamat": "Jl. Inspeksi (Belakang Lawang Sewu)", "Latitude": -6.984548333, "Longitude": 110.4109417, "Kontainer": 1, "Foto": "https://drive.google.com/file/d/1Cru6yLdYvg_KmDL9vgkriT6Gj7YgO16p/view?usp=drive_link" }, "geometry": { "type": "Point", "coordinates": [ 110.4109417, -6.984548333 ] } },
{ "type": "Feature", "properties": { "Kecamatan": "Semarang Tengah", "Kelurahan": "Pindrikan Kidul", "NAMEOBJ": "TPS BIMA RAYA", "Alamat": "Jl. Bima Raya No 39", "Latitude": -6.982747221, "Longitude": 110.4071766, "Kontainer": 2, "Foto": "https://drive.google.com/file/d/1KwKOY6Pb66ddF4hnpWnb5yJ7YMP5qhHk/view?usp=drive_link" }, "geometry": { "type": "Point", "coordinates": [ 110.4071766, -6.982747221 ] } },
{ "type": "Feature", "properties": { "Kecamatan": "Semarang Tengah", "Kelurahan": "Pindrikan Lor", "NAMEOBJ": "TPS SADEWA", "Alamat": "Jl. Sadewa Utara III", "Latitude": -6.976556881, "Longitude": 110.4092177, "Kontainer": null, "Foto": null }, "geometry": { "type": "Point", "coordinates": [ 110.4092177, -6.976556881 ] } },
{ "type": "Feature", "properties": { "Kecamatan": "Semarang Tengah", "Kelurahan": "Purwodinatan", "NAMEOBJ": "TPS PEKOJAN/PETUDUNGAN", "Alamat": "Jl. Petudungan - Inspeksi", "Latitude": -6.974427543, "Longitude": 110.4288168, "Kontainer": 2, "Foto": "https://drive.google.com/file/d/1-wmRW3MuScGdXDrjJxyo3IoHJ7N0MjyS/view?usp=drive_link" }, "geometry": { "type": "Point", "coordinates": [ 110.4288168, -6.974427543 ] } },
{ "type": "Feature", "properties": { "Kecamatan": "Semarang Timur", "Kelurahan": "Kemijen", "NAMEOBJ": "TPS CILOSARI", "Alamat": "jl cilosari dalam", "Latitude": -6.955733104, "Longitude": 110.4407646, "Kontainer": null, "Foto": null }, "geometry": { "type": "Point", "coordinates": [ 110.4407646, -6.955733104 ] } },
{ "type": "Feature", "properties": { "Kecamatan": "Semarang Timur", "Kelurahan": "Mlatiharjo", "NAMEOBJ": "TPS INDRAGIRI MLATIHARJO", "Alamat": "jl karang asem raya", "Latitude": -6.965005, "Longitude": 110.4402383, "Kontainer": 2, "Foto": "https://drive.google.com/file/d/14PMwh2_HegXdzzbwZAS0H4udao2w_A0M/view?usp=drive_link" }, "geometry": { "type": "Point", "coordinates": [ 110.4402383, -6.965005 ] } },
{ "type": "Feature", "properties": { "Kecamatan": "Semarang Timur", "Kelurahan": "Mlatiharjo", "NAMEOBJ": "TPS MANIS HARJO", "Alamat": "jl manis harjo raya", "Latitude": -6.96193, "Longitude": 110.4392383, "Kontainer": 1, "Foto": "https://drive.google.com/file/d/1DpGGGmwl2-UnGueu5vBUhUOXsgOMv4Ks/view?usp=drive_link" }, "geometry": { "type": "Point", "coordinates": [ 110.4392383, -6.96193 ] } },
{ "type": "Feature", "properties": { "Kecamatan": "Semarang Timur", "Kelurahan": "Rejosari", "NAMEOBJ": "TPS TERPADU REJOSARI, BARITO", "Alamat": "jl barito", "Latitude": -6.984786667, "Longitude": 110.44029, "Kontainer": 4, "Foto": "https://drive.google.com/file/d/1no9IqNHEAL7FqSFq2PQwl78gVcoBK6tG/view?usp=drive_link" }, "geometry": { "type": "Point", "coordinates": [ 110.44029, -6.984786667 ] } },
{ "type": "Feature", "properties": { "Kecamatan": "Semarang Timur", "Kelurahan": "Kebonagung", "NAMEOBJ": "TPS PASAR DARGO", "Alamat": "jl sobokarti", "Latitude": -6.975586667, "Longitude": 110.4340167, "Kontainer": 2, "Foto": "https://drive.google.com/file/d/1a9BOxwlxKScc6OCKmTOK78QfJVbeAoSG/view?usp=drive_link" }, "geometry": { "type": "Point", "coordinates": [ 110.4340167, -6.975586667 ] } },
{ "type": "Feature", "properties": { "Kecamatan": "Semarang Utara", "Kelurahan": "Bandarharjo", "NAMEOBJ": "TPS KAPTEN WIRANTO RW 09", "Alamat": "Jl. Kapten Wiranto RW 9", "Latitude": -6.957304188, "Longitude": 110.4208395, "Kontainer": 2, "Foto": "https://drive.google.com/file/d/1l4yVh5VDN_SePzc-tuBE1Z8Bej5Qtai5/view?usp=drive_link" }, "geometry": { "type": "Point", "coordinates": [ 110.4208395, -6.957304188 ] } },
{ "type": "Feature", "properties": { "Kecamatan": "Semarang Utara", "Kelurahan": "Bandarharjo", "NAMEOBJ": "TPS KAPTEN WIRANTO RW 10", "Alamat": "Jl. Kapten Wiranto RW 10", "Latitude": -6.963388507, "Longitude": 110.4227094, "Kontainer": 1, "Foto": "https://drive.google.com/file/d/1ASiphCVrsb0BnDBMxD2JASrG3NdA0XdB/view?usp=drive_link" }, "geometry": { "type": "Point", "coordinates": [ 110.4227094, -6.963388507 ] } },
{ "type": "Feature", "properties": { "Kecamatan": "Semarang Utara", "Kelurahan": "Bandarharjo", "NAMEOBJ": "TPS LODAN RAYA RW 3", "Alamat": "Jl. Lodan Raya RW 3", "Latitude": -6.959173865, "Longitude": 110.4151556, "Kontainer": 1, "Foto": "https://drive.google.com/file/d/1ar100ob81jUlzgYZWYVi1ZP3FuUM0FeC/view?usp=drive_link" }, "geometry": { "type": "Point", "coordinates": [ 110.4151556, -6.959173865 ] } },
{ "type": "Feature", "properties": { "Kecamatan": "Semarang Utara", "Kelurahan": "Bandarharjo", "NAMEOBJ": "TPS LODAN RAYA RW 5", "Alamat": "Jl. Lodan Raya RW 5", "Latitude": -6.960041257, "Longitude": 110.4173592, "Kontainer": 1, "Foto": "https://drive.google.com/file/d/1Qd9CJY9ifOTQzNMo8D3v-1VaysaGc8pm/view?usp=sharing" }, "geometry": { "type": "Point", "coordinates": [ 110.4173592, -6.960041257 ] } },
{ "type": "Feature", "properties": { "Kecamatan": "Semarang Utara", "Kelurahan": "Bandarharjo", "NAMEOBJ": "TPS PANGGANG", "Alamat": "Jl. Yos Sudarso RW 8", "Latitude": -6.953245488, "Longitude": 110.4088296, "Kontainer": 1, "Foto": "https://drive.google.com/file/d/1kUABX07iQVzB_wk9pAyBlM9semDzP4P4/view?usp=drive_link" }, "geometry": { "type": "Point", "coordinates": [ 110.4088296, -6.953245488 ] } },
{ "type": "Feature", "properties": { "Kecamatan": "Semarang Utara", "Kelurahan": "Bulu Lor", "NAMEOBJ": "TPS BULU LOR (PASAR SURTIKANTI)", "Alamat": "Jl. Anggraini Raya RW 2", "Latitude": -6.974568039, "Longitude": 110.4044648, "Kontainer": 3, "Foto": "https://drive.google.com/file/d/1q-Iz7XZ4LTQEp07-DQWWLYYvIHpKOt5E/view?usp=drive_link" }, "geometry": { "type": "Point", "coordinates": [ 110.4044648, -6.974568039 ] } },
{ "type": "Feature", "properties": { "Kecamatan": "Semarang Utara", "Kelurahan": "Dadapsari", "NAMEOBJ": "TPS KOLONEL SUGIONO", "Alamat": "Jl. Kolonel Sugiono RT 1 RW 9", "Latitude": -6.96806859, "Longitude": 110.4229755, "Kontainer": 2, "Foto": "https://drive.google.com/file/d/1otov0ueqBIsN_1jLeM6ELgotPfZZvr3p/view?usp=drive_link" }, "geometry": { "type": "Point", "coordinates": [ 110.4229755, -6.96806859 ] } },
{ "type": "Feature", "properties": { "Kecamatan": "Semarang Utara", "Kelurahan": "Dadapsari", "NAMEOBJ": "TPS TAMBRA (PASAR PERBALAN)", "Alamat": "Jl. Tambra RT 4 RW 10", "Latitude": -6.967856842, "Longitude": 110.4155187, "Kontainer": 1, "Foto": "https://drive.google.com/file/d/1XvIsvcCikrpJq6uwG2FVphJUAfgZL_Ty/view?usp=drive_link" }, "geometry": { "type": "Point", "coordinates": [ 110.4155187, -6.967856842 ] } },
{ "type": "Feature", "properties": { "Kecamatan": "Semarang Utara", "Kelurahan": "Kuningan", "NAMEOBJ": "TPS BOOM LAMA", "Alamat": "Jl. Boom Lama", "Latitude": -6.962889926, "Longitude": 110.4199908, "Kontainer": 2, "Foto": "https://drive.google.com/file/d/1InUM-DzwRWuvj57GZJxw-MvB6AdixIFR/view?usp=drive_link" }, "geometry": { "type": "Point", "coordinates": [ 110.4199908, -6.962889926 ] } },
{ "type": "Feature", "properties": { "Kecamatan": "Semarang Utara", "Kelurahan": "Kuningan", "NAMEOBJ": "TPS KESEHATAN", "Alamat": "Jl. Kesehatan", "Latitude": -6.964078197, "Longitude": 110.4153582, "Kontainer": 2, "Foto": "https://drive.google.com/file/d/1eP9xbRnZ3BFyCdqwUC5cI8EoXoVXiacC/view?usp=drive_link" }, "geometry": { "type": "Point", "coordinates": [ 110.4153582, -6.964078197 ] } },
{ "type": "Feature", "properties": { "Kecamatan": "Semarang Utara", "Kelurahan": "Kuningan", "NAMEOBJ": "TPS PASAR BOOM LAMA", "Alamat": "Jl. Boom Lama", "Latitude": -6.961928745, "Longitude": 110.4182532, "Kontainer": 1, "Foto": "https://drive.google.com/file/d/1pJOhDKXTUW4egRQ8tq_aD2FjjpV3TouF/view?usp=drive_link" }, "geometry": { "type": "Point", "coordinates": [ 110.4182532, -6.961928745 ] } },
{ "type": "Feature", "properties": { "Kecamatan": "Semarang Utara", "Kelurahan": "Panggung Lor", "NAMEOBJ": "TPS PANGGUNG KIDUL DAN PANGGUNG LOR", "Alamat": "Jl. Lingkar Tanjung Mas Raya RT 6 RW XIV", "Latitude": -6.954321081, "Longitude": 110.4013312, "Kontainer": 4, "Foto": "https://drive.google.com/file/d/1D7ZGcDx-se2_2Bzg7kpQlOaf6li7UFBr/view?usp=drive_link" }, "geometry": { "type": "Point", "coordinates": [ 110.4013312, -6.954321081 ] } },
{ "type": "Feature", "properties": { "Kecamatan": "Semarang Utara", "Kelurahan": "Plombokan", "NAMEOBJ": "TPS GOR SATRIA", "Alamat": "Jl. Satria Selatan", "Latitude": -6.970993373, "Longitude": 110.4106794, "Kontainer": 2, "Foto": "https://drive.google.com/file/d/1tI5Gm1WP97RV7pVVqofj3fn0FxGoTD5B/view?usp=drive_link" }, "geometry": { "type": "Point", "coordinates": [ 110.4106794, -6.970993373 ] } },
{ "type": "Feature", "properties": { "Kecamatan": "Semarang Utara", "Kelurahan": "Plombokan", "NAMEOBJ": "TPS PLOMBOKAN", "Alamat": "Jl. Srikandi", "Latitude": -6.967627398, "Longitude": 110.4083751, "Kontainer": 1, "Foto": "https://drive.google.com/file/d/1u0O4CDEJQq9cqH2rnNHBjZSULeaZi-us/view?usp=drive_link" }, "geometry": { "type": "Point", "coordinates": [ 110.4083751, -6.967627398 ] } },
{ "type": "Feature", "properties": { "Kecamatan": "Semarang Utara", "Kelurahan": "Purwosari", "NAMEOBJ": "TPS PATRIOT RAYA", "Alamat": "Jl. Patriot Raya RW VI", "Latitude": -6.971049319, "Longitude": 110.4129998, "Kontainer": 2, "Foto": "https://drive.google.com/file/d/1d4iL6Pu6U9OdqYUMFIimbuA2jcCIEUup/view?usp=drive_link" }, "geometry": { "type": "Point", "coordinates": [ 110.4129998, -6.971049319 ] } },
{ "type": "Feature", "properties": { "Kecamatan": "Semarang Utara", "Kelurahan": "Tanjung Mas", "NAMEOBJ": "TPS KEBONHARJO GANG 4", "Alamat": "Jl. Kebonharjo Gang 4", "Latitude": -6.957516977, "Longitude": 110.4249685, "Kontainer": 2, "Foto": "https://drive.google.com/file/d/1AVh6Gd433KnoYJDso7Pt4I8deElLuOBj/view?usp=drive_link" }, "geometry": { "type": "Point", "coordinates": [ 110.4249685, -6.957516977 ] } },
{ "type": "Feature", "properties": { "Kecamatan": "Semarang Utara", "Kelurahan": "Tanjung Mas", "NAMEOBJ": "TPS RONGGOWARSITO", "Alamat": "Jl. Ronggowarsito", "Latitude": -6.960822686, "Longitude": 110.4307303, "Kontainer": 2, "Foto": "https://drive.google.com/file/d/1qpsm1UN0P4WN13EsBCW1EqmNRP70rymY/view?usp=drive_link" }, "geometry": { "type": "Point", "coordinates": [ 110.4307303, -6.960822686 ] } },
{ "type": "Feature", "properties": { "Kecamatan": "Tembalang", "Kelurahan": "Jangli", "NAMEOBJ": "TPS JANGLI RW 1", "Alamat": "jl burangrang raya", "Latitude": -7.036845, "Longitude": 110.4359567, "Kontainer": 2, "Foto": "https://drive.google.com/file/d/1WDothR5P0_sH-lK5GQiTTdHayxUofLnL/view?usp=sharing" }, "geometry": { "type": "Point", "coordinates": [ 110.4359567, -7.036845 ] } },
{ "type": "Feature", "properties": { "Kecamatan": "Tembalang", "Kelurahan": "Sendangguwo", "NAMEOBJ": "TPS PASAR KEDUNGMUNDU", "Alamat": "jl kedung mundu ( pasar kedungmundu)", "Latitude": -7.013105, "Longitude": 110.4493433, "Kontainer": 1, "Foto": "https://drive.google.com/file/d/1MOmDHickhPUL3iqBL4so3MuSg2imwi3L/view?usp=drive_link" }, "geometry": { "type": "Point", "coordinates": [ 110.4493433, -7.013105 ] } },
{ "type": "Feature", "properties": { "Kecamatan": "Tembalang", "Kelurahan": "Kedungmundu", "NAMEOBJ": "TPS KEDUNGMUNDU", "Alamat": "jl kedungmundu", "Latitude": -7.024378333, "Longitude": 110.4609233, "Kontainer": 2, "Foto": null }, "geometry": { "type": "Point", "coordinates": [ 110.4609233, -7.024378333 ] } },
{ "type": "Feature", "properties": { "Kecamatan": "Tembalang", "Kelurahan": "Sambiroto", "NAMEOBJ": "TPS BUMI WANA MUKTI", "Alamat": "jl wanamukti", "Latitude": -7.029468333, "Longitude": 110.4611083, "Kontainer": 2, "Foto": "https://drive.google.com/file/d/1txtABxegnguiEOTfdw9LoYCY_FJyroDS/view?usp=sharing" }, "geometry": { "type": "Point", "coordinates": [ 110.4611083, -7.029468333 ] } },
{ "type": "Feature", "properties": { "Kecamatan": "Tembalang", "Kelurahan": "Mangunharjo", "NAMEOBJ": "TPS DURENAN INDAH", "Alamat": "jl durenan indah", "Latitude": -7.048021667, "Longitude": 110.466845, "Kontainer": 2, "Foto": null }, "geometry": { "type": "Point", "coordinates": [ 110.466845, -7.048021667 ] } },
{ "type": "Feature", "properties": { "Kecamatan": "Tembalang", "Kelurahan": "Meteseh", "NAMEOBJ": "TPS KELURAHAN METESEH", "Alamat": "jl tunggu raya", "Latitude": -7.056081667, "Longitude": 110.47171, "Kontainer": 2, "Foto": "https://drive.google.com/file/d/10zlmJgID6Zy_xnfuRu0hn2ghKbn8LI85/view?usp=sharing" }, "geometry": { "type": "Point", "coordinates": [ 110.47171, -7.056081667 ] } },
{ "type": "Feature", "properties": { "Kecamatan": "Tembalang", "Kelurahan": "Meteseh", "NAMEOBJ": "TPS PASAR METESEH", "Alamat": "jl tunggu raya", "Latitude": -7.057486667, "Longitude": 110.47191, "Kontainer": 1, "Foto": "https://drive.google.com/file/d/1hIOu5-cK581nQpsmKl0ncgOZtBE1LyWS/view?usp=sharing" }, "geometry": { "type": "Point", "coordinates": [ 110.47191, -7.057486667 ] } },
{ "type": "Feature", "properties": { "Kecamatan": "Tembalang", "Kelurahan": "Rowosari", "NAMEOBJ": "TPS PERUM DIPONEGORO", "Alamat": "jl genting 2", "Latitude": -7.077228896, "Longitude": 110.4785783, "Kontainer": 2, "Foto": "https://drive.google.com/file/d/1zBtluHEfzR_MC-FetAAbv4g5V9vzHoXS/view?usp=sharing" }, "geometry": { "type": "Point", "coordinates": [ 110.4785783, -7.077228896 ] } },
{ "type": "Feature", "properties": { "Kecamatan": "Tembalang", "Kelurahan": "Sambiroto", "NAMEOBJ": "TPS PERUM INTAN", "Alamat": "jl kumala", "Latitude": -7.032214892, "Longitude": 110.4602162, "Kontainer": null, "Foto": "https://drive.google.com/file/d/1pYQlRoU-LH7Une73cYARi0jWs6oDqFCK/view?usp=drive_link" }, "geometry": { "type": "Point", "coordinates": [ 110.4602162, -7.032214892 ] } },
{ "type": "Feature", "properties": { "Kecamatan": "Tembalang", "Kelurahan": "Sendangmulyo", "NAMEOBJ": "TPS PERUM PSIS", "Alamat": "jl wanamukti", "Latitude": -7.030205, "Longitude": 110.4668017, "Kontainer": 1, "Foto": "https://drive.google.com/file/d/1Y5-8Vah2Ameyn69kVMJPARFmGQAjJMX5/view?usp=sharing" }, "geometry": { "type": "Point", "coordinates": [ 110.4668017, -7.030205 ] } },
{ "type": "Feature", "properties": { "Kecamatan": "Tembalang", "Kelurahan": "Rowosari", "NAMEOBJ": "TPS ROWOSARI", "Alamat": "jl rowosari", "Latitude": -7.071352952, "Longitude": 110.4736351, "Kontainer": null, "Foto": "https://drive.google.com/file/d/1wU3tYq1qJaxXcoQb7xNqqPM8ziGfw4qt/view?usp=drive_link" }, "geometry": { "type": "Point", "coordinates": [ 110.4736351, -7.071352952 ] } },
{ "type": "Feature", "properties": { "Kecamatan": "Tembalang", "Kelurahan": "Mangunahrjo", "NAMEOBJ": "TPS DEPAN RUMPUN DIPONEGORO", "Alamat": "jl elang raya", "Latitude": -7.035095, "Longitude": 110.460635, "Kontainer": 2, "Foto": "https://drive.google.com/file/d/1lAOgygpMyxLf6ABd-BYBB22qGRU7F-FI/view?usp=sharing" }, "geometry": { "type": "Point", "coordinates": [ 110.460635, -7.035095 ] } },
{ "type": "Feature", "properties": { "Kecamatan": "Tembalang", "Kelurahan": "Sambiroto", "NAMEOBJ": "TPS SAMBIROTO", "Alamat": "jl elangraya", "Latitude": -7.034078333, "Longitude": 110.4599683, "Kontainer": 1, "Foto": "https://drive.google.com/file/d/1pYQlRoU-LH7Une73cYARi0jWs6oDqFCK/view?usp=sharing" }, "geometry": { "type": "Point", "coordinates": [ 110.4599683, -7.034078333 ] } },
{ "type": "Feature", "properties": { "Kecamatan": "Tembalang", "Kelurahan": "Sendangmulyo", "NAMEOBJ": "TPS TEMBALANG 03", "Alamat": "jl ketileng indah raya", "Latitude": -7.031386667, "Longitude": 110.4718983, "Kontainer": 2, "Foto": null }, "geometry": { "type": "Point", "coordinates": [ 110.4718983, -7.031386667 ] } },
{ "type": "Feature", "properties": { "Kecamatan": "Tembalang", "Kelurahan": "Jangli", "NAMEOBJ": "TPS  JUPITER", "Alamat": "jl jupiter v", "Latitude": -7.032238333, "Longitude": 110.4391117, "Kontainer": 1, "Foto": "https://drive.google.com/file/d/1iXGROfECaautA6-K3I5sPKWrXSc_8N-E/view?usp=drive_link" }, "geometry": { "type": "Point", "coordinates": [ 110.4391117, -7.032238333 ] } },
{ "type": "Feature", "properties": { "Kecamatan": "Tembalang", "Kelurahan": "Sendangmulyo", "NAMEOBJ": "TPS ASRAMA POLISI", "Alamat": "jl kelurahan karangturi aspol", "Latitude": -7.031701667, "Longitude": 110.4694517, "Kontainer": 1, "Foto": "https://drive.google.com/file/d/12CCj2UEL4aWx3a2jVbLwhg2-Mqr-CJ8k/view?usp=sharing" }, "geometry": { "type": "Point", "coordinates": [ 110.4694517, -7.031701667 ] } },
{ "type": "Feature", "properties": { "Kecamatan": "Tembalang", "Kelurahan": "Bulusan", "NAMEOBJ": "TPS BELAKANG KECAMATAN TEMBALANG", "Alamat": "jl turus asri", "Latitude": -7.059403333, "Longitude": 110.4477417, "Kontainer": 4, "Foto": "https://drive.google.com/file/d/1sKSnjuN92we2uvKcB3zSU0TxFsmXGMUC/view?usp=sharing" }, "geometry": { "type": "Point", "coordinates": [ 110.4477417, -7.059403333 ] } },
{ "type": "Feature", "properties": { "Kecamatan": "Tembalang", "Kelurahan": "Meteseh", "NAMEOBJ": "TPS BUKIT KENCANA", "Alamat": "jl bukit kencana raya", "Latitude": -7.064259942, "Longitude": 110.4614224, "Kontainer": 2, "Foto": "https://drive.google.com/file/d/165bRiO7f96pKX_cBAuKpYp3lIgDYtFAt/view?usp=drive_link" }, "geometry": { "type": "Point", "coordinates": [ 110.4614224, -7.064259942 ] } },
{ "type": "Feature", "properties": { "Kecamatan": "Tembalang", "Kelurahan": "Sendangmulyo", "NAMEOBJ": "TPS CEMPAKA RAYA", "Alamat": "jl cempaka raya", "Latitude": -7.046803333, "Longitude": 110.4762183, "Kontainer": 3, "Foto": "https://drive.google.com/file/d/1PKV8Gp_HZK_940zh8M4Doq7EWiF2zB7b/view?usp=sharing" }, "geometry": { "type": "Point", "coordinates": [ 110.4762183, -7.046803333 ] } },
{ "type": "Feature", "properties": { "Kecamatan": "Tembalang", "Kelurahan": "Sendangmulyo", "NAMEOBJ": "TPS TEMBALANG 02", "Alamat": "jl ketileng indah raya", "Latitude": -7.033573333, "Longitude": 110.4718433, "Kontainer": 1, "Foto": null }, "geometry": { "type": "Point", "coordinates": [ 110.4718433, -7.033573333 ] } },
{ "type": "Feature", "properties": { "Kecamatan": "Tembalang", "Kelurahan": "Sendangmulyo", "NAMEOBJ": "TPS TULUS HARAPAN", "Alamat": "jl klipang raya", "Latitude": -7.035788591, "Longitude": 110.4716927, "Kontainer": 1, "Foto": null }, "geometry": { "type": "Point", "coordinates": [ 110.4716927, -7.035788591 ] } },
{ "type": "Feature", "properties": { "Kecamatan": "Tembalang", "Kelurahan": "Tandang", "NAMEOBJ": "TPS TANDANG", "Alamat": "Jl. Kinibalu Timur I No 56", "Latitude": -7.013867627, "Longitude": 110.4442603, "Kontainer": 1, "Foto": "https://drive.google.com/file/d/1LqF4tWOoQCPR8nUeYyn08gY2tUrbrFqZ/view?usp=drive_link" }, "geometry": { "type": "Point", "coordinates": [ 110.4442603, -7.013867627 ] } },
{ "type": "Feature", "properties": { "Kecamatan": "Tembalang", "Kelurahan": "Tandang", "NAMEOBJ": "TPS TANDANG RW 6", "Alamat": "Jl Depoksari", "Latitude": -7.018573903, "Longitude": 110.4542612, "Kontainer": 1, "Foto": "https://drive.google.com/file/d/1ZjrgQc7wzANDQKe93GWz2fCivwzQpQJM/view?usp=drive_link" }, "geometry": { "type": "Point", "coordinates": [ 110.4542612, -7.018573903 ] } },
{ "type": "Feature", "properties": { "Kecamatan": "Tembalang", "Kelurahan": "Tandang", "NAMEOBJ": "TPS TANDANG RW 11", "Alamat": "Jl Kaba", "Latitude": -7.017965766, "Longitude": 110.4438892, "Kontainer": 1, "Foto": "https://drive.google.com/file/d/123tvgfFrj9OvV55dZ5tl1cjt9zxCGWX7/view?usp=drive_link" }, "geometry": { "type": "Point", "coordinates": [ 110.4438892, -7.017965766 ] } },
{ "type": "Feature", "properties": { "Kecamatan": "Tembalang", "Kelurahan": "Tandang", "NAMEOBJ": "TPS TANDANG RW 10", "Alamat": "Area dekat bukit teletubbies", "Latitude": -7.025187608, "Longitude": 110.4456002, "Kontainer": 1, "Foto": "https://drive.google.com/file/d/1i8FtROqG8LQmORfYCf8vQFMnDl_xxJp4/view?usp=drive_link" }, "geometry": { "type": "Point", "coordinates": [ 110.4456002, -7.025187608 ] } },
{ "type": "Feature", "properties": { "Kecamatan": "Tugu", "Kelurahan": "Mangkang Kulon", "NAMEOBJ": "TPS Kp. Pilah Sampah", "Alamat": "Jl Kyai Gilang Kauman", "Latitude": -6.964951074, "Longitude": 110.3009781, "Kontainer": 1, "Foto": "https://drive.google.com/file/d/1o_mIPKxKoSDBqSx289rstU6VCuh3h9aR/view?usp=drive_link" }, "geometry": { "type": "Point", "coordinates": [ 110.3009781, -6.964951074 ] } },
{ "type": "Feature", "properties": { "Kecamatan": "Tugu", "Kelurahan": "Mangkang Kulon", "NAMEOBJ": "TPS IRIGASI UTARA (TPS RW 5 MANGUNHARJO)", "Alamat": "Jl Irigasi Utara", "Latitude": -6.946870638, "Longitude": 110.3077395, "Kontainer": 1, "Foto": "https://drive.google.com/file/d/1Wu3VgyDtbaYdrpErNyQIZMvlyrli1a7J/view?usp=drive_link" }, "geometry": { "type": "Point", "coordinates": [ 110.3077395, -6.946870638 ] } },
{ "type": "Feature", "properties": { "Kecamatan": "Tugu", "Kelurahan": "Mangkang Wetan", "NAMEOBJ": "TPS KALISASAK", "Alamat": "Jl Lapangan Kalisasak RT 3 RW 3", "Latitude": -6.966595813, "Longitude": 110.3090316, "Kontainer": 1, "Foto": "https://drive.google.com/file/d/1vhEApv8d4ienjRdDJOtJDTlZZTruM5I6/view?usp=drive_link" }, "geometry": { "type": "Point", "coordinates": [ 110.3090316, -6.966595813 ] } },
{ "type": "Feature", "properties": { "Kecamatan": "Tugu", "Kelurahan": "Mangkang Wetan", "NAMEOBJ": "TPS KRAJAN", "Alamat": "Jl Krajan RT 3 RW 1", "Latitude": -6.971516474, "Longitude": 110.3046417, "Kontainer": 1, "Foto": "https://drive.google.com/file/d/1EiTD-tca6hs4Rr4mFSFpV_pJbvjTPTV6/view?usp=drive_link" }, "geometry": { "type": "Point", "coordinates": [ 110.3046417, -6.971516474 ] } },
{ "type": "Feature", "properties": { "Kecamatan": "Tugu", "Kelurahan": "Mangunharjo", "NAMEOBJ": "TPS MANGUNHARJO 1", "Alamat": "Jl Panggung Irigasi", "Latitude": -6.958996318, "Longitude": 110.3104671, "Kontainer": 1, "Foto": "https://drive.google.com/file/d/1uzElLrAyQZxHmIjHrpNn3lnZduI4P1lh/view?usp=drive_link" }, "geometry": { "type": "Point", "coordinates": [ 110.3104671, -6.958996318 ] } },
{ "type": "Feature", "properties": { "Kecamatan": "Tugu", "Kelurahan": "Mangunharjo", "NAMEOBJ": "TPS PANGGUNG", "Alamat": "Jl Panggung", "Latitude": -6.958846827, "Longitude": 110.3048113, "Kontainer": 1, "Foto": "https://drive.google.com/file/d/1W5h9-h-d7MFiHnoheIcPbrD21OzWoZQp/view?usp=drive_link" }, "geometry": { "type": "Point", "coordinates": [ 110.3048113, -6.958846827 ] } },
{ "type": "Feature", "properties": { "Kecamatan": "Tugu", "Kelurahan": "Randugarut", "NAMEOBJ": "TPS RANDU GARUT", "Alamat": "Jl Kauman Randugarut RT 2 RW 1", "Latitude": -6.970750345, "Longitude": 110.3201034, "Kontainer": 1, "Foto": "https://drive.google.com/file/d/1iPsT5t_ITqHQq0GntzcIBQiYgtsmgX7E/view?usp=drive_link" }, "geometry": { "type": "Point", "coordinates": [ 110.3201034, -6.970750345 ] } },
{ "type": "Feature", "properties": { "Kecamatan": "Tugu", "Kelurahan": "Tugurejo", "NAMEOBJ": "TPS TAPAK", "Alamat": "Jl Tapak RT 6 RW 3", "Latitude": -6.968780891, "Longitude": 110.3457209, "Kontainer": 1, "Foto": "https://drive.google.com/file/d/1lIf3SHGkEAQ6t45XPfAfLGgGdDkRan3w/view?usp=sharing" }, "geometry": { "type": "Point", "coordinates": [ 110.3457209, -6.968780891 ] } },
{ "type": "Feature", "properties": { "Kecamatan": "Tugu", "Kelurahan": "Tugurejo", "NAMEOBJ": "TPS TUGUREJO", "Alamat": "Jl Tugurejo Timur XI", "Latitude": -6.977720754, "Longitude": 110.3531968, "Kontainer": 2, "Foto": "20260424_30401PMByGPSMapCamera.jpg - Google Drive" }, "geometry": { "type": "Point", "coordinates": [ 110.3531968, -6.977720754 ] } },
{ "type": "Feature", "properties": { "Kecamatan": "Tembalang", "Kelurahan": "Sendangguwo", "NAMEOBJ": "TPS RW 2 SENDANGGUWO", "Alamat": "Jl Sendangguwo Raya", "Latitude": -7.014158922, "Longitude": 110.4531743, "Kontainer": 1, "Foto": "https://drive.google.com/file/d/1NX9QMjiId7PtEfO94wdjnpDIJaEAA5x_/view?usp=drive_link" }, "geometry": { "type": "Point", "coordinates": [ 110.4531743, -7.014158922 ] } },
{ "type": "Feature", "properties": { "Kecamatan": "Tembalang", "Kelurahan": "Sendangguwo", "NAMEOBJ": "TPS RW 7 SENDANGGUWO", "Alamat": "Jl Salak Raya", "Latitude": -7.010651725, "Longitude": 110.4455434, "Kontainer": 2, "Foto": "https://drive.google.com/file/d/10HBEwp-1I5BlUfJHS4hufoE9QZ1zTPW3/view?usp=drive_link" }, "geometry": { "type": "Point", "coordinates": [ 110.4455434, -7.010651725 ] } },
{ "type": "Feature", "properties": { "Kecamatan": "Gayamsari", "Kelurahan": "Siwalan", "NAMEOBJ": "TPS JOLOTUNDO RW 2", "Alamat": "Jl. Jolotundo RT 12 RW 2", "Latitude": -6.986325811, "Longitude": 110.4507111, "Kontainer": 1, "Foto": null }, "geometry": { "type": "Point", "coordinates": [ 110.4507111, -6.986325811 ] } },
{ "type": "Feature", "properties": { "Kecamatan": "Banyumanik", "Kelurahan": "Ngesrep", "NAMEOBJ": "TPS RW 6", "Alamat": "jl jangli perbalan timur", "Latitude": -7.03348781, "Longitude": 110.4270166, "Kontainer": 1, "Foto": null }, "geometry": { "type": "Point", "coordinates": [ 110.4270166, -7.03348781 ] } },
{ "type": "Feature", "properties": { "Kecamatan": "Gayamsari", "Kelurahan": "Tambakrejo", "NAMEOBJ": "TPS PURWOSARI", "Alamat": "Jl Purwosari raya Tambakrejo", "Latitude": -6.9553026, "Longitude": 110.4415854, "Kontainer": 2, "Foto": "https://drive.google.com/file/d/1RDRBs302nSUM4ep7jeCMNTvGPEV_BjbM/view?usp=drive_link" }, "geometry": { "type": "Point", "coordinates": [ 110.4415854, -6.9553026 ] } },
{ "type": "Feature", "properties": { "Kecamatan": "Gayamsari", "Kelurahan": "Tambakrejo", "NAMEOBJ": "TPS TENGGANG", "Alamat": " kompleks makam tenggang", "Latitude": -6.956275646, "Longitude": 110.4473463, "Kontainer": 2, "Foto": null }, "geometry": { "type": "Point", "coordinates": [ 110.4473463, -6.956275646 ] } },
{ "type": "Feature", "properties": { "Kecamatan": "Tugu", "Kelurahan": "Mangunharjo", "NAMEOBJ": "TPS RW 3", "Alamat": "Jl Tegalsari depan makam", "Latitude": -6.971493599, "Longitude": 110.2997677, "Kontainer": 1, "Foto": null }, "geometry": { "type": "Point", "coordinates": [ 110.2997677, -6.971493599 ] } },
{ "type": "Feature", "properties": { "Kecamatan": "Genuk", "Kelurahan": "Bangetayu Wetan", "NAMEOBJ": "TPS RW 5 BANGETAYU WETAN", "Alamat": "Jl Sembungharjo Raya", "Latitude": -6.988161799, "Longitude": 110.4914379, "Kontainer": 1, "Foto": null }, "geometry": { "type": "Point", "coordinates": [ 110.4914379, -6.988161799 ] } },
{ "type": "Feature", "properties": { "Kecamatan": "Genuk", "Kelurahan": "Sembungharjo", "NAMEOBJ": "TPS SEMBUNGHARJO", "Alamat": "Jl Sembungharjo Raya", "Latitude": -6.988000612, "Longitude": 110.4915146, "Kontainer": 1, "Foto": null }, "geometry": { "type": "Point", "coordinates": [ 110.4915146, -6.988000612 ] } },
{ "type": "Feature", "properties": { "Kecamatan": "Semarang Selatan", "Kelurahan": "Randusari", "NAMEOBJ": "TPS RW 4", "Alamat": "JL. Wonosari I RT 01 RW 04", "Latitude": null, "Longitude": null, "Kontainer": null, "Foto": null }, "geometry": null },
{ "type": "Feature", "properties": { "Kecamatan": "Semarang Selatan", "Kelurahan": "Randusari", "NAMEOBJ": "TPS RW 3", "Alamat": "Jl. Wonosari VII RT 10 RW 03", "Latitude": null, "Longitude": null, "Kontainer": null, "Foto": null }, "geometry": null },
{ "type": "Feature", "properties": { "Kecamatan": "Semarang Selatan", "Kelurahan": "Randusari", "NAMEOBJ": "TPS RW 6", "Alamat": "Jl. Dr. Kariadi RT 01 RW 06", "Latitude": null, "Longitude": null, "Kontainer": null, "Foto": null }, "geometry": null },
{ "type": "Feature", "properties": { "Kecamatan": "Banyumanik", "Kelurahan": "Srondol Kulon", "NAMEOBJ": "TPS RW 7", "Alamat": "Jl Sendangsari", "Latitude": -7.062557, "Longitude": 110.408594, "Kontainer": 2, "Foto": null }, "geometry": { "type": "Point", "coordinates": [ 110.408594, -7.062557 ] } },
{ "type": "Feature", "properties": { "Kecamatan": "Semarang Timur", "Kelurahan": "Rejomulyo", "NAMEOBJ": "TPS PASAR KOBONG", "Alamat": "Jl Pengapon", "Latitude": -6.962481815, "Longitude": 110.4345632, "Kontainer": 1, "Foto": null }, "geometry": { "type": "Point", "coordinates": [ 110.4345632, -6.962481815 ] } },
{ "type": "Feature", "properties": { "Kecamatan": "Semarang Timur", "Kelurahan": "Rejosari", "NAMEOBJ": "TPS PASAR KARIMATA", "Alamat": "Jl RA Kartini", "Latitude": -6.985072077, "Longitude": 110.4377494, "Kontainer": 1, "Foto": null }, "geometry": { "type": "Point", "coordinates": [ 110.4377494, -6.985072077 ] } },
{ "type": "Feature", "properties": { "Kecamatan": "Banyumanik", "Kelurahan": "Srondol Kulon", "NAMEOBJ": "TPS PERUM BRIGIF", "Alamat": "Jl. Ex Brigif dawis bugenvil No.3", "Latitude": -7.072182013, "Longitude": 110.4102217, "Kontainer": 1, "Foto": null }, "geometry": { "type": "Point", "coordinates": [ 110.4102217, -7.072182013 ] } },
{ "type": "Feature", "properties": { "Kecamatan": "Banyumanik", "Kelurahan": "Srondol Wetan", "NAMEOBJ": "TPS PERUM TAMAN SETIABUDI", "Alamat": null, "Latitude": null, "Longitude": null, "Kontainer": 1, "Foto": null }, "geometry": null },
{ "type": "Feature", "properties": { "Kecamatan": "Gunungpati", "Kelurahan": "Gunungpati", "NAMEOBJ": "TPS PASAR GUNUNGPATI", "Alamat": "Jl. Ungaran-Cangkiran", "Latitude": -7.089435531, "Longitude": 110.3608562, "Kontainer": 1, "Foto": null }, "geometry": { "type": "Point", "coordinates": [ 110.3608562, -7.089435531 ] } },
{ "type": "Feature", "properties": { "Kecamatan": "Banyumanik", "Kelurahan": "Srondol Kulon", "NAMEOBJ": "TPS SRONDOL ASRI", "Alamat": null, "Latitude": -7.05015132, "Longitude": 110.411918, "Kontainer": 1, "Foto": null }, "geometry": { "type": "Point", "coordinates": [ 110.411918, -7.05015132 ] } },
{ "type": "Feature", "properties": { "Kecamatan": "Pedurungan", "Kelurahan": "Tlogosari Kulon", "NAMEOBJ": "TPS PASAR SATRIO WIBOWO", "Alamat": "Jl Satrio Wibowo", "Latitude": -6.982117462, "Longitude": 110.4559342, "Kontainer": null, "Foto": null }, "geometry": { "type": "Point", "coordinates": [ 110.4559342, -6.982117462 ] } },
{ "type": "Feature", "properties": { "Kecamatan": "Pedurungan", "Kelurahan": "Tlogosari Kulon", "NAMEOBJ": "TPS PASAR UDAN RIRIS", "Alamat": "Jl Udan Riris III", "Latitude": -6.983051707, "Longitude": 110.4602889, "Kontainer": null, "Foto": null }, "geometry": { "type": "Point", "coordinates": [ 110.4602889, -6.983051707 ] } },
{ "type": "Feature", "properties": { "Kecamatan": "Semarang Selatan", "Kelurahan": "Lamper Kidul", "NAMEOBJ": "TPS PASAR MRICAN", "Alamat": "Jl. Tentara Pelaajr", "Latitude": -7.010419692, "Longitude": 110.4412778, "Kontainer": 4, "Foto": null }, "geometry": { "type": "Point", "coordinates": [ 110.4412778, -7.010419692 ] } },
{ "type": "Feature", "properties": { "Kecamatan": "Semarang Tengah", "Kelurahan": "Kauman", "NAMEOBJ": "TPS PASAR JOHAR", "Alamat": "Area pasar johar (belakang alun-alun)", "Latitude": -6.972658877, "Longitude": 110.4242116, "Kontainer": 1, "Foto": null }, "geometry": { "type": "Point", "coordinates": [ 110.4242116, -6.972658877 ] } },
{ "type": "Feature", "properties": { "Kecamatan": "Banyumanik", "Kelurahan": "Ngesrep", "NAMEOBJ": "TPS JROBANG ", "Alamat": "Jl. Jrobang Buntu I ", "Latitude": -7.037087499, "Longitude": 110.4268063, "Kontainer": 1, "Foto": null }, "geometry": { "type": "Point", "coordinates": [ 110.4268063, -7.037087499 ] } },
{ "type": "Feature", "properties": { "Kecamatan": "Tembalang", "Kelurahan": "Kramas", "NAMEOBJ": "TPS KRAMAS", "Alamat": "Depan balai kelurahan", "Latitude": -7.068304813, "Longitude": 110.4358146, "Kontainer": 2, "Foto": "https://drive.google.com/file/d/1SJbj8xcblUdZpvnRaV5oWBf-1-l2a8aC/view?usp=drive_link" }, "geometry": { "type": "Point", "coordinates": [ 110.4358146, -7.068304813 ] } },
{ "type": "Feature", "properties": { "Kecamatan": "Pedurungan", "Kelurahan": "Muktiharjo Kidul", "NAMEOBJ": "TPS PASAR SURYOKUSUMO", "Alamat": "Jl Sidodrajat", "Latitude": -6.977305777, "Longitude": 110.4625064, "Kontainer": 1, "Foto": null }, "geometry": { "type": "Point", "coordinates": [ 110.4625064, -6.977305777 ] } },
{ "type": "Feature", "properties": { "Kecamatan": "Pedurungan", "Kelurahan": "Palebon", "NAMEOBJ": "TPS PALEBON", "Alamat": "Jl Pedurungan Tengah VI", "Latitude": -7.006340886, "Longitude": 110.4698819, "Kontainer": 1, "Foto": null }, "geometry": { "type": "Point", "coordinates": [ 110.4698819, -7.006340886 ] } },
{ "type": "Feature", "properties": { "Kecamatan": "Genuk", "Kelurahan": "Trimulyo", "NAMEOBJ": "TPS TRIMULYO", "Alamat": "Kali Babon", "Latitude": -6.948040301, "Longitude": 110.4832324, "Kontainer": 1, "Foto": null }, "geometry": { "type": "Point", "coordinates": [ 110.4832324, -6.948040301 ] } },
{ "type": "Feature", "properties": { "Kecamatan": "Genuk", "Kelurahan": "Karangroto", "NAMEOBJ": "TPS RW 3", "Alamat": "Jl Karangroto Raya", "Latitude": -6.965774601, "Longitude": 110.4901815, "Kontainer": 1, "Foto": "https://drive.google.com/file/d/17sjBuChoSVkZ3W2n8YM_AdnN7XSdhy-B/view?usp=drive_link" }, "geometry": { "type": "Point", "coordinates": [ 110.4901815, -6.965774601 ] } },
{ "type": "Feature", "properties": { "Kecamatan": "Tugu", "Kelurahan": "Jerakah", "NAMEOBJ": "TPS 01 JERAKAH", "Alamat": "Jl.Ngepos Rt 02 Rw 01", "Latitude": -6.986189348, "Longitude": 110.3590694, "Kontainer": 1, "Foto": "https://drive.google.com/file/d/1XGpm4qJ6uL2eY3ZPzjF6eZJ9DUjeHOiq/view?usp=drive_link" }, "geometry": { "type": "Point", "coordinates": [ 110.3590694, -6.986189348 ] } },
{ "type": "Feature", "properties": { "Kecamatan": "Tugu", "Kelurahan": "Jerakah", "NAMEOBJ": "TPS 02 JERAKAH", "Alamat": "Jl Stasiun Rt 05 Rw 02", "Latitude": -6.981641677, "Longitude": 110.3630194, "Kontainer": 1, "Foto": "https://drive.google.com/file/d/1GR7b7DWn0KsUOjowTmcHM4GYL-Tbo0QX/view?usp=drive_link" }, "geometry": { "type": "Point", "coordinates": [ 110.3630194, -6.981641677 ] } },
{ "type": "Feature", "properties": { "Kecamatan": "Semarang Timur", "Kelurahan": "Karangturi", "NAMEOBJ": "TPS PASAR LANGGAR", "Alamat": "Jl RA Kartini", "Latitude": -6.985359307, "Longitude": 110.4322173, "Kontainer": null, "Foto": null }, "geometry": { "type": "Point", "coordinates": [ 110.4322173, -6.985359307 ] } },
{ "type": "Feature", "properties": { "Kecamatan": "Pedurungan", "Kelurahan": "Pedurungan Kidul", "NAMEOBJ": "TPS PASAR PEDURUNGAN", "Alamat": "Jl Fatmawati Raya", "Latitude": -7.017007584, "Longitude": 110.472083, "Kontainer": 1, "Foto": null }, "geometry": { "type": "Point", "coordinates": [ 110.472083, -7.017007584 ] } },
{ "type": "Feature", "properties": { "Kecamatan": "Banyumanik", "Kelurahan": "Pudakpayung", "NAMEOBJ": "TPS PUDAKPAYUNG", "Alamat": "Perum Gedawang Pesona Asri No. C3", "Latitude": -7.091204667, "Longitude": 110.4202651, "Kontainer": 2, "Foto": null }, "geometry": { "type": "Point", "coordinates": [ 110.4202651, -7.091204667 ] } },
{ "type": "Feature", "properties": { "Kecamatan": "Banyumanik", "Kelurahan": "Banyumanik", "NAMEOBJ": "TPS PASAR BANYUMANIK", "Alamat": "Jl. Perintis Kemerdaan", "Latitude": -7.073768617, "Longitude": 110.4103693, "Kontainer": 1, "Foto": null }, "geometry": { "type": "Point", "coordinates": [ 110.4103693, -7.073768617 ] } },
{ "type": "Feature", "properties": { "Kecamatan": "Banyumanik", "Kelurahan": "Jabungan", "NAMEOBJ": "TPS PERUM KOTAKITA", "Alamat": "Jl Perum Kotakita", "Latitude": -7.086243813, "Longitude": 110.4374132, "Kontainer": 1, "Foto": null }, "geometry": { "type": "Point", "coordinates": [ 110.4374132, -7.086243813 ] } },
{ "type": "Feature", "properties": { "Kecamatan": "Pedurungan", "Kelurahan": "Kalicari", "NAMEOBJ": "TPS KALICARI", "Alamat": "Belakang Kantor Kelurahan Kalicari", "Latitude": -6.995858659, "Longitude": 110.4557094, "Kontainer": 2, "Foto": null }, "geometry": { "type": "Point", "coordinates": [ 110.4557094, -6.995858659 ] } },
{ "type": "Feature", "properties": { "Kecamatan": "Banyumanik", "Kelurahan": "Gedawang", "NAMEOBJ": "TPS RW 01 GEDAWANG", "Alamat": "Jl Glintingan", "Latitude": -7.077559322, "Longitude": 110.4338858, "Kontainer": 1, "Foto": null }, "geometry": { "type": "Point", "coordinates": [ 110.4338858, -7.077559322 ] } }
]
}
