{
"type": "FeatureCollection",
"name": "TPS_KOTA_SEMARANG_2026",
"crs": { "type": "name", "properties": { "name": "urn:ogc:def:crs:OGC:1.3:CRS84" } },
"features": [
{ "type": "Feature", "properties": { "Name": "TPS KARANGINGAS (PUPR)", "Kecamatan": "Gayamsari", "Kelurahan": "Siwalan", "Alamat": "jl dempel lor", "Latitude": "-6.97449333299994", "Longitude": "110.451478333" }, "geometry": { "type": "Point", "coordinates": [ 110.451478333000068, -6.974493332999941, 0.0 ] } },
{ "type": "Feature", "properties": { "Name": "TPS KIMAR", "Kecamatan": "Gayamsari", "Kelurahan": "pandean lamper", "Alamat": "jl gempolsari III", "Latitude": "-6.99764833299997", "Longitude": "110.439041667" }, "geometry": { "type": "Point", "coordinates": [ 110.439041667000083, -6.997648332999972, 0.0 ] } },
{ "type": "Feature", "properties": { "Name": "TPS PANDEAN LAMPER", "Kecamatan": "Gayamsari", "Kelurahan": "pandean lamper", "Alamat": "jl cempedak utara", "Latitude": "-6.99901166699993", "Longitude": "110.438478333" }, "geometry": { "type": "Point", "coordinates": [ 110.438478333000035, -6.999011666999934, 0.0 ] } },
{ "type": "Feature", "properties": { "Name": "TPS PETERONGAN", "Kecamatan": "Gayamsari", "Kelurahan": "pandean lamper", "Alamat": "jl kanal", "Latitude": "-6.99750666699993", "Longitude": "110.438328333" }, "geometry": { "type": "Point", "coordinates": [ 110.438328333000072, -6.997506666999925, 0.0 ] } },
{ "type": "Feature", "properties": { "Name": "TPS SAMBIREJO", "Kecamatan": "Gayamsari", "Kelurahan": "Sambirejo", "Alamat": "jl sambirejo", "Latitude": "-6.98370333299994", "Longitude": "110.441743333" }, "geometry": { "type": "Point", "coordinates": [ 110.441743333000034, -6.983703332999937, 0.0 ] } },
{ "type": "Feature", "properties": { "Name": "TPS SAWAH BESAR 1", "Kecamatan": "Gayamsari", "Kelurahan": "Sawah besar", "Alamat": "jl sawah besar xv", "Latitude": "-6.96400999999997", "Longitude": "110.449873333" }, "geometry": { "type": "Point", "coordinates": [ 110.449873333000085, -6.96401, 0.0 ] } },
{ "type": "Feature", "properties": { "Name": "TPS SAWAH BESAR 2", "Kecamatan": "Gayamsari", "Kelurahan": "Sawah besar", "Alamat": "jl pandansari", "Latitude": "-6.97333333299997", "Longitude": "110.4434" }, "geometry": { "type": "Point", "coordinates": [ 110.4434, -6.973333332999971, 0.0 ] } },
{ "type": "Feature", "properties": { "Name": "TPS SIWALAN", "Kecamatan": "Gayamsari", "Kelurahan": "siwalan", "Alamat": "jl dempel lor", "Latitude": "-6.97389999999996", "Longitude": "110.449653333" }, "geometry": { "type": "Point", "coordinates": [ 110.449653333000072, -6.9739, 0.0 ] } },
{ "type": "Feature", "properties": { "Name": "TPS TERPADU REJOSARI, BARITO", "Kecamatan": "Semarang timur", "Kelurahan": "rejosari", "Alamat": "jl barito", "Latitude": "-6.98478666699998", "Longitude": "110.44029" }, "geometry": { "type": "Point", "coordinates": [ 110.44029, -6.98478666699998, 0.0 ] } },
{ "type": "Feature", "properties": { "Name": "TPS BANGET PRASATYA 04", "Kecamatan": "Genuk", "Kelurahan": "Bangetayu Kulon", "Alamat": "jl bangetayu prasatya", "Latitude": "-6.98062833299997", "Longitude": "110.477365" }, "geometry": { "type": "Point", "coordinates": [ 110.477365, -6.98062833299997, 0.0 ] } },
{ "type": "Feature", "properties": { "Name": "TPS GENUKSARI", "Kecamatan": "Genuk", "Kelurahan": "genuk sari", "Alamat": "jl dong biru II", "Latitude": "-6.96653333299997", "Longitude": "110.47767" }, "geometry": { "type": "Point", "coordinates": [ 110.47767, -6.966533332999973, 0.0 ] } },
{ "type": "Feature", "properties": { "Name": "TPS MUKTIHARJO LOR", "Kecamatan": "Genuk", "Kelurahan": "muktiharjo lor", "Alamat": "jl muktiharjo lor", "Latitude": "-6.96709333299998", "Longitude": "110.457046667" }, "geometry": { "type": "Point", "coordinates": [ 110.457046667000043, -6.96709333299998, 0.0 ] } },
{ "type": "Feature", "properties": { "Name": "TPS PASAR BANGETAYU", "Kecamatan": "Genuk", "Kelurahan": "Bangetayu Kulon", "Alamat": "jl bangetayu prasatya VII", "Latitude": "-6.98134166699998", "Longitude": "110.476386667" }, "geometry": { "type": "Point", "coordinates": [ 110.476386667000043, -6.981341666999981, 0.0 ] } },
{ "type": "Feature", "properties": { "Name": "TPS PASAR GENUK", "Kecamatan": "Genuk", "Kelurahan": "Genuksari", "Alamat": "jl pantura", "Latitude": "-6.95220666699993", "Longitude": "110.479295" }, "geometry": { "type": "Point", "coordinates": [ 110.479295, -6.952206666999928, 0.0 ] } },
{ "type": "Feature", "properties": { "Name": "TPS PASAR KUBRO", "Kecamatan": "Genuk", "Kelurahan": "terboyo kulon", "Alamat": "jl alteri utara", "Latitude": "-6.95195499999994", "Longitude": "110.450901667" }, "geometry": { "type": "Point", "coordinates": [ 110.450901667000039, -6.951955, 0.0 ] } },
{ "type": "Feature", "properties": { "Name": "TPS RUSUNAWA LAMA KARANGROTO", "Kecamatan": "Genuk", "Kelurahan": "karangroto", "Alamat": "jl jatimas", "Latitude": "-6.97198499999996", "Longitude": "110.496606667" }, "geometry": { "type": "Point", "coordinates": [ 110.496606667000037, -6.971985, 0.0 ] } },
{ "type": "Feature", "properties": { "Name": "TPS RUSUNAWA RW 8", "Kecamatan": "Genuk", "Kelurahan": "karangroto", "Alamat": "jl kidalem raya", "Latitude": "-6.95620833299995", "Longitude": "110.502486667" }, "geometry": { "type": "Point", "coordinates": [ 110.502486667000085, -6.95620833299995, 0.0 ] } },
{ "type": "Feature", "properties": { "Name": "TPS TERBOYO WETAN", "Kecamatan": "Genuk", "Kelurahan": "Terboyo wetan", "Alamat": "jl kawasasan industri terboyo", "Latitude": "-6.94598666699994", "Longitude": "110.464828333" }, "geometry": { "type": "Point", "coordinates": [ 110.464828333000071, -6.945986666999943, 0.0 ] } },
{ "type": "Feature", "properties": { "Name": "TPS 3R PEDALANGAN BERSINAR", "Kecamatan": "Banyumanik", "Kelurahan": "Pendalangan", "Alamat": "Jl. Tirto Agung Raya", "Latitude": "-7.07099090799994", "Longitude": "110.414450888" }, "geometry": { "type": "Point", "coordinates": [ 110.414450888000033, -7.070990907999942, 0.0 ] } },
{ "type": "Feature", "properties": { "Name": "TPS Bersama (Ged & Pupay)", "Kecamatan": "Banyumanik", "Kelurahan": "Gedawang", "Alamat": "Jl. Gedawang Kav. Permai (pasar gedawang)", "Latitude": "-7.09168907899993", "Longitude": "110.420573471" }, "geometry": { "type": "Point", "coordinates": [ 110.420573471000068, -7.091689078999934, 0.0 ] } },
{ "type": "Feature", "properties": { "Name": "TPS BUKIT REGENCY", "Kecamatan": "Banyumanik", "Kelurahan": "Srondol Kulon", "Alamat": "Jalan Ngesrep Barat III", "Latitude": "-7.04455600799997", "Longitude": "110.415926101" }, "geometry": { "type": "Point", "coordinates": [ 110.415926101000082, -7.044556007999972, 0.0 ] } },
{ "type": "Feature", "properties": { "Name": "TPS ERELA", "Kecamatan": "Banyumanik", "Kelurahan": "Sumurboto", "Alamat": "Jalan Srondol Asri II", "Latitude": "-7.05791915499998", "Longitude": "110.416097066" }, "geometry": { "type": "Point", "coordinates": [ 110.416097066000077, -7.057919154999979, 0.0 ] } },
{ "type": "Feature", "properties": { "Name": "TPS GEDAWANG", "Kecamatan": "Banyumanik", "Kelurahan": "Gedawang", "Alamat": "Jl. H Suradi", "Latitude": "-7.08615231399995", "Longitude": "110.423002956" }, "geometry": { "type": "Point", "coordinates": [ 110.423002956000062, -7.086152313999946, 0.0 ] } },
{ "type": "Feature", "properties": { "Name": "Tps Meranti", "Kecamatan": "Banyumanik", "Kelurahan": "Srondol Wetan", "Alamat": "Jl. Gaharu raya", "Latitude": "-7.07183899999995", "Longitude": "110.420444" }, "geometry": { "type": "Point", "coordinates": [ 110.420444, -7.071839, 0.0 ] } },
{ "type": "Feature", "properties": { "Name": "TPS NGESREP", "Kecamatan": "Banyumanik", "Kelurahan": "Ngesrep", "Alamat": "Jalan Trangkil", "Latitude": "-7.03444841799995", "Longitude": "110.418184217" }, "geometry": { "type": "Point", "coordinates": [ 110.418184217000089, -7.034448417999954, 0.0 ] } },
{ "type": "Feature", "properties": { "Name": "TPS ONDORANTE RW V", "Kecamatan": "Banyumanik", "Kelurahan": "Banyumanik", "Alamat": "Jl. Ondo Rante", "Latitude": "-7.07990668099995", "Longitude": "110.409397662" }, "geometry": { "type": "Point", "coordinates": [ 110.40939766200006, -7.079906680999954, 0.0 ] } },
{ "type": "Feature", "properties": { "Name": "TPS PASAR DAMAR", "Kecamatan": "Banyumanik", "Kelurahan": "Padangsari", "Alamat": "Jl. Kanfer Raya", "Latitude": "-7.07189042599992", "Longitude": "110.429561955" }, "geometry": { "type": "Point", "coordinates": [ 110.429561955000054, -7.071890425999925, 0.0 ] } },
{ "type": "Feature", "properties": { "Name": "TPS PASAR JATINGALEH", "Kecamatan": "Banyumanik", "Kelurahan": "Tinjomoyo", "Alamat": "Jl. Karangrejo Selatan", "Latitude": "-7.03231499199995", "Longitude": "110.41627803" }, "geometry": { "type": "Point", "coordinates": [ 110.416278030000058, -7.032314991999954, 0.0 ] } },
{ "type": "Feature", "properties": { "Name": "TPS PASAR RASAMALA", "Kecamatan": "Banyumanik", "Kelurahan": "Srondol Wetan", "Alamat": "Jl. Rasamala Raya", "Latitude": "-7.07019644299993", "Longitude": "110.416836229" }, "geometry": { "type": "Point", "coordinates": [ 110.416836229000069, -7.070196442999929, 0.0 ] } },
{ "type": "Feature", "properties": { "Name": "TPS PASAR SRONDOL", "Kecamatan": "Banyumanik", "Kelurahan": "Srondol Kulon", "Alamat": "Jalan Potrosari II", "Latitude": "-7.05802914299994", "Longitude": "110.413323949" }, "geometry": { "type": "Point", "coordinates": [ 110.413323949000073, -7.058029142999942, 0.0 ] } },
{ "type": "Feature", "properties": { "Name": "TPS PERWIRA RW VI", "Kecamatan": "Banyumanik", "Kelurahan": "Banyumanik", "Alamat": "Jl. Diponegoro", "Latitude": "-7.07414440499997", "Longitude": "110.409964976" }, "geometry": { "type": "Point", "coordinates": [ 110.409964976000083, -7.07414440499997, 0.0 ] } },
{ "type": "Feature", "properties": { "Name": "TPS RW 1 MPU SENDOK", "Kecamatan": "Banyumanik", "Kelurahan": "Banyumanik", "Alamat": "Jl. Mpu Sendok", "Latitude": "-7.08351486999993", "Longitude": "110.413655602" }, "geometry": { "type": "Point", "coordinates": [ 110.413655602000063, -7.083514869999931, 0.0 ] } },
{ "type": "Feature", "properties": { "Name": "TPS RW V MANDIRI", "Kecamatan": "Banyumanik", "Kelurahan": "Banyumanik", "Alamat": "Jl. Parikesit", "Latitude": "-7.07927659999996", "Longitude": "110.415443621" }, "geometry": { "type": "Point", "coordinates": [ 110.415443621000065, -7.079276599999957, 0.0 ] } },
{ "type": "Feature", "properties": { "Name": "TPS ULIN", "Kecamatan": "Banyumanik", "Kelurahan": "Padangsari", "Alamat": "Jl. Damar Terusan", "Latitude": "-7.07318599999996", "Longitude": "110.430905" }, "geometry": { "type": "Point", "coordinates": [ 110.430905, -7.073186, 0.0 ] } },
{ "type": "Feature", "properties": { "Name": "TPS3R JABUNGAN", "Kecamatan": "Banyumanik", "Kelurahan": "Jabungan", "Alamat": "Jl. Jabungan", "Latitude": "-7.08494932699995", "Longitude": "110.449890024" }, "geometry": { "type": "Point", "coordinates": [ 110.449890024000069, -7.084949326999947, 0.0 ] } },
{ "type": "Feature", "properties": { "Name": "TPS JOGOPRONO", "Kecamatan": "Gunungpati", "Kelurahan": "Sadeng", "Alamat": "Jalan Rejosari 7", "Latitude": "-7.02575864999994", "Longitude": "110.370388332" }, "geometry": { "type": "Point", "coordinates": [ 110.370388332000061, -7.025758649999943, 0.0 ] } },
{ "type": "Feature", "properties": { "Name": "TPS MAGERSARI RW 2", "Kecamatan": "Gunungpati", "Kelurahan": "Gunungpati", "Alamat": "Magersari RW 02", "Latitude": "-7.08516299999997", "Longitude": "110.360098" }, "geometry": { "type": "Point", "coordinates": [ 110.360098, -7.085163, 0.0 ] } },
{ "type": "Feature", "properties": { "Name": "TPS NGELOSARI", "Kecamatan": "Gunungpati", "Kelurahan": "Sadeng", "Alamat": "Ngelosari RW 9", "Latitude": "-7.02968799999996", "Longitude": "110.374458" }, "geometry": { "type": "Point", "coordinates": [ 110.374458, -7.029688, 0.0 ] } },
{ "type": "Feature", "properties": { "Name": "TPS SADENG", "Kecamatan": "Gunungpati", "Kelurahan": "Sadeng", "Alamat": "Sadeng RT 05 RW 2", "Latitude": "-7.04035857499997", "Longitude": "110.367099024" }, "geometry": { "type": "Point", "coordinates": [ 110.367099024000083, -7.040358574999971, 0.0 ] } },
{ "type": "Feature", "properties": { "Name": "TPS SIWARAK", "Kecamatan": "Gunungpati", "Kelurahan": "Kandri", "Alamat": "JL. Siwarak RT 03 RW02", "Latitude": "-7.08515699999998", "Longitude": "110.360085" }, "geometry": { "type": "Point", "coordinates": [ 110.360085, -7.085157, 0.0 ] } },
{ "type": "Feature", "properties": { "Name": "TPS SUKORAME CEPOKO", "Kecamatan": "Gunungpati", "Kelurahan": "Cepoko", "Alamat": "Sukorame RT 05 RW 03", "Latitude": "-7.08168299999994", "Longitude": "110.353786" }, "geometry": { "type": "Point", "coordinates": [ 110.353786, -7.081683, 0.0 ] } },
{ "type": "Feature", "properties": { "Name": "TPS TINJOMOYO", "Kecamatan": "Gunungpati", "Kelurahan": "Sukorejo", "Alamat": "Tinjomoyo RW 8", "Latitude": "-7.02851240499996", "Longitude": "110.40170905" }, "geometry": { "type": "Point", "coordinates": [ 110.401709050000079, -7.028512404999958, 0.0 ] } },
{ "type": "Feature", "properties": { "Name": "TPS 3R NGALIYAN", "Kecamatan": "Ngaliyan", "Kelurahan": "Ngaliyan", "Alamat": "Belakang KUA Ngaliyan RT 2 RW 1", "Latitude": "-6.99748599999998", "Longitude": "110.347084" }, "geometry": { "type": "Point", "coordinates": [ 110.347084, -6.997486, 0.0 ] } },
{ "type": "Feature", "properties": { "Name": "TPS BRINGIN INDAH", "Kecamatan": "Ngaliyan", "Kelurahan": "Bringin", "Alamat": "Jl. Asem Kranji perum bringin indah RT 5 RW 1", "Latitude": "-6.99935999999997", "Longitude": "110.335607" }, "geometry": { "type": "Point", "coordinates": [ 110.335607, -6.99936, 0.0 ] } },
{ "type": "Feature", "properties": { "Name": "TPS GUNUNGJATI", "Kecamatan": "Ngaliyan", "Kelurahan": "Wonosari", "Alamat": "Jl.Gunungjati RT 6 RW 2", "Latitude": "-6.97682675799996", "Longitude": "110.294525086" }, "geometry": { "type": "Point", "coordinates": [ 110.294525086000078, -6.976826757999959, 0.0 ] } },
{ "type": "Feature", "properties": { "Name": "TPS KOPTU SUYONO", "Kecamatan": "Ngaliyan", "Kelurahan": "Wonosari", "Alamat": "Jl Koptu Suyono RT 5 RW 5", "Latitude": "-6.97376255199993", "Longitude": "110.303130237" }, "geometry": { "type": "Point", "coordinates": [ 110.303130237000062, -6.973762551999926, 0.0 ] } },
{ "type": "Feature", "properties": { "Name": "TPS PASAR JERAKAH", "Kecamatan": "Ngaliyan", "Kelurahan": "Purwoyoso", "Alamat": "Jl Siliwangi RT 1 RW 9", "Latitude": "-6.98700699999995", "Longitude": "110.360879" }, "geometry": { "type": "Point", "coordinates": [ 110.360879, -6.987007, 0.0 ] } },
{ "type": "Feature", "properties": { "Name": "TPS PASAR NGALIYAN", "Kecamatan": "Ngaliyan", "Kelurahan": "Ngaliyan", "Alamat": "Pasar Ngaliyan RW 3", "Latitude": "-6.99785778799998", "Longitude": "110.346446212" }, "geometry": { "type": "Point", "coordinates": [ 110.346446212000046, -6.997857787999976, 0.0 ] } },
{ "type": "Feature", "properties": { "Name": "TPS PLUMBON III", "Kecamatan": "Ngaliyan", "Kelurahan": "Wonosari", "Alamat": "Jl Plumbon III RT 7 RW 3", "Latitude": "-6.97684452599998", "Longitude": "110.297152612" }, "geometry": { "type": "Point", "coordinates": [ 110.297152612000048, -6.976844525999979, 0.0 ] } },
{ "type": "Feature", "properties": { "Name": "TPS PURWOYOSO", "Kecamatan": "Ngaliyan", "Kelurahan": "Purwoyoso", "Alamat": "Jl Gatot Subroto RT 1 RW 4", "Latitude": "-6.99803456699993", "Longitude": "110.366189359" }, "geometry": { "type": "Point", "coordinates": [ 110.366189359000089, -6.998034566999934, 0.0 ] } },
{ "type": "Feature", "properties": { "Name": "TPS ROWOSARI RW 1", "Kecamatan": "Ngaliyan", "Kelurahan": "Wonosari", "Alamat": "Jl Rowosari RT 6 RW 1", "Latitude": "-6.97136848099996", "Longitude": "110.290048996" }, "geometry": { "type": "Point", "coordinates": [ 110.290048996000053, -6.971368480999956, 0.0 ] } },
{ "type": "Feature", "properties": { "Name": "TPS CILOSARI", "Kecamatan": "semarang timur", "Kelurahan": "Kemijen", "Alamat": "jl cilosari dalam", "Latitude": "-6.95573310399993", "Longitude": "110.440764606" }, "geometry": { "type": "Point", "coordinates": [ 110.440764606000073, -6.955733103999933, 0.0 ] } },
{ "type": "Feature", "properties": { "Name": "TPS INDRAGIRI MLATIHARJO", "Kecamatan": "semarang timur", "Kelurahan": "mlatiharjo", "Alamat": "jl karang asem raya", "Latitude": "-6.96500499999996", "Longitude": "110.440238333" }, "geometry": { "type": "Point", "coordinates": [ 110.440238333000082, -6.965005, 0.0 ] } },
{ "type": "Feature", "properties": { "Name": "TPS MANIS HARJO", "Kecamatan": "semarang timur", "Kelurahan": "mlatiharjo", "Alamat": "jl manis harjo raya", "Latitude": "-6.96192999999994", "Longitude": "110.439238333" }, "geometry": { "type": "Point", "coordinates": [ 110.439238333000048, -6.96193, 0.0 ] } },
{ "type": "Feature", "properties": { "Name": "TPS PASAR DARGO", "Kecamatan": "semarang timur", "Kelurahan": "rejosari", "Alamat": "jl sobokarti", "Latitude": "-6.97558666699996", "Longitude": "110.434016667" }, "geometry": { "type": "Point", "coordinates": [ 110.434016667000037, -6.975586666999959, 0.0 ] } },
{ "type": "Feature", "properties": { "Name": "TPS TERPADU REJOSARI, BARITO", "Kecamatan": "semarang timur", "Kelurahan": "rejosari", "Alamat": "jl barito", "Latitude": "-6.98478666699998", "Longitude": "110.44029" }, "geometry": { "type": "Point", "coordinates": [ 110.44029, -6.98478666699998, 0.0 ] } },
{ "type": "Feature", "properties": { "Name": "TPS  JUPITER", "Kecamatan": "Tembalang", "Kelurahan": "tembalang", "Alamat": "jl jupiter v", "Latitude": "-7.03223833299995", "Longitude": "110.439111667" }, "geometry": { "type": "Point", "coordinates": [ 110.439111667000077, -7.032238332999952, 0.0 ] } },
{ "type": "Feature", "properties": { "Name": "TPS ASRAMA POLISI", "Kecamatan": "Tembalang", "Kelurahan": "tembalang", "Alamat": "jl kelurahan karangturi aspol", "Latitude": "-7.03170166699994", "Longitude": "110.469451667" }, "geometry": { "type": "Point", "coordinates": [ 110.469451667000044, -7.031701666999936, 0.0 ] } },
{ "type": "Feature", "properties": { "Name": "TPS Belakang Kecamatan Tembalang", "Kecamatan": "Tembalang", "Kelurahan": "tembalang", "Alamat": "jl turus asri", "Latitude": "-7.05940333299998", "Longitude": "110.447741667" }, "geometry": { "type": "Point", "coordinates": [ 110.447741667000059, -7.059403332999977, 0.0 ] } },
{ "type": "Feature", "properties": { "Name": "TPS BUKIT KENCANA", "Kecamatan": "Tembalang", "Kelurahan": "tembalang", "Alamat": "jl bukit kencana raya", "Latitude": "-7.06425994199998", "Longitude": "110.461422436" }, "geometry": { "type": "Point", "coordinates": [ 110.461422436000078, -7.064259941999978, 0.0 ] } },
{ "type": "Feature", "properties": { "Name": "TPS BUMI WANA MUKTI", "Kecamatan": "Tembalang", "Kelurahan": "meteseh", "Alamat": "jl wanamukti", "Latitude": "-7.02946833299995", "Longitude": "110.461108333" }, "geometry": { "type": "Point", "coordinates": [ 110.461108333000084, -7.029468332999954, 0.0 ] } },
{ "type": "Feature", "properties": { "Name": "TPS CEMPAKA RAYA", "Kecamatan": "Tembalang", "Kelurahan": "tembalang", "Alamat": "jl cempaka raya", "Latitude": "-7.04680333299996", "Longitude": "110.476218333" }, "geometry": { "type": "Point", "coordinates": [ 110.476218333000077, -7.046803332999957, 0.0 ] } },
{ "type": "Feature", "properties": { "Name": "TPS DEPAN RUMPUN DIPONEGORO", "Kecamatan": "Tembalang", "Kelurahan": "sambiroto", "Alamat": "jl elang raya", "Latitude": "-7.03509499999996", "Longitude": "110.460635" }, "geometry": { "type": "Point", "coordinates": [ 110.460635, -7.035095, 0.0 ] } },
{ "type": "Feature", "properties": { "Name": "TPS DURENAN INDAH", "Kecamatan": "Tembalang", "Kelurahan": "meteseh", "Alamat": "jl durenan indah", "Latitude": "-7.04802166699994", "Longitude": "110.466845" }, "geometry": { "type": "Point", "coordinates": [ 110.466845, -7.048021666999944, 0.0 ] } },
{ "type": "Feature", "properties": { "Name": "TPS JANGLI RW 1", "Kecamatan": "Tembalang", "Kelurahan": "jangli", "Alamat": "jl burangrang raya", "Latitude": "-7.03684499999997", "Longitude": "110.435956667" }, "geometry": { "type": "Point", "coordinates": [ 110.435956667000085, -7.036845, 0.0 ] } },
{ "type": "Feature", "properties": { "Name": "TPS KEDUNGMUNDU", "Kecamatan": "Tembalang", "Kelurahan": "kedungundu", "Alamat": "jl kedungmundu", "Latitude": "-7.02437833299996", "Longitude": "110.460923333" }, "geometry": { "type": "Point", "coordinates": [ 110.460923333000039, -7.024378332999959, 0.0 ] } },
{ "type": "Feature", "properties": { "Name": "TPS KELURAHAN METESEH", "Kecamatan": "Tembalang", "Kelurahan": "meteseh", "Alamat": "jl tunggu raya", "Latitude": "-7.05608166699994", "Longitude": "110.47171" }, "geometry": { "type": "Point", "coordinates": [ 110.47171, -7.056081666999944, 0.0 ] } },
{ "type": "Feature", "properties": { "Name": "TPS PASAR KEDUNGMUNDU", "Kecamatan": "Tembalang", "Kelurahan": "kedungmundu", "Alamat": "jl kedung mundu ( pasar kedungmundu)", "Latitude": "-7.01310499999994", "Longitude": "110.449343333" }, "geometry": { "type": "Point", "coordinates": [ 110.449343333000058, -7.013105, 0.0 ] } },
{ "type": "Feature", "properties": { "Name": "TPS PASAR METESEH", "Kecamatan": "Tembalang", "Kelurahan": "meteseh", "Alamat": "jl tunggu raya", "Latitude": "-7.05748666699998", "Longitude": "110.47191" }, "geometry": { "type": "Point", "coordinates": [ 110.47191, -7.057486666999978, 0.0 ] } },
{ "type": "Feature", "properties": { "Name": "TPS PERUM DIPONEGORO", "Kecamatan": "Tembalang", "Kelurahan": "meteseh", "Alamat": "jl genting 2", "Latitude": "-7.07722889599995", "Longitude": "110.478578333" }, "geometry": { "type": "Point", "coordinates": [ 110.478578333000087, -7.077228895999951, 0.0 ] } },
{ "type": "Feature", "properties": { "Name": "TPS PERUM INTAN", "Kecamatan": "Tembalang", "Kelurahan": "rowosari", "Alamat": "jl kumala", "Latitude": "-7.03234833299996", "Longitude": "110.460205" }, "geometry": { "type": "Point", "coordinates": [ 110.460205, -7.032348332999959, 0.0 ] } },
{ "type": "Feature", "properties": { "Name": "TPS PERUM PSIS", "Kecamatan": "Tembalang", "Kelurahan": "rowosari", "Alamat": "jl wanamukti", "Latitude": "-7.03020499999997", "Longitude": "110.466801667" }, "geometry": { "type": "Point", "coordinates": [ 110.466801667000084, -7.030205, 0.0 ] } },
{ "type": "Feature", "properties": { "Name": "TPS ROWOSARI", "Kecamatan": "Tembalang", "Kelurahan": "rowosari", "Alamat": "jl rowosari", "Latitude": "-7.07135295199993", "Longitude": "110.473635127" }, "geometry": { "type": "Point", "coordinates": [ 110.47363512700008, -7.071352951999927, 0.0 ] } },
{ "type": "Feature", "properties": { "Name": "TPS SAMBIROTO", "Kecamatan": "Tembalang", "Kelurahan": "sambiroto", "Alamat": "jl elangraya", "Latitude": "-7.03407833299997", "Longitude": "110.459968333" }, "geometry": { "type": "Point", "coordinates": [ 110.459968333000063, -7.034078332999968, 0.0 ] } },
{ "type": "Feature", "properties": { "Name": "TPS TEMBALANG 02", "Kecamatan": "Tembalang", "Kelurahan": "tembalang", "Alamat": "jl ketileng indah raya", "Latitude": "-7.03357333299994", "Longitude": "110.471843333" }, "geometry": { "type": "Point", "coordinates": [ 110.471843333000038, -7.033573332999936, 0.0 ] } },
{ "type": "Feature", "properties": { "Name": "TPS TEMBALANG 03", "Kecamatan": "Tembalang", "Kelurahan": "tebalang", "Alamat": "jl ketileng indah raya", "Latitude": "-7.03138666699994", "Longitude": "110.471898333" }, "geometry": { "type": "Point", "coordinates": [ 110.47189833300007, -7.031386666999936, 0.0 ] } },
{ "type": "Feature", "properties": { "Name": "TPS TULUS HARAPAN", "Kecamatan": "Tembalang", "Kelurahan": "tembalang", "Alamat": "jl klipang raya", "Latitude": "-7.03578859099997", "Longitude": "110.471692731" }, "geometry": { "type": "Point", "coordinates": [ 110.471692731000076, -7.035788590999971, 0.0 ] } },
{ "type": "Feature", "properties": { "Name": "TPS Genuk Krajan", "Kecamatan": "Candisari", "Kelurahan": "Tegalsari", "Alamat": "Jl. Genuksari No.1 C", "Latitude": "-7.00302799999997", "Longitude": "110.422972" }, "geometry": { "type": "Point", "coordinates": [ 110.422972, -7.003028, 0.0 ] } },
{ "type": "Feature", "properties": { "Name": "TPS Jangli Tlawah", "Kecamatan": "Candisari", "Kelurahan": "Karanganyar Gunung", "Alamat": "Jl. Jangli Tlawah", "Latitude": "-7.02459499999998", "Longitude": "110.432169" }, "geometry": { "type": "Point", "coordinates": [ 110.432169, -7.024595, 0.0 ] } },
{ "type": "Feature", "properties": { "Name": "TPS Kampung Baru Mrican", "Kecamatan": "Candisari", "Kelurahan": "Jomblang", "Alamat": "Kampung Baru Mrican RW 15", "Latitude": "-7.01100099999996", "Longitude": "110.441524" }, "geometry": { "type": "Point", "coordinates": [ 110.441524, -7.011001, 0.0 ] } },
{ "type": "Feature", "properties": { "Name": "TPS Karanganyar Gunung", "Kecamatan": "Candisari", "Kelurahan": "Karanganyar Gunung", "Alamat": "Karanganyar Gunung RT 5 RW 3", "Latitude": "-7.01601099999993", "Longitude": "110.432018" }, "geometry": { "type": "Point", "coordinates": [ 110.432018, -7.016011, 0.0 ] } },
{ "type": "Feature", "properties": { "Name": "TPS Kasipah", "Kecamatan": "Candisari", "Kelurahan": "Jatingaleh", "Alamat": "Jl. Kasipah (Dekat SMK Muhammadiyah)", "Latitude": "-7.02040299999993", "Longitude": "110.426032" }, "geometry": { "type": "Point", "coordinates": [ 110.426032, -7.020403, 0.0 ] } },
{ "type": "Feature", "properties": { "Name": "TPS Lompobatang Barat", "Kecamatan": "Candisari", "Kelurahan": "Kaliwiru", "Alamat": "Jl. Lompobatang (Barat) / Jl. Sultan Agung", "Latitude": "-7.01959599999998", "Longitude": "110.419399" }, "geometry": { "type": "Point", "coordinates": [ 110.419399, -7.019596, 0.0 ] } },
{ "type": "Feature", "properties": { "Name": "TPS Lompobatang Timur", "Kecamatan": "Candisari", "Kelurahan": "Kaliwiru", "Alamat": "Jl. Lompobatang (Timur)", "Latitude": "-7.01772999999997", "Longitude": "110.425674" }, "geometry": { "type": "Point", "coordinates": [ 110.425674, -7.01773, 0.0 ] } },
{ "type": "Feature", "properties": { "Name": "TPS Pasar Candi", "Kecamatan": "Candisari", "Kelurahan": "Candi", "Alamat": "Jl. Candi Lama RT 1 RW 10", "Latitude": "-7.01568799999995", "Longitude": "110.427312" }, "geometry": { "type": "Point", "coordinates": [ 110.427312, -7.015688, 0.0 ] } },
{ "type": "Feature", "properties": { "Name": "TPS Pasar Jangli", "Kecamatan": "Candisari", "Kelurahan": "Karanganyar Gunung", "Alamat": "Jl. Jangli II (Depan Pasar Jangli)", "Latitude": "-7.02808399999998", "Longitude": "110.428435" }, "geometry": { "type": "Point", "coordinates": [ 110.428435, -7.028084, 0.0 ] } },
{ "type": "Feature", "properties": { "Name": "TPS Pasar Kagok", "Kecamatan": "Candisari", "Kelurahan": "Wonotingal", "Alamat": "Jl. Kagok", "Latitude": "-7.01086099999998", "Longitude": "110.416057" }, "geometry": { "type": "Point", "coordinates": [ 110.416057, -7.010861, 0.0 ] } },
{ "type": "Feature", "properties": { "Name": "TPS Wilis", "Kecamatan": "Candisari", "Kelurahan": "Tegalsari", "Alamat": "Jl. Genuk Krajan (Wilis)", "Latitude": "-7.00390299999998", "Longitude": "110.421003" }, "geometry": { "type": "Point", "coordinates": [ 110.421003, -7.003903, 0.0 ] } },
{ "type": "Feature", "properties": { "Name": "TPS Wonotingal", "Kecamatan": "Candisari", "Kelurahan": "Wonotingal", "Alamat": "Jl. Sinabung Raya", "Latitude": "-7.01418999999993", "Longitude": "110.421941" }, "geometry": { "type": "Point", "coordinates": [ 110.421941, -7.01419, 0.0 ] } },
{ "type": "Feature", "properties": { "Name": "TPS Yon Arhanud", "Kecamatan": "Candisari", "Kelurahan": "Jatingaleh", "Alamat": "Komplek Yon Arhanud 15", "Latitude": "-7.03030599999994", "Longitude": "110.421944" }, "geometry": { "type": "Point", "coordinates": [ 110.421944, -7.030306, 0.0 ] } },
{ "type": "Feature", "properties": { "Name": "Bank Sampah DLH", "Kecamatan": "Tugu", "Kelurahan": "Tugurejo", "Alamat": "Jl Tugurejo Raya", "Latitude": "-6.98495374299995", "Longitude": "110.345256255" }, "geometry": { "type": "Point", "coordinates": [ 110.345256255000038, -6.984953742999949, 0.0 ] } },
{ "type": "Feature", "properties": { "Name": "TPS Irigasi Utara", "Kecamatan": "Tugu", "Kelurahan": "Mangkang Kulon", "Alamat": "Jl Irigasi Utara", "Latitude": "-6.94687063799995", "Longitude": "110.307739545" }, "geometry": { "type": "Point", "coordinates": [ 110.307739545000061, -6.94687063799995, 0.0 ] } },
{ "type": "Feature", "properties": { "Name": "TPS Kalisasak", "Kecamatan": "Tugu", "Kelurahan": "Mangkang Wetan", "Alamat": "Jl Lapangan Kalisasak RT 3 RW 3", "Latitude": "-6.96659581299997", "Longitude": "110.309031615" }, "geometry": { "type": "Point", "coordinates": [ 110.309031615000038, -6.966595812999969, 0.0 ] } },
{ "type": "Feature", "properties": { "Name": "TPS Kp. Pilah Sampah", "Kecamatan": "Tugu", "Kelurahan": "Mangkang Kulon", "Alamat": "Jl Kyai Gilang Kauman", "Latitude": "-6.96495107399994", "Longitude": "110.300978115" }, "geometry": { "type": "Point", "coordinates": [ 110.300978115000078, -6.964951073999941, 0.0 ] } },
{ "type": "Feature", "properties": { "Name": "TPS Krajan", "Kecamatan": "Tugu", "Kelurahan": "Mangkang Wetan", "Alamat": "Jl Krajan RT 3 RW 1", "Latitude": "-6.97151647399994", "Longitude": "110.304641681" }, "geometry": { "type": "Point", "coordinates": [ 110.304641681000078, -6.971516473999941, 0.0 ] } },
{ "type": "Feature", "properties": { "Name": "TPS Mangunharjo 1", "Kecamatan": "Tugu", "Kelurahan": "Mangunharjo", "Alamat": "Jl Panggung Irigasi", "Latitude": "-6.95899631799995", "Longitude": "110.3104671" }, "geometry": { "type": "Point", "coordinates": [ 110.310467100000039, -6.958996317999947, 0.0 ] } },
{ "type": "Feature", "properties": { "Name": "TPS Panggung", "Kecamatan": "Tugu", "Kelurahan": "Mangunharjo", "Alamat": "Jl Panggung", "Latitude": "-6.95884682699995", "Longitude": "110.304811327" }, "geometry": { "type": "Point", "coordinates": [ 110.304811327000039, -6.958846826999945, 0.0 ] } },
{ "type": "Feature", "properties": { "Name": "TPS Randu Garut", "Kecamatan": "Tugu", "Kelurahan": "Randugarut", "Alamat": "Jl Kauman Randugarut RT 2 RW 1", "Latitude": "-6.97075034499994", "Longitude": "110.320103439" }, "geometry": { "type": "Point", "coordinates": [ 110.320103439000036, -6.970750344999942, 0.0 ] } },
{ "type": "Feature", "properties": { "Name": "TPS Tapak", "Kecamatan": "Tugu", "Kelurahan": "Tugurejo", "Alamat": "Jl Tapak RT 6 RW 3", "Latitude": "-6.96878089099994", "Longitude": "110.345720882" }, "geometry": { "type": "Point", "coordinates": [ 110.34572088200008, -6.968780890999938, 0.0 ] } },
{ "type": "Feature", "properties": { "Name": "TPS Tugurejo", "Kecamatan": "Tugu", "Kelurahan": "Tugurejo", "Alamat": "Jl Tugurejo Timur XI", "Latitude": "-6.97772075399996", "Longitude": "110.353196837" }, "geometry": { "type": "Point", "coordinates": [ 110.353196837000041, -6.977720753999961, 0.0 ] } },
{ "type": "Feature", "properties": { "Name": "TPS Belakang Lawang Sewu", "Kecamatan": "Semarang Tengah", "Kelurahan": "Pekunden", "Alamat": "Jl. Inspeksi (Belakang Lawang Sewu)", "Latitude": "-6.98454833299996", "Longitude": "110.410941667" }, "geometry": { "type": "Point", "coordinates": [ 110.410941667000088, -6.984548332999964, 0.0 ] } },
{ "type": "Feature", "properties": { "Name": "TPS Bima Raya", "Kecamatan": "Semarang Tengah", "Kelurahan": "Pendrikan Kidul", "Alamat": "Jl. Bima Raya No 39", "Latitude": "-6.98274722099995", "Longitude": "110.4071766" }, "geometry": { "type": "Point", "coordinates": [ 110.407176600000071, -6.982747220999954, 0.0 ] } },
{ "type": "Feature", "properties": { "Name": "TPS Gang Lombok", "Kecamatan": "Semarang Tengah", "Kelurahan": "Kauman", "Alamat": "Jl. Gang Lombok-Inspeksi Kyai Damar", "Latitude": "-6.97388166699994", "Longitude": "110.426943223" }, "geometry": { "type": "Point", "coordinates": [ 110.42694322300008, -6.973881666999944, 0.0 ] } },
{ "type": "Feature", "properties": { "Name": "TPS Kembangsari (SMG TGH 05)", "Kecamatan": "Semarang Tengah", "Kelurahan": "Kembangsari", "Alamat": "Jl. Inspeksi", "Latitude": "-6.98156166699994", "Longitude": "110.419021667" }, "geometry": { "type": "Point", "coordinates": [ 110.419021667000038, -6.981561666999937, 0.0 ] } },
{ "type": "Feature", "properties": { "Name": "TPS Mall Ciputra", "Kecamatan": "Semarang Tengah", "Kelurahan": "Pekunden", "Alamat": "Jl. Anggrek Raya No. 23", "Latitude": "-6.98943999999995", "Longitude": "110.42476" }, "geometry": { "type": "Point", "coordinates": [ 110.42476, -6.98944, 0.0 ] } },
{ "type": "Feature", "properties": { "Name": "TPS Matahari", "Kecamatan": "Semarang Tengah", "Kelurahan": "Karangkidul", "Alamat": "Jl. Seroja Selatan", "Latitude": "-6.99016499999993", "Longitude": "110.425128333" }, "geometry": { "type": "Point", "coordinates": [ 110.425128333000089, -6.990165, 0.0 ] } },
{ "type": "Feature", "properties": { "Name": "TPS Matahari Johar", "Kecamatan": "Semarang Tengah", "Kelurahan": "Kauman", "Alamat": "Jl. KH Agus Salim", "Latitude": "-6.97038833299996", "Longitude": "110.425403333" }, "geometry": { "type": "Point", "coordinates": [ 110.425403333000077, -6.97038833299996, 0.0 ] } },
{ "type": "Feature", "properties": { "Name": "TPS Pekojan/Petudungan", "Kecamatan": "Semarang Tengah", "Kelurahan": "Purwodinatan", "Alamat": "Jl. Petudungan - Inspeksi", "Latitude": "-6.97442754299993", "Longitude": "110.428816805" }, "geometry": { "type": "Point", "coordinates": [ 110.428816805000054, -6.974427542999933, 0.0 ] } },
{ "type": "Feature", "properties": { "Name": "TPS Sadewa", "Kecamatan": "Semarang Tengah", "Kelurahan": "Pendrikan Lor", "Alamat": "Jl. Sadewa Utara III", "Latitude": "-6.97655688099997", "Longitude": "110.409217731" }, "geometry": { "type": "Point", "coordinates": [ 110.409217731000069, -6.976556880999965, 0.0 ] } },
{ "type": "Feature", "properties": { "Name": "TPS Stadion Diponegoro", "Kecamatan": "Semarang Tengah", "Kelurahan": "Karangkidul", "Alamat": "Jl. Stadion Selatan No. 11", "Latitude": "-6.99078005199993", "Longitude": "110.430922528" }, "geometry": { "type": "Point", "coordinates": [ 110.430922528000053, -6.990780051999934, 0.0 ] } },
{ "type": "Feature", "properties": { "Name": "TPS Thamrin (SMG TGH 2)", "Kecamatan": "Semarang Tengah", "Kelurahan": "Miroto", "Alamat": "Jl. Inspeksi (Batan Miroto 1)", "Latitude": "-6.98217333299993", "Longitude": "110.417293333" }, "geometry": { "type": "Point", "coordinates": [ 110.417293333000089, -6.982173332999935, 0.0 ] } },
{ "type": "Feature", "properties": { "Name": "TPS GN GEBYOK", "Kecamatan": "Gajahmungkur", "Kelurahan": "Bendungan", "Alamat": "Jl. Gunung Gebyok RT 3 RW 5", "Latitude": "-6.99662183799995", "Longitude": "110.408312342" }, "geometry": { "type": "Point", "coordinates": [ 110.408312342000045, -6.996621837999953, 0.0 ] } },
{ "type": "Feature", "properties": { "Name": "TPS KARANGREJO TENGAH", "Kecamatan": "Gajahmungkur", "Kelurahan": "Karangrejo", "Alamat": "Jl Karangrejo Tengah RT 1 RW 2", "Latitude": "-7.02668667599994", "Longitude": "110.410723816" }, "geometry": { "type": "Point", "coordinates": [ 110.410723816000086, -7.02668667599994, 0.0 ] } },
{ "type": "Feature", "properties": { "Name": "TPS KENDENG III", "Kecamatan": "Gajahmungkur", "Kelurahan": "Bendan Ngisor", "Alamat": "Jl Kendeng RT 2 RW 3", "Latitude": "-7.01645756999994", "Longitude": "110.39388072" }, "geometry": { "type": "Point", "coordinates": [ 110.393880720000084, -7.016457569999943, 0.0 ] } },
{ "type": "Feature", "properties": { "Name": "TPS PAPANDAYAN", "Kecamatan": "Gajahmungkur", "Kelurahan": "Gajahmungkur", "Alamat": "Jl. Papandayan RT 8 RW 4", "Latitude": "-7.01385915499998", "Longitude": "110.411060104" }, "geometry": { "type": "Point", "coordinates": [ 110.411060104000057, -7.013859154999977, 0.0 ] } },
{ "type": "Feature", "properties": { "Name": "TPS PAWIYATAN LUHUR", "Kecamatan": "Gajahmungkur", "Kelurahan": "Bendan Duwur", "Alamat": "Jl Pawiyatan Luhur RT 3 RW 1", "Latitude": "-7.02138957899996", "Longitude": "110.398182179" }, "geometry": { "type": "Point", "coordinates": [ 110.398182179000059, -7.021389578999958, 0.0 ] } },
{ "type": "Feature", "properties": { "Name": "TPS RINJANI ATAS", "Kecamatan": "Gajahmungkur", "Kelurahan": "Bendungan", "Alamat": "Jl Rinjani Atas RT 3 RW 4", "Latitude": "-7.00352843999997", "Longitude": "110.408766802" }, "geometry": { "type": "Point", "coordinates": [ 110.408766802000059, -7.003528439999968, 0.0 ] } },
{ "type": "Feature", "properties": { "Name": "TPS RINJANI BAWAH", "Kecamatan": "Gajahmungkur", "Kelurahan": "Bendungan", "Alamat": "Jl Rinjani Bawah RT 3 RW 1", "Latitude": "-7.00010179499998", "Longitude": "110.40700777" }, "geometry": { "type": "Point", "coordinates": [ 110.407007770000064, -7.000101794999978, 0.0 ] } },
{ "type": "Feature", "properties": { "Name": "TPS SEMBOJA", "Kecamatan": "Gajahmungkur", "Kelurahan": "Lempongsari", "Alamat": "Jl. Semboja RT 3 RW 8", "Latitude": "-7.00425673299998", "Longitude": "110.413845087" }, "geometry": { "type": "Point", "coordinates": [ 110.413845087000084, -7.004256732999977, 0.0 ] } },
{ "type": "Feature", "properties": { "Name": "TPS SEMERU RAYA", "Kecamatan": "Gajahmungkur", "Kelurahan": "Gajahmungkur", "Alamat": "Jl. Semeru RT 1 RW 7", "Latitude": "-7.02009381999994", "Longitude": "110.414042028" }, "geometry": { "type": "Point", "coordinates": [ 110.41404202800004, -7.020093819999943, 0.0 ] } },
{ "type": "Feature", "properties": { "Name": "TPS SLAMET", "Kecamatan": "Gajahmungkur", "Kelurahan": "Gajahmungkur", "Alamat": "Jl. Slamet RT 5 RW 1", "Latitude": "-7.00892388099993", "Longitude": "110.412000821" }, "geometry": { "type": "Point", "coordinates": [ 110.412000821000049, -7.00892388099993, 0.0 ] } },
{ "type": "Feature", "properties": { "Name": "TPS TUMPANG RAYA", "Kecamatan": "Gajahmungkur", "Kelurahan": "Petompon", "Alamat": "Jl Tumpang Raya RT 1 RW 5", "Latitude": "-7.00515978999994", "Longitude": "110.39712266" }, "geometry": { "type": "Point", "coordinates": [ 110.397122660000036, -7.005159789999936, 0.0 ] } },
{ "type": "Feature", "properties": { "Name": "TPS VETERAN NO 15", "Kecamatan": "Gajahmungkur", "Kelurahan": "Lempongsari", "Alamat": "Jl. Veteran 15 RT 2 RW 4", "Latitude": "-6.99593683799998", "Longitude": "110.414325008" }, "geometry": { "type": "Point", "coordinates": [ 110.414325008000048, -6.995936837999977, 0.0 ] } },
{ "type": "Feature", "properties": { "Name": "TPS WATULAWANG", "Kecamatan": "Gajahmungkur", "Kelurahan": "Bendan Ngisor", "Alamat": "Jl Papandayan (Watuwalang) RT 6 RW 2", "Latitude": "-7.01106941499995", "Longitude": "110.402277018" }, "geometry": { "type": "Point", "coordinates": [ 110.402277018000063, -7.011069414999952, 0.0 ] } },
{ "type": "Feature", "properties": { "Name": "TPS 3R Dadi Resik", "Kecamatan": "Pedurungan", "Kelurahan": "Pedurungan Lor", "Alamat": "Jl. Pedurungan Lor RT 5 RW 5", "Latitude": "-7.01435452999993", "Longitude": "110.484612087" }, "geometry": { "type": "Point", "coordinates": [ 110.484612087000073, -7.014354529999935, 0.0 ] } },
{ "type": "Feature", "properties": { "Name": "TPS Muktiharjo", "Kecamatan": "Pedurungan", "Kelurahan": "Muktiharjo Kidul", "Alamat": "Jl. Muktiharjo Dalam", "Latitude": "-6.97220132199993", "Longitude": "110.461538019" }, "geometry": { "type": "Point", "coordinates": [ 110.461538019000045, -6.972201321999933, 0.0 ] } },
{ "type": "Feature", "properties": { "Name": "TPS Rusun Bandung Bondowoso", "Kecamatan": "Pedurungan", "Kelurahan": "Plamongansari", "Alamat": "Rusun Bandung Bondowoso RW 15", "Latitude": "-7.02495943999998", "Longitude": "110.488218117" }, "geometry": { "type": "Point", "coordinates": [ 110.488218117000088, -7.024959439999975, 0.0 ] } },
{ "type": "Feature", "properties": { "Name": "TPS Taman Tlogomulyo", "Kecamatan": "Pedurungan", "Kelurahan": "Pedurungan Tengah", "Alamat": "Jl. Taman Tlogomulyo Raya", "Latitude": "-7.00106767299997", "Longitude": "110.478790799" }, "geometry": { "type": "Point", "coordinates": [ 110.47879079900008, -7.001067672999966, 0.0 ] } },
{ "type": "Feature", "properties": { "Name": "TPS Taman Tlogomulyo Cluster 2", "Kecamatan": "Pedurungan", "Kelurahan": "Tlogomulyo", "Alamat": "Jl. Taman Tlogomulyo", "Latitude": "-6.99909394699995", "Longitude": "110.479626093" }, "geometry": { "type": "Point", "coordinates": [ 110.479626093000036, -6.999093946999949, 0.0 ] } },
{ "type": "Feature", "properties": { "Name": "TPS Tanggulsari", "Kecamatan": "Pedurungan", "Kelurahan": "Pedurungan Kidul", "Alamat": "Jl. Plamongan Larasati RT 4 RW 11", "Latitude": "-7.02248499999996", "Longitude": "110.477948333" }, "geometry": { "type": "Point", "coordinates": [ 110.477948333000086, -7.022485, 0.0 ] } },
{ "type": "Feature", "properties": { "Name": "TPS Terminal Penggaron", "Kecamatan": "Pedurungan", "Kelurahan": "Penggaron Kidul", "Alamat": "Terminal Penggaron Kidul", "Latitude": "-7.01688499999995", "Longitude": "110.49635" }, "geometry": { "type": "Point", "coordinates": [ 110.49635, -7.016885, 0.0 ] } },
{ "type": "Feature", "properties": { "Name": "TPS Tlogosari Wetan", "Kecamatan": "Pedurungan", "Kelurahan": "Tlogosari Wetan", "Alamat": "Jl. Dolog Lor RT 10 RW 1", "Latitude": "-6.99247585899997", "Longitude": "110.46716021" }, "geometry": { "type": "Point", "coordinates": [ 110.467160210000088, -6.992475858999967, 0.0 ] } },
{ "type": "Feature", "properties": { "Name": "TPST Gemah", "Kecamatan": "Pedurungan", "Kelurahan": "Gemah", "Alamat": "Jl. Gemah Barat", "Latitude": "-7.00920213899997", "Longitude": "110.464484127" }, "geometry": { "type": "Point", "coordinates": [ 110.464484127000048, -7.009202138999967, 0.0 ] } },
{ "type": "Feature", "properties": { "Name": "TPS Asrama Polisi Kalisari", "Kecamatan": "Semarang Selatan", "Kelurahan": "Barusari", "Alamat": "Asrama Polisi RT 8 RW 7", "Latitude": "-6.99371499999995", "Longitude": "110.40422" }, "geometry": { "type": "Point", "coordinates": [ 110.40422, -6.993715, 0.0 ] } },
{ "type": "Feature", "properties": { "Name": "TPS Cempedak", "Kecamatan": "Semarang Selatan", "Kelurahan": "Lamper Lor", "Alamat": "Cempedak Kelurahan Lamper Lor", "Latitude": "-6.99887783399993", "Longitude": "110.438458617" }, "geometry": { "type": "Point", "coordinates": [ 110.438458617000038, -6.998877833999927, 0.0 ] } },
{ "type": "Feature", "properties": { "Name": "TPS Erlangga", "Kecamatan": "Semarang Selatan", "Kelurahan": "Pleburan", "Alamat": "Jl. Erlangga Barat", "Latitude": "-6.99394463399994", "Longitude": "110.424849969" }, "geometry": { "type": "Point", "coordinates": [ 110.424849969000036, -6.993944633999945, 0.0 ] } },
{ "type": "Feature", "properties": { "Name": "TPS Gergaji Balekambang", "Kecamatan": "Semarang Selatan", "Kelurahan": "Mugassari", "Alamat": "Jl. Gergaji Balekambang", "Latitude": "-6.99572031799994", "Longitude": "110.414692342" }, "geometry": { "type": "Point", "coordinates": [ 110.41469234200008, -6.99572031799994, 0.0 ] } },
{ "type": "Feature", "properties": { "Name": "TPS Kyai Saleh", "Kecamatan": "Semarang Selatan", "Kelurahan": "Mugassari", "Alamat": "Jl. Kyai Saleh (Bergota)", "Latitude": "-6.98838933999997", "Longitude": "110.41409397" }, "geometry": { "type": "Point", "coordinates": [ 110.414093970000067, -6.988389339999969, 0.0 ] } },
{ "type": "Feature", "properties": { "Name": "TPS Lamper Tengah", "Kecamatan": "Semarang Selatan", "Kelurahan": "Lamper Tengah", "Alamat": "Jl. Lamper Tengah Raya", "Latitude": "-7.00989692599995", "Longitude": "110.441977338" }, "geometry": { "type": "Point", "coordinates": [ 110.441977338000072, -7.009896925999954, 0.0 ] } },
{ "type": "Feature", "properties": { "Name": "TPS Lemah Gempal VII A", "Kecamatan": "Semarang Selatan", "Kelurahan": "Barusari", "Alamat": "Jl. Lemah Gempal VII A", "Latitude": "-6.99064499099995", "Longitude": "110.405297035" }, "geometry": { "type": "Point", "coordinates": [ 110.405297035000046, -6.990644990999954, 0.0 ] } },
{ "type": "Feature", "properties": { "Name": "TPS Pandean Lamper IV", "Kecamatan": "Semarang Selatan", "Kelurahan": "Peterongan", "Alamat": "Jl. Pandean Lamper IV", "Latitude": "-6.99742298899997", "Longitude": "110.438367494" }, "geometry": { "type": "Point", "coordinates": [ 110.438367494000033, -6.997422988999972, 0.0 ] } },
{ "type": "Feature", "properties": { "Name": "TPS Pasar Bulu (Jayengan)", "Kecamatan": "Semarang Selatan", "Kelurahan": "Barusari", "Alamat": "Jl. Jayengan", "Latitude": "-6.98463913799998", "Longitude": "110.408116131" }, "geometry": { "type": "Point", "coordinates": [ 110.408116131000043, -6.984639137999977, 0.0 ] } },
{ "type": "Feature", "properties": { "Name": "TPS Singosari Timur", "Kecamatan": "Semarang Selatan", "Kelurahan": "Wonodri", "Alamat": "Jl. Singosari Timur (Belakang PIP)", "Latitude": "-6.99616998499994", "Longitude": "110.429136015" }, "geometry": { "type": "Point", "coordinates": [ 110.42913601500004, -6.996169984999938, 0.0 ] } },
{ "type": "Feature", "properties": { "Name": "TPS Taman Garot (Durian I)", "Kecamatan": "Semarang Selatan", "Kelurahan": "Lamper Kidul", "Alamat": "Jl. Durian RW I", "Latitude": "-7.00713116999998", "Longitude": "110.439390412" }, "geometry": { "type": "Point", "coordinates": [ 110.43939041200008, -7.00713116999998, 0.0 ] } },
{ "type": "Feature", "properties": { "Name": "TPS Taman Mugas", "Kecamatan": "Semarang Selatan", "Kelurahan": "Mugassari", "Alamat": "Jl. Taman Mugas", "Latitude": "-6.99289638299996", "Longitude": "110.416977005" }, "geometry": { "type": "Point", "coordinates": [ 110.416977005000035, -6.992896382999959, 0.0 ] } },
{ "type": "Feature", "properties": { "Name": "TPS Wonodri", "Kecamatan": "Semarang Selatan", "Kelurahan": "Wonodri", "Alamat": "Jl. Wonodri Baru Raya", "Latitude": "-7.00222999999994", "Longitude": "110.431358333" }, "geometry": { "type": "Point", "coordinates": [ 110.431358333000048, -7.00223, 0.0 ] } },
{ "type": "Feature", "properties": { "Name": "TPA JATIBARANG", "Kecamatan": "Mijen", "Kelurahan": "Jatibarang", "Alamat": "Jl. Jatibarang RT 1 RW 1", "Latitude": "-7.02269299999995", "Longitude": "110.359345" }, "geometry": { "type": "Point", "coordinates": [ 110.359345, -7.022693, 0.0 ] } },
{ "type": "Feature", "properties": { "Name": "TPS 3R JATISARI", "Kecamatan": "Mijen", "Kelurahan": "Jatisari", "Alamat": "RW 8", "Latitude": "-7.06664160799994", "Longitude": "110.305990007" }, "geometry": { "type": "Point", "coordinates": [ 110.305990007000048, -7.066641607999941, 0.0 ] } },
{ "type": "Feature", "properties": { "Name": "TPS 3R SASTROMIHARJO", "Kecamatan": "Mijen", "Kelurahan": "Polaman", "Alamat": "Jl. Sastromiharjo RT 2 RW 2", "Latitude": "-7.09135091899998", "Longitude": "110.337013522" }, "geometry": { "type": "Point", "coordinates": [ 110.337013522000063, -7.091350918999979, 0.0 ] } },
{ "type": "Feature", "properties": { "Name": "TPS GANG RAMBUTAN", "Kecamatan": "Mijen", "Kelurahan": "Mijen", "Alamat": "Jl. Rambutan Raya RT 2 RW 6", "Latitude": "-7.06317067499998", "Longitude": "110.31305492" }, "geometry": { "type": "Point", "coordinates": [ 110.31305492000007, -7.063170674999981, 0.0 ] } },
{ "type": "Feature", "properties": { "Name": "TPS KEDUNGJANGAN", "Kecamatan": "Mijen", "Kelurahan": "Purwosari", "Alamat": "Kedungjangan RT 7 RW 2", "Latitude": "-7.07324245399997", "Longitude": "110.33326205" }, "geometry": { "type": "Point", "coordinates": [ 110.333262050000087, -7.073242453999967, 0.0 ] } },
{ "type": "Feature", "properties": { "Name": "TPS PASAR MIJEN", "Kecamatan": "Mijen", "Kelurahan": "Mijen", "Alamat": "Jl. Mijen Raya", "Latitude": "-7.05174399999993", "Longitude": "110.316626" }, "geometry": { "type": "Point", "coordinates": [ 110.316626, -7.051744, 0.0 ] } },
{ "type": "Feature", "properties": { "Name": "TPST PURWOSARI", "Kecamatan": "Mijen", "Kelurahan": "Purwosari", "Alamat": "Sodong RT 1 RW 2", "Latitude": "-7.07819172699993", "Longitude": "110.328579217" }, "geometry": { "type": "Point", "coordinates": [ 110.328579217000083, -7.078191726999933, 0.0 ] } },
{ "type": "Feature", "properties": { "Name": "TPS Bojongsalaman", "Kecamatan": "Semarang Barat", "Kelurahan": "Bojongsalaman", "Alamat": "Jl. Puspanjolo Barat RT 5 RW 4", "Latitude": "-6.98743791699997", "Longitude": "110.396402309" }, "geometry": { "type": "Point", "coordinates": [ 110.396402309000052, -6.987437916999966, 0.0 ] } },
{ "type": "Feature", "properties": { "Name": "TPS Bongsari", "Kecamatan": "Semarang Barat", "Kelurahan": "Bongsari", "Alamat": "Jl. Condrokusumo Raya RT 8 RW 3", "Latitude": "-6.99679833299996", "Longitude": "110.396875" }, "geometry": { "type": "Point", "coordinates": [ 110.396875, -6.996798332999958, 0.0 ] } },
{ "type": "Feature", "properties": { "Name": "TPS Gisikdrono", "Kecamatan": "Semarang Barat", "Kelurahan": "Gisikdrono", "Alamat": "Jl. Kumudasmoro Selatan RT 5", "Latitude": "-6.99133747299993", "Longitude": "110.388662232" }, "geometry": { "type": "Point", "coordinates": [ 110.388662232000058, -6.99133747299993, 0.0 ] } },
{ "type": "Feature", "properties": { "Name": "TPS Hanoman", "Kecamatan": "Semarang Barat", "Kelurahan": "Krapyak", "Alamat": "Jl. Hanoman Raya", "Latitude": "-6.98427637099996", "Longitude": "110.370473372" }, "geometry": { "type": "Point", "coordinates": [ 110.370473372000049, -6.984276370999964, 0.0 ] } },
{ "type": "Feature", "properties": { "Name": "TPS Inspeksi Manyaran", "Kecamatan": "Semarang Barat", "Kelurahan": "Manyaran", "Alamat": "Jl. Inspeksi Pinggir Sungai Manyaran", "Latitude": "-7.01406614299998", "Longitude": "110.387036818" }, "geometry": { "type": "Point", "coordinates": [ 110.38703681800007, -7.01406614299998, 0.0 ] } },
{ "type": "Feature", "properties": { "Name": "TPS Kelurahan Karangayu", "Kecamatan": "Semarang Barat", "Kelurahan": "Karangayu", "Alamat": "Jl. Ronggolawe Timur", "Latitude": "-6.97897840299993", "Longitude": "110.389024763" }, "geometry": { "type": "Point", "coordinates": [ 110.389024763000066, -6.978978402999928, 0.0 ] } },
{ "type": "Feature", "properties": { "Name": "TPS Manyaran", "Kecamatan": "Semarang Barat", "Kelurahan": "Manyaran", "Alamat": "Jl. Borobudur Selatan", "Latitude": "-7.00112081999993", "Longitude": "110.384353157" }, "geometry": { "type": "Point", "coordinates": [ 110.384353157000078, -7.001120819999926, 0.0 ] } },
{ "type": "Feature", "properties": { "Name": "TPS Ngemplak Simongan", "Kecamatan": "Semarang Barat", "Kelurahan": "Ngemplak Simongan", "Alamat": "Jl. Gedung Batu Timur Raya (Inspeksi Kaligarang)", "Latitude": "-7.00120430599998", "Longitude": "110.398743533" }, "geometry": { "type": "Point", "coordinates": [ 110.398743533000072, -7.001204305999977, 0.0 ] } },
{ "type": "Feature", "properties": { "Name": "TPS Pasar BK (Simongan)", "Kecamatan": "Semarang Barat", "Kelurahan": "Ngemplak Simongan", "Alamat": "Jl. WR Supratman (Pasar Simongan)", "Latitude": "-7.00248999999997", "Longitude": "110.392135" }, "geometry": { "type": "Point", "coordinates": [ 110.392135, -7.00249, 0.0 ] } },
{ "type": "Feature", "properties": { "Name": "TPS Puri Asri Tawangsari", "Kecamatan": "Semarang Barat", "Kelurahan": "Tawangsari", "Alamat": "Jl. Yos Sudarso Puri Anjasmoro Blok B", "Latitude": "-6.97373222599998", "Longitude": "110.388038878" }, "geometry": { "type": "Point", "coordinates": [ 110.388038878000089, -6.973732225999981, 0.0 ] } },
{ "type": "Feature", "properties": { "Name": "TPS Salamanmloyo", "Kecamatan": "Semarang Barat", "Kelurahan": "Salamanmloyo", "Alamat": "Jl. Puspowarno Tengah Raya RT 4 RW 1", "Latitude": "-6.98634269799993", "Longitude": "110.393072807" }, "geometry": { "type": "Point", "coordinates": [ 110.393072807000067, -6.98634269799993, 0.0 ] } },
{ "type": "Feature", "properties": { "Name": "TPS Sawojajar", "Kecamatan": "Semarang Barat", "Kelurahan": "Krobokan", "Alamat": "Jl. Sawojajar I No.2 RT 8 RW 1", "Latitude": "-6.97771419599997", "Longitude": "110.400599569" }, "geometry": { "type": "Point", "coordinates": [ 110.400599569000065, -6.977714195999965, 0.0 ] } },
{ "type": "Feature", "properties": { "Name": "TPS Suratmo", "Kecamatan": "Semarang Barat", "Kelurahan": "Kalibanteng Kidul", "Alamat": "Jl. Sri Rejeki Dalam Raya", "Latitude": "-6.99704374599997", "Longitude": "110.3832019" }, "geometry": { "type": "Point", "coordinates": [ 110.383201900000074, -6.997043745999974, 0.0 ] } },
{ "type": "Feature", "properties": { "Name": "TPS Taman Borobudur Utara", "Kecamatan": "Semarang Barat", "Kelurahan": "Kembangarum", "Alamat": "Jl. Taman Borobudur Utara XI (Swalayan Ramai)", "Latitude": "-6.99936302199995", "Longitude": "110.377765731" }, "geometry": { "type": "Point", "coordinates": [ 110.377765731000068, -6.999363021999955, 0.0 ] } },
{ "type": "Feature", "properties": { "Name": "TPS Tambakharjo", "Kecamatan": "Semarang Barat", "Kelurahan": "Tambakharjo", "Alamat": "Jl. Tambakharjo RT 1 RW 1", "Latitude": "-6.98033229299995", "Longitude": "110.364395694" }, "geometry": { "type": "Point", "coordinates": [ 110.364395694000052, -6.980332292999947, 0.0 ] } },
{ "type": "Feature", "properties": { "Name": "TPS Tawangmas (SI Blok C)", "Kecamatan": "Semarang Barat", "Kelurahan": "Tawangmas", "Alamat": "Jl. Yos Sudarso Semarang Indah Blok C", "Latitude": "-6.96816726999998", "Longitude": "110.393394167" }, "geometry": { "type": "Point", "coordinates": [ 110.393394167000054, -6.968167269999981, 0.0 ] } },
{ "type": "Feature", "properties": { "Name": "TPS Wologito Barat", "Kecamatan": "Semarang Barat", "Kelurahan": "Kembangarum", "Alamat": "Jl. Wologito Barat (Dekat SMK Nusa Bakti)", "Latitude": "-6.99216791099997", "Longitude": "110.372099235" }, "geometry": { "type": "Point", "coordinates": [ 110.372099235000064, -6.992167910999967, 0.0 ] } },
{ "type": "Feature", "properties": { "Name": "TPS Boom Lama", "Kecamatan": "Semarang Utara", "Kelurahan": "Kuningan", "Alamat": "Jl. Boom Lama", "Latitude": "-6.96288992599995", "Longitude": "110.419990766" }, "geometry": { "type": "Point", "coordinates": [ 110.419990766000069, -6.962889925999946, 0.0 ] } },
{ "type": "Feature", "properties": { "Name": "TPS Bulu Lor (Pasar Surtikanti)", "Kecamatan": "Semarang Utara", "Kelurahan": "Bulu Lor", "Alamat": "Jl. Anggraini Raya RW 2", "Latitude": "-6.97456803899996", "Longitude": "110.404464766" }, "geometry": { "type": "Point", "coordinates": [ 110.404464766000046, -6.974568038999962, 0.0 ] } },
{ "type": "Feature", "properties": { "Name": "TPS Gor Satria", "Kecamatan": "Semarang Utara", "Kelurahan": "Plombokan", "Alamat": "Jl. Satria Selatan", "Latitude": "-6.97099337299994", "Longitude": "110.410679405" }, "geometry": { "type": "Point", "coordinates": [ 110.410679405000053, -6.970993372999942, 0.0 ] } },
{ "type": "Feature", "properties": { "Name": "TPS Kapten Wiranto RW 09", "Kecamatan": "Semarang Utara", "Kelurahan": "Bandarharjo", "Alamat": "Jl. Kapten Wiranto RW 9", "Latitude": "-6.95730418799997", "Longitude": "110.420839492" }, "geometry": { "type": "Point", "coordinates": [ 110.420839492000084, -6.957304187999966, 0.0 ] } },
{ "type": "Feature", "properties": { "Name": "TPS Kapten Wiranto RW 10", "Kecamatan": "Semarang Utara", "Kelurahan": "Bandarharjo", "Alamat": "Jl. Kapten Wiranto RW 10", "Latitude": "-6.96338850699993", "Longitude": "110.422709402" }, "geometry": { "type": "Point", "coordinates": [ 110.422709402000066, -6.963388506999934, 0.0 ] } },
{ "type": "Feature", "properties": { "Name": "TPS Kebonharjo Gang 4", "Kecamatan": "Semarang Utara", "Kelurahan": "Tanjung Mas", "Alamat": "Jl. Kebonharjo Gang 4", "Latitude": "-6.95751697699995", "Longitude": "110.424968536" }, "geometry": { "type": "Point", "coordinates": [ 110.424968536000051, -6.957516976999955, 0.0 ] } },
{ "type": "Feature", "properties": { "Name": "TPS Kesehatan", "Kecamatan": "Semarang Utara", "Kelurahan": "Kuningan", "Alamat": "Jl. Kesehatan", "Latitude": "-6.96407819699994", "Longitude": "110.415358167" }, "geometry": { "type": "Point", "coordinates": [ 110.415358167000079, -6.964078196999935, 0.0 ] } },
{ "type": "Feature", "properties": { "Name": "TPS Kolonel Sugiono", "Kecamatan": "Semarang Utara", "Kelurahan": "Dadapsari", "Alamat": "Jl. Kolonel Sugiono RT 1 RW 9", "Latitude": "-6.96806858999997", "Longitude": "110.422975514" }, "geometry": { "type": "Point", "coordinates": [ 110.422975514000086, -6.968068589999973, 0.0 ] } },
{ "type": "Feature", "properties": { "Name": "TPS Lodan Raya RW 3", "Kecamatan": "Semarang Utara", "Kelurahan": "Bandarharjo", "Alamat": "Jl. Lodan Raya RW 3", "Latitude": "-6.95917386499997", "Longitude": "110.415155579" }, "geometry": { "type": "Point", "coordinates": [ 110.415155579000043, -6.959173864999968, 0.0 ] } },
{ "type": "Feature", "properties": { "Name": "TPS Lodan Raya RW 5", "Kecamatan": "Semarang Utara", "Kelurahan": "Bandarharjo", "Alamat": "Jl. Lodan Raya RW 5", "Latitude": "-6.96004125699994", "Longitude": "110.417359219" }, "geometry": { "type": "Point", "coordinates": [ 110.417359219000048, -6.960041256999943, 0.0 ] } },
{ "type": "Feature", "properties": { "Name": "TPS Panggang", "Kecamatan": "Semarang Utara", "Kelurahan": "Bandarharjo", "Alamat": "Jl. Yos Sudarso RW 8", "Latitude": "-6.95324548799994", "Longitude": "110.408829577" }, "geometry": { "type": "Point", "coordinates": [ 110.408829577000063, -6.953245487999936, 0.0 ] } },
{ "type": "Feature", "properties": { "Name": "TPS Panggung Kidul dan Panggung Lor", "Kecamatan": "Semarang Utara", "Kelurahan": "Panggung Lor", "Alamat": "Jl. Lingkar Tanjung Mas Raya RT 6 RW XIV", "Latitude": "-6.95432108099993", "Longitude": "110.401331227" }, "geometry": { "type": "Point", "coordinates": [ 110.401331227000071, -6.954321080999932, 0.0 ] } },
{ "type": "Feature", "properties": { "Name": "TPS Pasar Boom Lama", "Kecamatan": "Semarang Utara", "Kelurahan": "Kuningan", "Alamat": "Jl. Boom Lama", "Latitude": "-6.96192874499997", "Longitude": "110.418253198" }, "geometry": { "type": "Point", "coordinates": [ 110.418253198000059, -6.961928744999966, 0.0 ] } },
{ "type": "Feature", "properties": { "Name": "TPS Patriot Raya", "Kecamatan": "Semarang Utara", "Kelurahan": "Purwosari", "Alamat": "Jl. Patriot Raya RW VI", "Latitude": "-6.97104931899997", "Longitude": "110.412999811" }, "geometry": { "type": "Point", "coordinates": [ 110.412999811000077, -6.971049318999974, 0.0 ] } },
{ "type": "Feature", "properties": { "Name": "TPS Plombokan", "Kecamatan": "Semarang Utara", "Kelurahan": "Plombokan", "Alamat": "Jl. Srikandi", "Latitude": "-6.96762739799993", "Longitude": "110.408375093" }, "geometry": { "type": "Point", "coordinates": [ 110.408375093000075, -6.967627397999934, 0.0 ] } },
{ "type": "Feature", "properties": { "Name": "TPS Ronggowarsito", "Kecamatan": "Semarang Utara", "Kelurahan": "Tanjung Mas", "Alamat": "Jl. Ronggowarsito", "Latitude": "-6.96082268599997", "Longitude": "110.430730286" }, "geometry": { "type": "Point", "coordinates": [ 110.430730286000085, -6.960822685999972, 0.0 ] } },
{ "type": "Feature", "properties": { "Name": "TPS Tambra (Pasar Perbalan)", "Kecamatan": "Semarang Utara", "Kelurahan": "Dadapsari", "Alamat": "Jl. Tambra RT 4 RW 10", "Latitude": "-6.96785684199995", "Longitude": "110.415518673" }, "geometry": { "type": "Point", "coordinates": [ 110.415518673000065, -6.967856841999946, 0.0 ] } },
{ "type": "Feature", "properties": { "Name": null, "Kecamatan": null, "Kelurahan": null, "Alamat": null, "Latitude": null, "Longitude": null }, "geometry": { "type": "Point", "coordinates": [ -1.7976931348623157e+308, -1.7976931348623157e+308, -1.7976931348623157e+308 ] } },
{ "type": "Feature", "properties": { "Name": null, "Kecamatan": null, "Kelurahan": null, "Alamat": null, "Latitude": null, "Longitude": null }, "geometry": { "type": "Point", "coordinates": [ -1.7976931348623157e+308, -1.7976931348623157e+308, -1.7976931348623157e+308 ] } }
]
}
