{
"type": "FeatureCollection",
"name": "garpan2013",
"crs": { "type": "name", "properties": { "name": "urn:ogc:def:crs:EPSG::32749" } },
"features": [
{ "type": "Feature", "properties": { "FID_Kel_Di": 0, "Id": 0 }, "geometry": { "type": "MultiLineString", "coordinates": [ [ [ 425001.126787801738828, 9233553.922158358618617 ], [ 425199.695697677845601, 9233583.707493389025331 ], [ 425232.795037965173833, 9233571.630690030753613 ], [ 425979.763869806891307, 9233299.087997045367956 ], [ 426557.634442948619835, 9233088.243378356099129 ], [ 426669.105167856032494, 9233047.571635300293565 ], [ 426678.317543251963798, 9233020.708368262276053 ], [ 426675.802263565943576, 9232996.813748767599463 ], [ 426674.253164679219481, 9232990.217825587838888 ], [ 426649.24822492961539, 9232883.752313807606697 ], [ 426693.926245046721306, 9232844.038514092564583 ], [ 426716.635683917265851, 9232839.363041101023555 ], [ 426862.709749881760217, 9232809.288966881111264 ], [ 426953.733331449970137, 9232840.870604854077101 ], [ 427007.810439491295256, 9232835.840179689228535 ], [ 427061.278619531018194, 9232853.966965120285749 ], [ 427105.956600180594251, 9232888.716576106846333 ], [ 427129.848672974563669, 9232903.920538686215878 ], [ 427139.290933364594821, 9232925.165827354416251 ], [ 427152.33535284223035, 9232946.036813074722886 ], [ 427179.728511514724232, 9232986.474282778799534 ], [ 427211.034929945715703, 9233019.085221376270056 ], [ 427254.081401201372501, 9233039.956169469282031 ], [ 427294.518959666544106, 9233047.782778866589069 ], [ 427340.174160733819008, 9233045.173922160640359 ], [ 427387.133846641518176, 9233045.173908220604062 ], [ 427452.355703609879129, 9233055.609417365863919 ], [ 427494.445566444192082, 9233069.639389585703611 ], [ 427526.708529974799603, 9233080.393724516034126 ], [ 427598.452599619107787, 9233105.177962912246585 ], [ 427663.67441630520625, 9233120.831212643533945 ], [ 427705.155514298530761, 9233128.397032480686903 ], [ 427725.312875752337277, 9233131.902630994096398 ], [ 427727.161530371755362, 9233133.264104327186942 ], [ 427893.165528320241719, 9233098.051130264997482 ], [ 427915.639474451192655, 9233053.997721269726753 ], [ 427949.874175855889916, 9232980.554656250402331 ], [ 427954.17709177150391, 9232979.584386730566621 ], [ 428066.283069376309868, 9232954.305580446496606 ], [ 428161.702549155743327, 9232932.789416929706931 ], [ 428243.493101541884243, 9232914.346451997756958 ], [ 428323.651581493846606, 9232896.271485112607479 ], [ 428452.58127010188764, 9232867.19907938875258 ], [ 428456.224772597372066, 9232866.377558924257755 ], [ 428530.688074466539547, 9232940.840814819559455 ], [ 428546.0545745153795, 9232946.987426346167922 ], [ 428555.509168165328447, 9232950.769305463880301 ], [ 428717.770462218148168, 9232915.20523033477366 ], [ 428917.897372070234269, 9232871.341759789735079 ], [ 429002.289088014978915, 9232841.556420033797622 ], [ 429025.206891396082938, 9232821.308696089312434 ], [ 429211.726471906120423, 9232647.571985088288784 ], [ 429454.448970108700451, 9232421.345139399170876 ], [ 429502.902093607001007, 9232376.18487536534667 ], [ 429559.82438064814778, 9232365.342607870697975 ], [ 429579.364588930795435, 9232374.298497933894396 ], [ 429582.013595233322121, 9232374.61017307266593 ], [ 429826.349825089448132, 9232320.313214968889952 ], [ 429828.489828007877804, 9232301.186951193958521 ], [ 429830.968422520498279, 9232279.034526968374848 ], [ 429847.649889449239708, 9232129.943900790065527 ], [ 429851.170920311182272, 9232098.47457616776228 ], [ 430104.432041738065891, 9232094.112878557294607 ], [ 430133.137344611808658, 9232093.61850475333631 ], [ 430306.5397216991405, 9232090.632140940055251 ], [ 430352.495776560564991, 9232124.832088386639953 ], [ 430381.120301290997304, 9232136.281790984794497 ], [ 430408.358666696236469, 9232141.1603525839746 ], [ 430416.441070822766051, 9232142.607957484200597 ], [ 430485.468691815098282, 9232142.426960816606879 ], [ 430571.407487488002516, 9232142.201648455113173 ], [ 430833.57257835631026, 9232141.514361713081598 ], [ 431134.292874619772192, 9232140.726050743833184 ], [ 431282.080266781966202, 9232140.33859302289784 ], [ 431428.990924565761816, 9232139.953438779339194 ], [ 431477.596287648600992, 9232139.826069295406342 ], [ 431632.183912046952173, 9232148.649050632491708 ], [ 431664.345692568283994, 9232150.543258525431156 ], [ 431670.860165835940279, 9232150.926980800926685 ], [ 431674.883958506281488, 9232151.158093709498644 ], [ 431685.172482763766311, 9232151.749053001403809 ], [ 431776.956093818356749, 9232157.020986974239349 ], [ 432159.348390138358809, 9232187.212870130315423 ], [ 432196.178220212343149, 9232190.120817456394434 ], [ 432219.12247007311089, 9232164.489386267960072 ], [ 432218.562026686617173, 9232163.232339944690466 ], [ 432286.753930333827157, 9232079.583617050200701 ], [ 432368.160736642370466, 9231979.724657151848078 ], [ 432312.175493267073762, 9231903.744705814868212 ], [ 432292.316330356465187, 9231906.272663317620754 ], [ 432285.707799351483118, 9231907.146882010623813 ], [ 432280.18399742373731, 9231907.74368611164391 ], [ 432265.580400886712596, 9231930.937626326456666 ], [ 432246.37031786312582, 9231961.447826880961657 ], [ 432246.192996030382346, 9231961.729401487857103 ], [ 432140.221100001072045, 9231925.738900002092123 ], [ 432199.65049999859184, 9231680.94649999961257 ], [ 432223.74920000100974, 9231581.682600000873208 ], [ 432245.203400001337286, 9231568.388499999418855 ], [ 432257.940400001069065, 9231570.900000002235174 ], [ 432532.435600002820138, 9231625.025800004601479 ], [ 432624.250300002750009, 9231643.130100002512336 ], [ 432647.845699998491909, 9231667.784700002521276 ], [ 432633.148100001446437, 9231689.398800004273653 ], [ 432632.454769556061365, 9231689.476279065012932 ], [ 432632.016082646732684, 9231689.525324804708362 ], [ 432491.062500002328306, 9231890.999999998137355 ], [ 432526.327099998947233, 9231920.386100001633167 ], [ 432667.468799998459872, 9232038.00000000372529 ], [ 432668.792082462809049, 9232038.777854736894369 ], [ 432810.613432430662215, 9232122.140424804762006 ], [ 432885.719033038651105, 9232166.287486543878913 ], [ 432885.72870831907494, 9232166.296741835772991 ], [ 432915.940317775122821, 9232195.28363779373467 ], [ 432915.048455237410963, 9232196.175537927076221 ], [ 433003.473451514320914, 9232286.284633537754416 ], [ 433087.678759100730531, 9232370.970752632245421 ], [ 433124.232196892204229, 9232380.889358261600137 ], [ 433186.139274985238444, 9232414.762862322852015 ], [ 433186.316303461731877, 9232627.122941676527262 ], [ 433186.317631975281984, 9232628.716603757813573 ], [ 433186.614552377257496, 9232984.672667657956481 ], [ 433872.339770375343505, 9232984.972796952351928 ], [ 434218.169465128099546, 9232985.115870080888271 ], [ 434313.981788979435805, 9232985.1554941162467 ], [ 434353.175018703273963, 9232985.17167516797781 ], [ 434395.654430864960887, 9232985.192826500162482 ], [ 434465.011720859154593, 9232985.227341091260314 ], [ 434498.193532384582795, 9232985.243963873013854 ], [ 434519.999122855835594, 9232985.254750126972795 ], [ 434544.986173923767637, 9232985.267291236668825 ], [ 435155.559199085109867, 9232985.534507088363171 ], [ 435785.884388190577738, 9232985.810419790446758 ], [ 435785.582299998612143, 9232525.983400002121925 ], [ 435785.599699999671429, 9232516.448100002482533 ], [ 435785.528899999102578, 9232399.585699997842312 ], [ 435785.499999999825377, 9232352.000000001862645 ], [ 435601.739000002329703, 9232355.186899999156594 ], [ 435599.779899999906775, 9232260.169399999082088 ], [ 435784.264099999913014, 9232254.945000002160668 ], [ 435783.741099998296704, 9232239.847200000658631 ], [ 435774.142000000458211, 9232234.047700000926852 ], [ 435631.12590000097407, 9232237.312900001183152 ], [ 435624.26890000194544, 9232232.415100002661347 ], [ 435623.942400002444629, 9232213.803399998694658 ], [ 435629.493300000205636, 9232207.273000001907349 ], [ 435772.509399999689776, 9232203.68129999935627 ], [ 435782.345099998638034, 9232199.550300002098083 ], [ 435782.187500001455192, 9232195.0 ], [ 435780.562499998137355, 9232143.000000001862645 ], [ 435774.794999999459833, 9232138.703599998727441 ], [ 435694.470899999840185, 9232141.315799998119473 ], [ 435693.817899998626672, 9232097.562000000849366 ], [ 435774.142000000458211, 9232097.562000000849366 ], [ 435779.366300002147909, 9232093.317200001329184 ], [ 435779.325200002116617, 9232085.776300001889467 ], [ 435778.781300000380725, 9231986.0 ], [ 435776.687500000698492, 9231890.999999998137355 ], [ 435785.093799998401664, 9231890.999999998137355 ], [ 435783.531300002359785, 9231852.000000001862645 ], [ 435777.025600001623388, 9231851.853200001642108 ], [ 435776.199499998765532, 9231851.834600001573563 ], [ 435773.375000002328306, 9231757.999999998137355 ], [ 435768.53480000118725, 9231562.013699999079108 ], [ 435769.156299999624025, 9231562.108500001952052 ], [ 435769.809199999843258, 9231562.208100000396371 ], [ 435774.999999998952262, 9231563.000000001862645 ], [ 435776.33229999942705, 9231558.7051 ], [ 435787.718799998634495, 9231522.000000001862645 ], [ 435785.429600001021754, 9231521.088100001215935 ], [ 435780.187499998777639, 9231519.000000001862645 ], [ 435804.218799998692703, 9231445.999999998137355 ], [ 435829.213599998853169, 9231364.328700002282858 ], [ 435832.8125, 9231362.0 ], [ 435931.72880000132136, 9231044.487700002267957 ], [ 435936.483999999181833, 9231034.349199997261167 ], [ 435936.635100000945386, 9231034.027100002393126 ], [ 435940.191800000029616, 9231026.443800000473857 ], [ 435951.900700002617668, 9231029.647399999201298 ], [ 435951.952593187335879, 9231029.661624975502491 ], [ 435952.076593203120865, 9231029.69558434933424 ], [ 435956.159300000115763, 9231030.8301 ], [ 435963.968799999332987, 9231033.00000000372529 ], [ 435963.429600001894869, 9231034.739900007843971 ], [ 435952.812500002328306, 9231069.00000000372529 ], [ 435950.125000001513399, 9231069.00000000372529 ], [ 435939.749300001654774, 9231103.032299997285008 ], [ 435928.551799999200739, 9231139.760100001469254 ], [ 435925.124999998777639, 9231150.999999998137355 ], [ 435904.642699999501929, 9231216.939899999648333 ], [ 435883.812500002328306, 9231283.999999998137355 ], [ 435857.656299999332987, 9231370.00000000372529 ], [ 435859.654099998064339, 9231370.784400001168251 ], [ 435862.749999999941792, 9231372.000000001862645 ], [ 435853.591600000450853, 9231401.096799999475479 ], [ 435840.883799998497125, 9231441.470499997958541 ], [ 435833.898199998191558, 9231463.664300000295043 ], [ 435832.218799998809118, 9231468.999999998137355 ], [ 435833.03130000049714, 9231493.000000001862645 ], [ 435833.126299998257309, 9231497.164500003680587 ], [ 435833.126299998257309, 9231497.167899999767542 ], [ 435835.312499998894054, 9231593.00000000372529 ], [ 435835.613300001889002, 9231593.99100000038743 ], [ 435837.437500000698492, 9231600.0 ], [ 435842.999999999883585, 9231601.0 ], [ 435848.500000000640284, 9231600.0 ], [ 435854.593800001312047, 9231592.000000001862645 ], [ 435859.186400001461152, 9231584.787100004032254 ], [ 435864.781299998983741, 9231576.0 ], [ 435872.499999999767169, 9231564.0 ], [ 435875.65620000049239, 9231559.0 ], [ 435880.250000001396984, 9231560.999999998137355 ], [ 435879.562499998777639, 9231564.0 ], [ 435884.749999998603016, 9231567.000000001862645 ], [ 435888.687499998894054, 9231555.999999998137355 ], [ 435882.156300001428463, 9231557.000000001862645 ], [ 435876.937499998603016, 9231555.0 ], [ 435889.749999998661224, 9231522.000000001862645 ], [ 435895.218799999624025, 9231524.00000000372529 ], [ 435894.187499999708962, 9231526.999999998137355 ], [ 435899.812499999534339, 9231529.00000000372529 ], [ 435904.000000002386514, 9231518.0 ], [ 435898.593799998634495, 9231516.000000001862645 ], [ 435896.718799999449402, 9231520.0 ], [ 435891.750000001396984, 9231518.0 ], [ 435902.218799997994211, 9231490.0 ], [ 435925.093799998983741, 9231419.000000005587935 ], [ 435940.624999999767169, 9231370.999999998137355 ], [ 435941.437500001396984, 9231368.00000000372529 ], [ 435946.000000001455192, 9231365.999999998137355 ], [ 435950.624999999941792, 9231347.000000001862645 ], [ 435947.718799999565817, 9231345.00000000372529 ], [ 435955.156300002417993, 9231322.00000000372529 ], [ 435959.468799999915063, 9231321.000000001862645 ], [ 435964.406299999391194, 9231320.000000001862645 ], [ 435968.281300001312047, 9231321.000000001862645 ], [ 435971.531200002471451, 9231324.000000001862645 ], [ 435972.90629999974044, 9231328.0 ], [ 435960.96879999974044, 9231367.000000001862645 ], [ 435960.906300001312047, 9231373.00000000372529 ], [ 435960.406299998401664, 9231378.000000001862645 ], [ 435962.718799999856856, 9231399.0 ], [ 435964.218799999682233, 9231407.000000001862645 ], [ 435963.062500000698492, 9231416.999999998137355 ], [ 435951.398099998419639, 9231478.57880000397563 ], [ 435987.298900001158472, 9231483.644500000402331 ], [ 435996.959799999371171, 9231479.666500002145767 ], [ 436028.499899998772889, 9231464.891000002622604 ], [ 436043.843799999624025, 9231453.24100000038743 ], [ 436055.533499998913612, 9231441.334799997508526 ], [ 436064.586399998981506, 9231426.531300000846386 ], [ 436035.603599998808932, 9231414.313100002706051 ], [ 436041.00229999946896, 9231391.2972999997437 ], [ 436067.143700000422541, 9231394.707100002095103 ], [ 436071.690000000176951, 9231376.237600000575185 ], [ 436056.061999999335967, 9231371.122999999672174 ], [ 436066.291199998522643, 9231324.523200003430247 ], [ 436085.044800001720432, 9231314.009800001978874 ], [ 436053.504700000106823, 9231307.19029999896884 ], [ 436052.429899998649489, 9231302.079600000753999 ], [ 436059.067199999291915, 9231295.804300002753735 ], [ 436094.787700000219047, 9231303.406999997794628 ], [ 436102.87310000276193, 9231286.632800001651049 ], [ 436104.803999999479856, 9231276.73730000294745 ], [ 436058.584499998716637, 9231197.331399999558926 ], [ 436060.406300000380725, 9231179.0 ], [ 436067.567799998971168, 9231174.769200002774596 ], [ 436090.874999998603016, 9231161.00000000372529 ], [ 436094.923099999956321, 9231161.00000000372529 ], [ 436095.062500001513399, 9231161.00000000372529 ], [ 436110.96880000049714, 9231186.999999998137355 ], [ 436145.906300000555348, 9231248.00000000372529 ], [ 436258.468800002301577, 9231182.000000001862645 ], [ 436392.124999999592546, 9231106.000000001862645 ], [ 436419.374999998719431, 9231150.999999998137355 ], [ 436268.468799998052418, 9231239.000000001862645 ], [ 436276.83169999968959, 9231253.091700004413724 ], [ 436309.742499999469146, 9231308.547400003299117 ], [ 436332.562500000698492, 9231347.000000001862645 ], [ 436603.249999999767169, 9231189.00000000372529 ], [ 436636.04750000074273, 9231243.571200001984835 ], [ 436405.689500002772547, 9231377.155999999493361 ], [ 436380.340300002600998, 9231391.671699998900294 ], [ 436225.425799998862203, 9231480.380699997767806 ], [ 436228.778400000650436, 9231486.156699998304248 ], [ 436220.646599999046884, 9231492.090700002387166 ], [ 436229.710999999544583, 9231507.612700000405312 ], [ 436254.272700000961777, 9231549.672800000756979 ], [ 436239.327800001425203, 9231559.123299999162555 ], [ 436212.360900001309346, 9231519.288699999451637 ], [ 436204.718799998459872, 9231508.0 ], [ 436196.9105, 9231500.00279999896884 ], [ 436194.273099999292754, 9231501.101700000464916 ], [ 436197.130199998326134, 9231512.090599998831749 ], [ 436204.623899999423884, 9231524.3445999994874 ], [ 436250.756299998436589, 9231599.782299999147654 ], [ 436249.437600001401734, 9231603.738399999216199 ], [ 436237.34969999990426, 9231611.210799997672439 ], [ 436233.173899999412242, 9231610.1119 ], [ 436186.697700000891928, 9231534.908300001174212 ], [ 436177.35010000038892, 9231519.7829 ], [ 436157.570000000298023, 9231528.134500004351139 ], [ 436108.998936872405466, 9231558.024374032393098 ], [ 436109.902494739450049, 9231559.4442506916821 ], [ 436110.537399998574983, 9231560.441899998113513 ], [ 436082.845300000626594, 9231578.244000008329749 ], [ 436095.251800001249649, 9231598.654699999839067 ], [ 436110.097799997776747, 9231623.0789 ], [ 436088.779300000111107, 9231637.14470000565052 ], [ 436076.238800000224728, 9231619.607499998062849 ], [ 436060.647600001306273, 9231597.804300000891089 ], [ 436034.274200000334531, 9231616.925100000575185 ], [ 436052.93879999849014, 9231643.447599999606609 ], [ 436054.031299999565817, 9231645.0 ], [ 436048.124999998544808, 9231651.0 ], [ 436045.590200001955964, 9231650.18890000320971 ], [ 436041.87499999901047, 9231649.000000001862645 ], [ 436024.384100000897888, 9231625.935999998822808 ], [ 436020.428099999728147, 9231629.452499998733401 ], [ 436039.353900000161957, 9231655.714400000870228 ], [ 436055.230400002037641, 9231677.745100002735853 ], [ 436038.51580000075046, 9231689.801600001752377 ], [ 436019.935500001185574, 9231669.185100000351667 ], [ 435998.510200000135228, 9231645.411800000816584 ], [ 435994.674000002094544, 9231648.151899999007583 ], [ 436014.132699999841861, 9231673.026900002732873 ], [ 436047.832100002618972, 9231716.106600001454353 ], [ 436026.459299998823553, 9231732.8213 ], [ 435997.721399999631103, 9231698.078500002622604 ], [ 435971.383099999278784, 9231666.236600002273917 ], [ 435946.322999999683816, 9231700.789499998092651 ], [ 436012.190999998478219, 9231778.754300002008677 ], [ 435984.062099998467602, 9231798.465500002726912 ], [ 435971.575999999069609, 9231808.56670000217855 ], [ 435927.664100000169128, 9231851.356200003996491 ], [ 435911.883099998754915, 9231866.381800001487136 ], [ 435911.390000001934823, 9231867.770600000396371 ], [ 435912.231800000183284, 9231874.364400003105402 ], [ 435905.778300000354648, 9231881.238799998536706 ], [ 435903.252999999967869, 9231886.0088 ], [ 435902.499999998137355, 9231948.000000001862645 ], [ 435904.319900001049973, 9231954.591 ], [ 435889.148199999646749, 9231967.257200000807643 ], [ 435895.133400001272094, 9231975.887000003829598 ], [ 435901.257700001529884, 9231981.454600002616644 ], [ 435910.444300000090152, 9231986.604600001126528 ], [ 435918.533600001188461, 9231989.132500004023314 ], [ 435919.352400000730995, 9231989.388400001451373 ], [ 435933.410599999944679, 9231988.553299998864532 ], [ 435938.978199998498894, 9231987.161400001496077 ], [ 435946.63360000186367, 9231982.846500003710389 ], [ 435953.314800001331605, 9231977.000500001013279 ], [ 436027.781299999565817, 9231911.163699997588992 ], [ 436019.708299999765586, 9231901.420399997383356 ], [ 436069.42879999964498, 9231861.361800001934171 ], [ 436082.482899999187794, 9231876.6447 ], [ 436087.354599998681806, 9231872.19060000218451 ], [ 436074.2362999994657, 9231857.402700005099177 ], [ 436107.0625, 9231830.0 ], [ 436116.72360000241315, 9231840.176899999380112 ], [ 436111.40630000049714, 9231846.000000005587935 ], [ 436117.976400000683498, 9231853.121600000187755 ], [ 436133.147999998938758, 9231839.620099999010563 ], [ 436126.327700000896584, 9231832.243100002408028 ], [ 436120.342600002419204, 9231836.55800000205636 ], [ 436111.295199999003671, 9231826.397100001573563 ], [ 436146.510299999150448, 9231790.764500001445413 ], [ 436228.35390000033658, 9231736.202100003138185 ], [ 436242.133699998259544, 9231754.853499999269843 ], [ 436246.309400002181064, 9231751.791300000622869 ], [ 436241.855300001392607, 9231745.388600001111627 ], [ 436265.656799998658244, 9231727.850700000301003 ], [ 436265.090499999700114, 9231715.876900000497699 ], [ 436337.617999998852611, 9231677.046400003135204 ], [ 436345.830200000433251, 9231692.914000000804663 ], [ 436503.810600000317208, 9231604.5285 ], [ 436494.902499999676365, 9231588.660800004377961 ], [ 436540.593699999735691, 9231565.00000000372529 ], [ 436568.312499999708962, 9231549.00000000372529 ], [ 436613.965599998366088, 9231521.169399997219443 ], [ 436618.879399998870213, 9231523.392300004139543 ], [ 436646.6091, 9231572.266099998727441 ], [ 436654.101800000178628, 9231585.472099998965859 ], [ 436646.606900000479072, 9231592.601399999111891 ], [ 436673.996700000599958, 9231635.8366 ], [ 436690.845099999161903, 9231662.432 ], [ 436682.916800002218224, 9231671.1952 ], [ 436666.875900000333786, 9231688.925300002098083 ], [ 436662.499000001174863, 9231684.669700002297759 ], [ 436637.596000000427011, 9231712.307200001552701 ], [ 436639.41896045539761, 9231714.052633306011558 ], [ 436642.18590468034381, 9231716.701881397515535 ], [ 436305.096399998874404, 9232091.528100002557039 ], [ 436306.850100000097882, 9233194.708400001749396 ], [ 436307.368196663155686, 9233549.643442541360855 ], [ 436986.81396921799751, 9233546.453532863408327 ], [ 437222.827092559426092, 9233545.345481896772981 ], [ 437222.827090124075767, 9233395.912062965333462 ], [ 437222.827088567835744, 9233300.661873031407595 ], [ 437222.827074885834008, 9232462.267304170876741 ], [ 437245.326756569207646, 9232407.727266814559698 ], [ 437270.0261873981799, 9232407.47418880276382 ], [ 437284.054348801029846, 9232391.188927402719855 ], [ 437289.941086435283069, 9232393.649564808234572 ], [ 437327.36697993701091, 9232396.207712844014168 ], [ 437351.12396232917672, 9232397.83159177005291 ], [ 437354.642400551470928, 9232398.072091950103641 ], [ 437440.151273226772901, 9232403.917030096054077 ], [ 437451.715507987595629, 9232404.707487614825368 ], [ 437502.614984927233309, 9232422.240511126816273 ], [ 437734.487330750038382, 9232502.111901130527258 ], [ 437758.604701703996398, 9232510.701697079464793 ], [ 437768.515925260027871, 9232514.335813727229834 ], [ 437768.68065838131588, 9232514.409636924043298 ], [ 437783.370187908993103, 9232520.990101765841246 ], [ 437794.59009239525767, 9232527.993112184107304 ], [ 437847.140598806319758, 9232560.793081531301141 ], [ 437861.917100000602659, 9232570.015999998897314 ], [ 437862.069200001191348, 9232570.11089999973774 ], [ 437860.907300000078976, 9232580.39299999922514 ], [ 437860.379800000635441, 9232585.0608000010252 ], [ 437859.340699999069329, 9232596.491100000217557 ], [ 437866.354800001368858, 9232602.466 ], [ 437876.714399999706075, 9232608.768699999898672 ], [ 437903.996599999663886, 9232625.367000000551343 ], [ 437940.651600002718624, 9232647.667600000277162 ], [ 437941.22839999885764, 9232648.321300001814961 ], [ 437948.44500000262633, 9232656.500100001692772 ], [ 437951.562299998477101, 9232670.008600004017353 ], [ 437951.562299998477101, 9232688.712700001895428 ], [ 437953.120999999053311, 9232715.729700000956655 ], [ 437957.277499999676365, 9232735.992500001564622 ], [ 437960.914399998961017, 9232748.461900003254414 ], [ 437973.903300000063609, 9232769.76380000077188 ], [ 437993.386800000967924, 9232791.325400002300739 ], [ 438006.89529999892693, 9232803.794800000265241 ], [ 438024.560199998668395, 9232813.146900003775954 ], [ 438052.096800000232179, 9232829.772700004279613 ], [ 438076.516099999367725, 9232844.32039999961853 ], [ 438099.896200002578553, 9232860.426699999719858 ], [ 438113.664500002225395, 9232873.67540000192821 ], [ 438155.229099999822211, 9232896.016400001943111 ], [ 438185.883100002654828, 9232913.161800000816584 ], [ 438195.754699999059085, 9232914.200900001451373 ], [ 438212.380499999446329, 9232909.524900000542402 ], [ 438229.525999997684266, 9232904.329299997538328 ], [ 438243.55399999814108, 9232902.770700000226498 ], [ 438258.101699998602271, 9232905.888000002130866 ], [ 438268.492799999716226, 9232914.720499999821186 ], [ 438274.208000000973698, 9232925.63120000064373 ], [ 438278.364400002814364, 9232931.346400002017617 ], [ 438286.677400001790375, 9232931.865900004282594 ], [ 438305.900999997684266, 9232930.8268 ], [ 438338.11359999794513, 9232931.346400002017617 ], [ 438351.62210000253981, 9232934.46370000205934 ], [ 438385.003799999540206, 9232995.901500003412366 ], [ 438383.70490000071004, 9233036.167199999094009 ], [ 438385.87544556974899, 9233036.942445753142238 ], [ 438386.141271851549391, 9233037.037387866526842 ], [ 438385.520200002531055, 9233037.856100004166365 ], [ 438607.108199999667704, 9233120.136000001803041 ], [ 438636.370999999227934, 9233131.001800000667572 ], [ 438663.940700001665391, 9233141.238999998196959 ], [ 438704.186799999733921, 9233156.198700001463294 ], [ 438716.422699999005999, 9233160.746799997985363 ], [ 438744.783800001023337, 9233186.926300000399351 ], [ 438748.367999998852611, 9233190.2347999997437 ], [ 438780.087699999799952, 9233223.716699998825788 ], [ 438827.86270000069635, 9233249.352199997752905 ], [ 438882.902300000248943, 9233273.153100002557039 ], [ 438988.063600000576116, 9233312.328600000590086 ], [ 439045.064199999207631, 9233333.562800001353025 ], [ 439102.654600000358187, 9233355.016799999400973 ], [ 439136.242199999163859, 9233346.619899999350309 ], [ 439158.074199999973644, 9233292.879599999636412 ], [ 439242.312500000407454, 9233244.000000001862645 ], [ 439287.531899998895824, 9233272.55460000038147 ], [ 439295.783400000422262, 9233277.765199998393655 ], [ 439292.424700000497978, 9233301.276599999517202 ], [ 439304.180300000705756, 9233334.864199999719858 ], [ 439332.729800000146497, 9233311.352799998596311 ], [ 439501.305800000147428, 9233396.403000000864267 ], [ 439649.633700000471435, 9233464.660099998116493 ], [ 439691.555899998580571, 9233483.375400001183152 ], [ 439723.141299999551848, 9233497.475999999791384 ], [ 439749.613399999390822, 9233489.912500001490116 ], [ 439790.688199999392964, 9233504.253599999472499 ], [ 439791.30880000005709, 9233504.470300000160933 ], [ 439835.688499998825137, 9233519.965299999341369 ], [ 439857.57929999922635, 9233577.354600001126528 ], [ 439859.655399999348447, 9233582.797300001606345 ], [ 439879.344899998570327, 9233631.364800000563264 ], [ 439954.165099998761434, 9233665.493300000205636 ], [ 439993.544200000411365, 9233672.056500000879169 ], [ 440048.674899999168701, 9233717.998800000175834 ], [ 440102.492999999085441, 9233794.1316 ], [ 440131.370899999048561, 9233851.887599999085069 ], [ 440171.225299999176059, 9233864.223500000312924 ], [ 440186.501600000075996, 9233868.951899999752641 ], [ 440237.694399998988956, 9233870.264499997720122 ], [ 440258.967399999732152, 9233895.562100000679493 ], [ 440286.261899999168236, 9233928.020500000566244 ], [ 440312.004700000572484, 9233958.491499997675419 ], [ 440350.581099999719299, 9234004.153300000354648 ], [ 440374.208499998785555, 9234039.594500001519918 ], [ 440425.401299999910407, 9234067.159900000318885 ], [ 440456.904599999659695, 9234057.971400000154972 ], [ 440538.287999998428859, 9234080.286199998110533 ], [ 440575.04179999907501, 9234064.53460000269115 ] ] ] } }
]
}
